{"type":"FeatureCollection","features":[{"type":"Feature","properties":{"fid":1,"Cod SIIIR":"4061102938","Denumirea unității de învățământ":"Grădiniţa nr. 42","Tip unitate":"Unitate de învățământ","Nivel Primar":0,"Nivel Gimnazial":0,"Nivel Liceal":0,"Regim Juridic - Tip de proprietate":"Public de interes național și local","Număr total elevi":240,"Număr de schimburi":1,"Număr săli de clasă":13,"Număr laboratoare":null,"Număr săli de sport":1,"Număr cabinete medicale":1},"geometry":{"type":"Point","coordinates":[26.070389009525453,44.45724560099512]}},{"type":"Feature","properties":{"fid":2,"Cod SIIIR":"4061101304","Denumirea unității de învățământ":"Grădiniţa nr. 46","Tip unitate":"Unitate de învățământ","Nivel Primar":0,"Nivel Gimnazial":0,"Nivel Liceal":0,"Regim Juridic - Tip de proprietate":"Public de interes național și local","Număr total elevi":216,"Număr de schimburi":1,"Număr săli de clasă":10,"Număr laboratoare":null,"Număr săli de sport":null,"Număr cabinete medicale":null},"geometry":{"type":"Point","coordinates":[26.027174366092638,44.48146688708026]}},{"type":"Feature","properties":{"fid":3,"Cod SIIIR":"4061100972","Denumirea unității de învățământ":"Grădiniţa nr. 47","Tip unitate":"Unitate de învățământ","Nivel Primar":0,"Nivel Gimnazial":0,"Nivel Liceal":0,"Regim Juridic - Tip de proprietate":"Public de interes național și local","Număr total elevi":264,"Număr de schimburi":1,"Număr săli de clasă":5,"Număr laboratoare":null,"Număr săli de sport":null,"Număr cabinete medicale":null},"geometry":{"type":"Point","coordinates":[26.030806796669005,44.49174818402229]}},{"type":"Feature","properties":{"fid":4,"Cod SIIIR":"4061101765","Denumirea unității de învățământ":"Grădiniţa nr. 50","Tip unitate":"Unitate de învățământ","Nivel Primar":0,"Nivel Gimnazial":0,"Nivel Liceal":0,"Regim Juridic - Tip de proprietate":"Public de interes național și local","Număr total elevi":217,"Număr de schimburi":1,"Număr săli de clasă":8,"Număr laboratoare":null,"Număr săli de sport":1,"Număr cabinete medicale":1},"geometry":{"type":"Point","coordinates":[26.09129976119908,44.44782427835628]}},{"type":"Feature","properties":{"fid":5,"Cod SIIIR":"4061101833","Denumirea unității de învățământ":"Grădiniţa nr. 52","Tip unitate":"Unitate de învățământ","Nivel Primar":0,"Nivel Gimnazial":0,"Nivel Liceal":0,"Regim Juridic - Tip de proprietate":"Public de interes național și local","Număr total elevi":276,"Număr de schimburi":1,"Număr săli de clasă":12,"Număr laboratoare":null,"Număr săli de sport":null,"Număr cabinete medicale":2},"geometry":{"type":"Point","coordinates":[26.082102900000052,44.46323640000003]}},{"type":"Feature","properties":{"fid":6,"Cod SIIIR":"4061103957","Denumirea unității de învățământ":"Grădiniţa nr. 97","Tip unitate":"Unitate de învățământ","Nivel Primar":0,"Nivel Gimnazial":0,"Nivel Liceal":0,"Regim Juridic - Tip de proprietate":"Public de interes național și local","Număr total elevi":177,"Număr de schimburi":1,"Număr săli de clasă":8,"Număr laboratoare":null,"Număr săli de sport":null,"Număr cabinete medicale":2},"geometry":{"type":"Point","coordinates":[26.06556758434094,44.46026182887458]}},{"type":"Feature","properties":{"fid":7,"Cod SIIIR":"4061100918","Denumirea unității de învățământ":"Grădiniţa nr. 116","Tip unitate":"Unitate de învățământ","Nivel Primar":0,"Nivel Gimnazial":0,"Nivel Liceal":0,"Regim Juridic - Tip de proprietate":"Public de interes național și local","Număr total elevi":204,"Număr de schimburi":1,"Număr săli de clasă":9,"Număr laboratoare":null,"Număr săli de sport":null,"Număr cabinete medicale":null},"geometry":{"type":"Point","coordinates":[26.09628915163143,44.44482090976115]}},{"type":"Feature","properties":{"fid":8,"Cod SIIIR":"4061102956","Denumirea unității de învățământ":"Grădiniţa nr. 122","Tip unitate":"Unitate de învățământ","Nivel Primar":0,"Nivel Gimnazial":0,"Nivel Liceal":0,"Regim Juridic - Tip de proprietate":"Public de interes național și local","Număr total elevi":225,"Număr de schimburi":1,"Număr săli de clasă":9,"Număr laboratoare":null,"Număr săli de sport":null,"Număr cabinete medicale":1},"geometry":{"type":"Point","coordinates":[26.080902114457285,44.49306281935562]}},{"type":"Feature","properties":{"fid":10,"Cod SIIIR":"4061101815","Denumirea unității de învățământ":"Grădiniţa nr. 206","Tip unitate":"Unitate de învățământ","Nivel Primar":0,"Nivel Gimnazial":0,"Nivel Liceal":0,"Regim Juridic - Tip de proprietate":"Public de interes național și local","Număr total elevi":280,"Număr de schimburi":1,"Număr săli de clasă":null,"Număr laboratoare":null,"Număr săli de sport":null,"Număr cabinete medicale":null},"geometry":{"type":"Point","coordinates":[26.075972130000025,44.450417334000065]}},{"type":"Feature","properties":{"fid":11,"Cod SIIIR":"4061103645","Denumirea unității de învățământ":"Grădiniţa nr. 222","Tip unitate":"Unitate de învățământ","Nivel Primar":0,"Nivel Gimnazial":0,"Nivel Liceal":0,"Regim Juridic - Tip de proprietate":"Public de interes național și local","Număr total elevi":398,"Număr de schimburi":1,"Număr săli de clasă":8,"Număr laboratoare":null,"Număr săli de sport":null,"Număr cabinete medicale":null},"geometry":{"type":"Point","coordinates":[26.04795968650054,44.470295799647666]}},{"type":"Feature","properties":{"fid":12,"Cod SIIIR":"4061101498","Denumirea unității de învățământ":"Grădiniţa nr. 251","Tip unitate":"Unitate de învățământ","Nivel Primar":0,"Nivel Gimnazial":0,"Nivel Liceal":0,"Regim Juridic - Tip de proprietate":"Public de interes național și local","Număr total elevi":295,"Număr de schimburi":1,"Număr săli de clasă":18,"Număr laboratoare":null,"Număr săli de sport":null,"Număr cabinete medicale":null},"geometry":{"type":"Point","coordinates":[26.090380837644698,44.45852046771765]}},{"type":"Feature","properties":{"fid":13,"Cod SIIIR":"4061100185","Denumirea unității de învățământ":"Grădiniţa nr. 252","Tip unitate":"Unitate de învățământ","Nivel Primar":0,"Nivel Gimnazial":0,"Nivel Liceal":0,"Regim Juridic - Tip de proprietate":"Public de interes național și local","Număr total elevi":209,"Număr de schimburi":1,"Număr săli de clasă":6,"Număr laboratoare":null,"Număr săli de sport":null,"Număr cabinete medicale":1},"geometry":{"type":"Point","coordinates":[26.08986924380061,44.4580149164684]}},{"type":"Feature","properties":{"fid":14,"Cod SIIIR":"4061103315","Denumirea unității de învățământ":"Grădiniţa „Steaua”","Tip unitate":"Unitate de învățământ","Nivel Primar":0,"Nivel Gimnazial":0,"Nivel Liceal":0,"Regim Juridic - Tip de proprietate":"Public de interes național și local","Număr total elevi":197,"Număr de schimburi":1,"Număr săli de clasă":8,"Număr laboratoare":null,"Număr săli de sport":null,"Număr cabinete medicale":1},"geometry":{"type":"Point","coordinates":[26.05700192515473,44.46462461996526]}},{"type":"Feature","properties":{"fid":15,"Cod SIIIR":"4061101376","Denumirea unității de învățământ":"Grădiniţa nr. 283","Tip unitate":"Unitate de învățământ","Nivel Primar":0,"Nivel Gimnazial":0,"Nivel Liceal":0,"Regim Juridic - Tip de proprietate":"Public de interes național și local","Număr total elevi":206,"Număr de schimburi":1,"Număr săli de clasă":null,"Număr laboratoare":null,"Număr săli de sport":null,"Număr cabinete medicale":null},"geometry":{"type":"Point","coordinates":[26.08510561733599,44.49226137300098]}},{"type":"Feature","properties":{"fid":16,"Cod SIIIR":"4061102291","Denumirea unității de învățământ":"Grădiniţa M.Ap.N. nr. 2","Tip unitate":"Unitate de învățământ","Nivel Primar":0,"Nivel Gimnazial":0,"Nivel Liceal":0,"Regim Juridic - Tip de proprietate":"Public de interes național și local","Număr total elevi":201,"Număr de schimburi":1,"Număr săli de clasă":8,"Număr laboratoare":null,"Număr săli de sport":null,"Număr cabinete medicale":null},"geometry":{"type":"Point","coordinates":[26.084451900000033,44.43910210000007]}},{"type":"Feature","properties":{"fid":17,"Cod SIIIR":"4061205966","Denumirea unității de învățământ":"Grădiniţa „Cami”","Tip unitate":"Unitate de învățământ","Nivel Primar":0,"Nivel Gimnazial":0,"Nivel Liceal":0,"Regim Juridic - Tip de proprietate":"Privat","Număr total elevi":52,"Număr de schimburi":1,"Număr săli de clasă":null,"Număr laboratoare":null,"Număr săli de sport":null,"Număr cabinete medicale":null},"geometry":{"type":"Point","coordinates":[26.067506837872816,44.461061999300846]}},{"type":"Feature","properties":{"fid":18,"Cod SIIIR":"4061205107","Denumirea unității de învățământ":"Grădiniţa „Căsuţa Piticilor”","Tip unitate":"Unitate de învățământ","Nivel Primar":0,"Nivel Gimnazial":0,"Nivel Liceal":0,"Regim Juridic - Tip de proprietate":"Privat","Număr total elevi":87,"Număr de schimburi":1,"Număr săli de clasă":null,"Număr laboratoare":null,"Număr săli de sport":null,"Număr cabinete medicale":null},"geometry":{"type":"Point","coordinates":[26.064898208631053,44.46407867353677]}},{"type":"Feature","properties":{"fid":19,"Cod SIIIR":"4061206569","Denumirea unității de învățământ":"Grădiniţa „Karin'S Kids Academy”","Tip unitate":"Unitate de învățământ","Nivel Primar":0,"Nivel Gimnazial":0,"Nivel Liceal":0,"Regim Juridic - Tip de proprietate":"Privat","Număr total elevi":39,"Număr de schimburi":1,"Număr săli de clasă":3,"Număr laboratoare":null,"Număr săli de sport":null,"Număr cabinete medicale":1},"geometry":{"type":"Point","coordinates":[26.06212480000005,44.46694860000008]}},{"type":"Feature","properties":{"fid":20,"Cod SIIIR":"4061206108","Denumirea unității de învățământ":"Grădiniţa „Avenor”","Tip unitate":"Unitate de învățământ","Nivel Primar":0,"Nivel Gimnazial":0,"Nivel Liceal":0,"Regim Juridic - Tip de proprietate":"Privat","Număr total elevi":109,"Număr de schimburi":1,"Număr săli de clasă":null,"Număr laboratoare":null,"Număr săli de sport":null,"Număr cabinete medicale":null},"geometry":{"type":"Point","coordinates":[26.0730977734844,44.468062804236865]}},{"type":"Feature","properties":{"fid":21,"Cod SIIIR":"4061204237","Denumirea unității de învățământ":"Grădiniţa „Mary Poppins”","Tip unitate":"Unitate de învățământ","Nivel Primar":0,"Nivel Gimnazial":0,"Nivel Liceal":0,"Regim Juridic - Tip de proprietate":"Privat","Număr total elevi":48,"Număr de schimburi":1,"Număr săli de clasă":4,"Număr laboratoare":null,"Număr săli de sport":null,"Număr cabinete medicale":1},"geometry":{"type":"Point","coordinates":[26.087181639485554,44.48358741259982]}},{"type":"Feature","properties":{"fid":22,"Cod SIIIR":"4061205749","Denumirea unității de învățământ":"Grădiniţa „The Little Artist”","Tip unitate":"Unitate de învățământ","Nivel Primar":0,"Nivel Gimnazial":0,"Nivel Liceal":0,"Regim Juridic - Tip de proprietate":"Privat","Număr total elevi":54,"Număr de schimburi":1,"Număr săli de clasă":null,"Număr laboratoare":null,"Număr săli de sport":null,"Număr cabinete medicale":null},"geometry":{"type":"Point","coordinates":[26.07328024549632,44.46057742571567]}},{"type":"Feature","properties":{"fid":23,"Cod SIIIR":"4061206551","Denumirea unității de învățământ":"Grădiniţa „Kinderakademie”","Tip unitate":"Unitate de învățământ","Nivel Primar":0,"Nivel Gimnazial":0,"Nivel Liceal":0,"Regim Juridic - Tip de proprietate":"Privat","Număr total elevi":37,"Număr de schimburi":1,"Număr săli de clasă":3,"Număr laboratoare":null,"Număr săli de sport":null,"Număr cabinete medicale":1},"geometry":{"type":"Point","coordinates":[26.086543760726382,44.44653882589599]}},{"type":"Feature","properties":{"fid":24,"Cod SIIIR":"4061207258","Denumirea unității de învățământ":"Grădiniţa lui David","Tip unitate":"Unitate de învățământ","Nivel Primar":0,"Nivel Gimnazial":0,"Nivel Liceal":0,"Regim Juridic - Tip de proprietate":"Privat","Număr total elevi":59,"Număr de schimburi":1,"Număr săli de clasă":6,"Număr laboratoare":null,"Număr săli de sport":null,"Număr cabinete medicale":null},"geometry":{"type":"Point","coordinates":[26.09137002940279,44.482985072062974]}},{"type":"Feature","properties":{"fid":25,"Cod SIIIR":"4061208295","Denumirea unității de învățământ":"Grădiniţa „Montessori Kids at Work”","Tip unitate":"Unitate de învățământ","Nivel Primar":0,"Nivel Gimnazial":0,"Nivel Liceal":0,"Regim Juridic - Tip de proprietate":"Privat","Număr total elevi":50,"Număr de schimburi":1,"Număr săli de clasă":4,"Număr laboratoare":null,"Număr săli de sport":1,"Număr cabinete medicale":1},"geometry":{"type":"Point","coordinates":[26.095084801088376,44.48109585017039]}},{"type":"Feature","properties":{"fid":26,"Cod SIIIR":"4061208015","Denumirea unității de învățământ":"Grădiniţa „Creative Minds”","Tip unitate":"Unitate de învățământ","Nivel Primar":0,"Nivel Gimnazial":0,"Nivel Liceal":0,"Regim Juridic - Tip de proprietate":"Privat","Număr total elevi":21,"Număr de schimburi":1,"Număr săli de clasă":2,"Număr laboratoare":null,"Număr săli de sport":null,"Număr cabinete medicale":1},"geometry":{"type":"Point","coordinates":[26.0746471245266,44.45061575266307]}},{"type":"Feature","properties":{"fid":27,"Cod SIIIR":"4061208797","Denumirea unității de învățământ":"Grădiniţa „Kids Club Băneasa”","Tip unitate":"Unitate de învățământ","Nivel Primar":0,"Nivel Gimnazial":0,"Nivel Liceal":0,"Regim Juridic - Tip de proprietate":"Privat","Număr total elevi":13,"Număr de schimburi":1,"Număr săli de clasă":null,"Număr laboratoare":null,"Număr săli de sport":null,"Număr cabinete medicale":null},"geometry":{"type":"Point","coordinates":[26.082572979919853,44.49482877808045]}},{"type":"Feature","properties":{"fid":28,"Cod SIIIR":"4061208802","Denumirea unității de învățământ":"Grădiniţa „Kinderlachen”","Tip unitate":"Unitate de învățământ","Nivel Primar":0,"Nivel Gimnazial":0,"Nivel Liceal":0,"Regim Juridic - Tip de proprietate":"Privat","Număr total elevi":20,"Număr de schimburi":1,"Număr săli de clasă":null,"Număr laboratoare":null,"Număr săli de sport":null,"Număr cabinete medicale":null},"geometry":{"type":"Point","coordinates":[26.10333228042089,44.44539628294996]}},{"type":"Feature","properties":{"fid":29,"Cod SIIIR":"4061208811","Denumirea unității de învățământ":"Grădiniţa „Montessori Universe”","Tip unitate":"Unitate de învățământ","Nivel Primar":0,"Nivel Gimnazial":0,"Nivel Liceal":0,"Regim Juridic - Tip de proprietate":"Privat","Număr total elevi":39,"Număr de schimburi":1,"Număr săli de clasă":null,"Număr laboratoare":null,"Număr săli de sport":null,"Număr cabinete medicale":null},"geometry":{"type":"Point","coordinates":[26.05800030000006,44.50176330000005]}},{"type":"Feature","properties":{"fid":30,"Cod SIIIR":"4061208829","Denumirea unității de învățământ":"Grădiniţa „Beautiful Minds”","Tip unitate":"Unitate de învățământ","Nivel Primar":0,"Nivel Gimnazial":0,"Nivel Liceal":0,"Regim Juridic - Tip de proprietate":"Privat","Număr total elevi":63,"Număr de schimburi":1,"Număr săli de clasă":null,"Număr laboratoare":null,"Număr săli de sport":null,"Număr cabinete medicale":null},"geometry":{"type":"Point","coordinates":[26.064268800000036,44.50017050000008]}},{"type":"Feature","properties":{"fid":31,"Cod SIIIR":"4061208847","Denumirea unității de învățământ":"Grădiniţa „Kids Cloud”","Tip unitate":"Unitate de învățământ","Nivel Primar":0,"Nivel Gimnazial":0,"Nivel Liceal":0,"Regim Juridic - Tip de proprietate":"Privat","Număr total elevi":32,"Număr de schimburi":1,"Număr săli de clasă":null,"Număr laboratoare":null,"Număr săli de sport":null,"Număr cabinete medicale":null},"geometry":{"type":"Point","coordinates":[26.066731856082363,44.52837171355747]}},{"type":"Feature","properties":{"fid":32,"Cod SIIIR":"4061208856","Denumirea unității de învățământ":"Grădiniţa „Schnuffel Zentrum”","Tip unitate":"Unitate de învățământ","Nivel Primar":0,"Nivel Gimnazial":0,"Nivel Liceal":0,"Regim Juridic - Tip de proprietate":"Privat","Număr total elevi":2,"Număr de schimburi":1,"Număr săli de clasă":3,"Număr laboratoare":null,"Număr săli de sport":null,"Număr cabinete medicale":1},"geometry":{"type":"Point","coordinates":[26.035528209546072,44.49543170099548]}},{"type":"Feature","properties":{"fid":33,"Cod SIIIR":"4061208865","Denumirea unității de învățământ":"Grădiniţa „Mami și Tati”","Tip unitate":"Unitate de învățământ","Nivel Primar":0,"Nivel Gimnazial":0,"Nivel Liceal":0,"Regim Juridic - Tip de proprietate":"Privat","Număr total elevi":22,"Număr de schimburi":1,"Număr săli de clasă":null,"Număr laboratoare":null,"Număr săli de sport":null,"Număr cabinete medicale":null},"geometry":{"type":"Point","coordinates":[26.09360927122515,44.45141560342072]}},{"type":"Feature","properties":{"fid":34,"Cod SIIIR":"4061208874","Denumirea unității de învățământ":"Grădiniţa „Analesia”","Tip unitate":"Unitate de învățământ","Nivel Primar":0,"Nivel Gimnazial":0,"Nivel Liceal":0,"Regim Juridic - Tip de proprietate":"Privat","Număr total elevi":31,"Număr de schimburi":1,"Număr săli de clasă":null,"Număr laboratoare":null,"Număr săli de sport":null,"Număr cabinete medicale":null},"geometry":{"type":"Point","coordinates":[26.092314155759453,44.45821589439219]}},{"type":"Feature","properties":{"fid":35,"Cod SIIIR":"4061208883","Denumirea unității de învățământ":"Grădiniţa „Die Biene Maja”","Tip unitate":"Unitate de învățământ","Nivel Primar":0,"Nivel Gimnazial":0,"Nivel Liceal":0,"Regim Juridic - Tip de proprietate":"Privat","Număr total elevi":16,"Număr de schimburi":1,"Număr săli de clasă":null,"Număr laboratoare":null,"Număr săli de sport":null,"Număr cabinete medicale":null},"geometry":{"type":"Point","coordinates":[26.052504704299615,44.52776154906363]}},{"type":"Feature","properties":{"fid":36,"Cod SIIIR":"4061209373","Denumirea unității de învățământ":"Grădiniţa din Povești","Tip unitate":"Unitate de învățământ","Nivel Primar":0,"Nivel Gimnazial":0,"Nivel Liceal":0,"Regim Juridic - Tip de proprietate":"Privat","Număr total elevi":17,"Număr de schimburi":1,"Număr săli de clasă":null,"Număr laboratoare":null,"Număr săli de sport":null,"Număr cabinete medicale":null},"geometry":{"type":"Point","coordinates":[26.067154719324744,44.452459754006014]}},{"type":"Feature","properties":{"fid":37,"Cod SIIIR":"4061209961","Denumirea unității de învățământ":"Grădinița „Equilibrum”","Tip unitate":"Unitate de învățământ","Nivel Primar":0,"Nivel Gimnazial":0,"Nivel Liceal":0,"Regim Juridic - Tip de proprietate":"Privat","Număr total elevi":16,"Număr de schimburi":1,"Număr săli de clasă":null,"Număr laboratoare":null,"Număr săli de sport":null,"Număr cabinete medicale":null},"geometry":{"type":"Point","coordinates":[26.058376809588115,44.47399066937534]}},{"type":"Feature","properties":{"fid":38,"Cod SIIIR":"4061210135","Denumirea unității de învățământ":"Grădinița „Schnuffel Zentrum”","Tip unitate":"Unitate de învățământ","Nivel Primar":0,"Nivel Gimnazial":0,"Nivel Liceal":0,"Regim Juridic - Tip de proprietate":"Privat","Număr total elevi":21,"Număr de schimburi":1,"Număr săli de clasă":null,"Număr laboratoare":null,"Număr săli de sport":null,"Număr cabinete medicale":null},"geometry":{"type":"Point","coordinates":[26.040266700000075,44.495059500000025]}},{"type":"Feature","properties":{"fid":190,"Cod SIIIR":"4061103672","Denumirea unității de învățământ":"Liceul Greco-Catolic \"Timotei Cipariu\"","Tip unitate":"Unitate de învățământ","Nivel Primar":1,"Nivel Gimnazial":1,"Nivel Liceal":1,"Regim Juridic - Tip de proprietate":"Public de interes național și local","Număr total elevi":788,"Număr de schimburi":2,"Număr săli de clasă":22,"Număr laboratoare":8,"Număr săli de sport":1,"Număr cabinete medicale":1},"geometry":{"type":"Point","coordinates":[26.051757702900282,44.47505976048556]}},{"type":"Feature","properties":{"fid":191,"Cod SIIIR":"4061102282","Denumirea unității de învățământ":"Școala Gimnazială nr. 6","Tip unitate":"Unitate de învățământ","Nivel Primar":1,"Nivel Gimnazial":1,"Nivel Liceal":0,"Regim Juridic - Tip de proprietate":"Public de interes național și local","Număr total elevi":456,"Număr de schimburi":2,"Număr săli de clasă":19,"Număr laboratoare":3,"Număr săli de sport":null,"Număr cabinete medicale":2},"geometry":{"type":"Point","coordinates":[26.074493085468546,44.49520896579108]}},{"type":"Feature","properties":{"fid":192,"Cod SIIIR":"4061101964","Denumirea unității de învățământ":"Școala Gimnazială nr. 13","Tip unitate":"Unitate de învățământ","Nivel Primar":1,"Nivel Gimnazial":1,"Nivel Liceal":0,"Regim Juridic - Tip de proprietate":"Public de interes național și local","Număr total elevi":434,"Număr de schimburi":2,"Număr săli de clasă":20,"Număr laboratoare":1,"Număr săli de sport":1,"Număr cabinete medicale":2},"geometry":{"type":"Point","coordinates":[26.016549318610267,44.51183093877272]}},{"type":"Feature","properties":{"fid":193,"Cod SIIIR":"4061101322","Denumirea unității de învățământ":"Școala Gimnazială nr. 162","Tip unitate":"Unitate de învățământ","Nivel Primar":1,"Nivel Gimnazial":1,"Nivel Liceal":0,"Regim Juridic - Tip de proprietate":"Public de interes național și local","Număr total elevi":556,"Număr de schimburi":2,"Număr săli de clasă":15,"Număr laboratoare":null,"Număr săli de sport":1,"Număr cabinete medicale":2},"geometry":{"type":"Point","coordinates":[26.03143884517976,44.46799310934494]}},{"type":"Feature","properties":{"fid":194,"Cod SIIIR":"4061106051","Denumirea unității de învățământ":"Școala Gimnazială nr. 184","Tip unitate":"Unitate de învățământ","Nivel Primar":1,"Nivel Gimnazial":1,"Nivel Liceal":0,"Regim Juridic - Tip de proprietate":"Public de interes național și local","Număr total elevi":355,"Număr de schimburi":1,"Număr săli de clasă":11,"Număr laboratoare":1,"Număr săli de sport":1,"Număr cabinete medicale":1},"geometry":{"type":"Point","coordinates":[26.021013704284563,44.48760065276295]}},{"type":"Feature","properties":{"fid":195,"Cod SIIIR":"4061101435","Denumirea unității de învățământ":"Școala Gimnazială „Ion Heliade Rădulescu”","Tip unitate":"Unitate de învățământ","Nivel Primar":1,"Nivel Gimnazial":1,"Nivel Liceal":0,"Regim Juridic - Tip de proprietate":"Public de interes național și local","Număr total elevi":1009,"Număr de schimburi":2,"Număr săli de clasă":17,"Număr laboratoare":1,"Număr săli de sport":null,"Număr cabinete medicale":1},"geometry":{"type":"Point","coordinates":[26.083674971666643,44.45532940864201]}},{"type":"Feature","properties":{"fid":196,"Cod SIIIR":"4061101584","Denumirea unității de învățământ":"Școala Gimnazială „Nicolae Grigorescu”","Tip unitate":"Unitate de învățământ","Nivel Primar":1,"Nivel Gimnazial":1,"Nivel Liceal":0,"Regim Juridic - Tip de proprietate":"Public de interes național și local","Număr total elevi":430,"Număr de schimburi":1,"Număr săli de clasă":21,"Număr laboratoare":4,"Număr săli de sport":1,"Număr cabinete medicale":1},"geometry":{"type":"Point","coordinates":[26.052149091910128,44.488848027565574]}},{"type":"Feature","properties":{"fid":197,"Cod SIIIR":"4061102644","Denumirea unității de învățământ":"Școala Gimnazială „Sfântul Nicolae”","Tip unitate":"Unitate de învățământ","Nivel Primar":1,"Nivel Gimnazial":1,"Nivel Liceal":0,"Regim Juridic - Tip de proprietate":"Public de interes național și local","Număr total elevi":757,"Număr de schimburi":2,"Număr săli de clasă":28,"Număr laboratoare":2,"Număr săli de sport":1,"Număr cabinete medicale":1},"geometry":{"type":"Point","coordinates":[26.055498311890013,44.46600905823591]}},{"type":"Feature","properties":{"fid":198,"Cod SIIIR":"4061101114","Denumirea unității de învățământ":"Școala Gimnazială „Sfinții Voievozi”","Tip unitate":"Unitate de învățământ","Nivel Primar":1,"Nivel Gimnazial":1,"Nivel Liceal":0,"Regim Juridic - Tip de proprietate":"Public de interes național și local","Număr total elevi":638,"Număr de schimburi":2,"Număr săli de clasă":28,"Număr laboratoare":null,"Număr săli de sport":1,"Număr cabinete medicale":1},"geometry":{"type":"Point","coordinates":[26.078911696602773,44.44545650571368]}},{"type":"Feature","properties":{"fid":199,"Cod SIIIR":"4061103808","Denumirea unității de învățământ":"Școala Gimnazială „Uruguay”","Tip unitate":"Unitate de învățământ","Nivel Primar":1,"Nivel Gimnazial":1,"Nivel Liceal":0,"Regim Juridic - Tip de proprietate":"Public de interes național și local","Număr total elevi":289,"Număr de schimburi":1,"Număr săli de clasă":26,"Număr laboratoare":5,"Număr săli de sport":null,"Număr cabinete medicale":2},"geometry":{"type":"Point","coordinates":[26.07702763020725,44.439906281865134]}},{"type":"Feature","properties":{"fid":200,"Cod SIIIR":"4061103306","Denumirea unității de învățământ":"Colegiul Naţional „I. L. Caragiale”","Tip unitate":"Unitate de învățământ","Nivel Primar":0,"Nivel Gimnazial":1,"Nivel Liceal":1,"Regim Juridic - Tip de proprietate":"Public de interes național și local","Număr total elevi":1287,"Număr de schimburi":1,"Număr săli de clasă":49,"Număr laboratoare":13,"Număr săli de sport":1,"Număr cabinete medicale":null},"geometry":{"type":"Point","coordinates":[26.095138636203565,44.45846990952798]}},{"type":"Feature","properties":{"fid":201,"Cod SIIIR":"4061101385","Denumirea unității de învățământ":"Colegiul German „Goethe”","Tip unitate":"Unitate de învățământ","Nivel Primar":1,"Nivel Gimnazial":1,"Nivel Liceal":1,"Regim Juridic - Tip de proprietate":"Public de interes național și local","Număr total elevi":1682,"Număr de schimburi":2,"Număr săli de clasă":65,"Număr laboratoare":4,"Număr săli de sport":1,"Număr cabinete medicale":2},"geometry":{"type":"Point","coordinates":[26.097773003402093,44.449963503955274]}},{"type":"Feature","properties":{"fid":202,"Cod SIIIR":"4061102766","Denumirea unității de învățământ":"Colegiul Naţional „Aurel Vlaicu”","Tip unitate":"Unitate de învățământ","Nivel Primar":0,"Nivel Gimnazial":0,"Nivel Liceal":1,"Regim Juridic - Tip de proprietate":"Public de interes național și local","Număr total elevi":737,"Număr de schimburi":2,"Număr săli de clasă":16,"Număr laboratoare":5,"Număr săli de sport":1,"Număr cabinete medicale":1},"geometry":{"type":"Point","coordinates":[26.058417398436255,44.46591509774255]}},{"type":"Feature","properties":{"fid":203,"Cod SIIIR":"4061102201","Denumirea unității de învățământ":"Colegiul Naţional „Ion Neculce”","Tip unitate":"Unitate de învățământ","Nivel Primar":0,"Nivel Gimnazial":1,"Nivel Liceal":1,"Regim Juridic - Tip de proprietate":"Public de interes național și local","Număr total elevi":1150,"Număr de schimburi":2,"Număr săli de clasă":28,"Număr laboratoare":6,"Număr săli de sport":1,"Număr cabinete medicale":1},"geometry":{"type":"Point","coordinates":[26.07312537011603,44.45479750559358]}},{"type":"Feature","properties":{"fid":204,"Cod SIIIR":"4061100384","Denumirea unității de învățământ":"Liceul Teoretic „Constantin Brâncoveanu”","Tip unitate":"Unitate de învățământ","Nivel Primar":0,"Nivel Gimnazial":0,"Nivel Liceal":1,"Regim Juridic - Tip de proprietate":"Public de interes național și local","Număr total elevi":807,"Număr de schimburi":1,"Număr săli de clasă":28,"Număr laboratoare":1,"Număr săli de sport":1,"Număr cabinete medicale":1},"geometry":{"type":"Point","coordinates":[26.04980320621666,44.483058368707276]}},{"type":"Feature","properties":{"fid":205,"Cod SIIIR":"4061104085","Denumirea unității de învățământ":"Liceul Teoretic Bulgar „Hristo Botev”","Tip unitate":"Unitate de învățământ","Nivel Primar":1,"Nivel Gimnazial":1,"Nivel Liceal":1,"Regim Juridic - Tip de proprietate":"Public de interes național și local","Număr total elevi":561,"Număr de schimburi":2,"Număr săli de clasă":14,"Număr laboratoare":1,"Număr săli de sport":1,"Număr cabinete medicale":null},"geometry":{"type":"Point","coordinates":[26.084357328484067,44.44571010772935]}},{"type":"Feature","properties":{"fid":206,"Cod SIIIR":"4061102083","Denumirea unității de învățământ":"Colegiul Naţional de Muzică „George Enescu”","Tip unitate":"Unitate de învățământ","Nivel Primar":1,"Nivel Gimnazial":1,"Nivel Liceal":1,"Regim Juridic - Tip de proprietate":"Public de interes național și local","Număr total elevi":748,"Număr de schimburi":2,"Număr săli de clasă":61,"Număr laboratoare":3,"Număr săli de sport":null,"Număr cabinete medicale":1},"geometry":{"type":"Point","coordinates":[26.086685321041596,44.44760684603425]}},{"type":"Feature","properties":{"fid":207,"Cod SIIIR":"4061103075","Denumirea unității de învățământ":"Liceul Teoretic „George Călinescu”","Tip unitate":"Unitate de învățământ","Nivel Primar":0,"Nivel Gimnazial":0,"Nivel Liceal":1,"Regim Juridic - Tip de proprietate":"Public de interes național și local","Număr total elevi":811,"Număr de schimburi":2,"Număr săli de clasă":16,"Număr laboratoare":3,"Număr săli de sport":1,"Număr cabinete medicale":1},"geometry":{"type":"Point","coordinates":[26.094782403378378,44.44476441616124]}},{"type":"Feature","properties":{"fid":208,"Cod SIIIR":"4061101046","Denumirea unității de învățământ":"Colegiul Economic „V. Madgearu”","Tip unitate":"Unitate de învățământ","Nivel Primar":0,"Nivel Gimnazial":0,"Nivel Liceal":1,"Regim Juridic - Tip de proprietate":"Public de interes național și local","Număr total elevi":1185,"Număr de schimburi":2,"Număr săli de clasă":21,"Număr laboratoare":6,"Număr săli de sport":1,"Număr cabinete medicale":1},"geometry":{"type":"Point","coordinates":[26.100706757794487,44.446474315266926]}},{"type":"Feature","properties":{"fid":209,"Cod SIIIR":"4061102947","Denumirea unității de învățământ":"Colegiul Tehnic „Media”","Tip unitate":"Unitate de învățământ","Nivel Primar":0,"Nivel Gimnazial":0,"Nivel Liceal":1,"Regim Juridic - Tip de proprietate":"Public de interes național și local","Număr total elevi":0,"Număr de schimburi":2,"Număr săli de clasă":28,"Număr laboratoare":null,"Număr săli de sport":null,"Număr cabinete medicale":null},"geometry":{"type":"Point","coordinates":[26.059225051427553,44.48537857701084]}},{"type":"Feature","properties":{"fid":210,"Cod SIIIR":"4061103039","Denumirea unității de învățământ":"Colegiul Tehnic Mecanic „Griviţa”","Tip unitate":"Unitate de învățământ","Nivel Primar":0,"Nivel Gimnazial":0,"Nivel Liceal":1,"Regim Juridic - Tip de proprietate":"Public de interes național și local","Număr total elevi":598,"Număr de schimburi":2,"Număr săli de clasă":20,"Număr laboratoare":10,"Număr săli de sport":2,"Număr cabinete medicale":null},"geometry":{"type":"Point","coordinates":[26.052489938710462,44.46754051538808]}},{"type":"Feature","properties":{"fid":212,"Cod SIIIR":"4061100737","Denumirea unității de învățământ":"Colegiul Tehnic de Arhitectură Şi Lucrări Publice „Ioan N. Socolescu”","Tip unitate":"Unitate de învățământ","Nivel Primar":0,"Nivel Gimnazial":0,"Nivel Liceal":1,"Regim Juridic - Tip de proprietate":"Public de interes național și local","Număr total elevi":607,"Număr de schimburi":1,"Număr săli de clasă":18,"Număr laboratoare":6,"Număr săli de sport":1,"Număr cabinete medicale":1},"geometry":{"type":"Point","coordinates":[26.083633534632845,44.4468285274725]}},{"type":"Feature","properties":{"fid":213,"Cod SIIIR":"4061103749","Denumirea unității de învățământ":"Colegiul Tehnologic „Viaceslav Harnaj”","Tip unitate":"Unitate de învățământ","Nivel Primar":0,"Nivel Gimnazial":0,"Nivel Liceal":1,"Regim Juridic - Tip de proprietate":"Public de interes național și local","Număr total elevi":568,"Număr de schimburi":1,"Număr săli de clasă":30,"Număr laboratoare":7,"Număr săli de sport":1,"Număr cabinete medicale":1},"geometry":{"type":"Point","coordinates":[26.08557696589143,44.49053350139984]}},{"type":"Feature","properties":{"fid":214,"Cod SIIIR":"4061103586","Denumirea unității de învățământ":"Colegiul Tehnic de Aeronautică „Henri Coandă”","Tip unitate":"Unitate de învățământ","Nivel Primar":0,"Nivel Gimnazial":0,"Nivel Liceal":1,"Regim Juridic - Tip de proprietate":"Public de interes național și local","Număr total elevi":661,"Număr de schimburi":2,"Număr săli de clasă":32,"Număr laboratoare":8,"Număr săli de sport":1,"Număr cabinete medicale":null},"geometry":{"type":"Point","coordinates":[26.0929871544055,44.49313468194894]}},{"type":"Feature","properties":{"fid":215,"Cod SIIIR":"4061100859","Denumirea unității de învățământ":"Colegiul Tehnic „Mircea cel Bătrân”","Tip unitate":"Unitate de învățământ","Nivel Primar":0,"Nivel Gimnazial":0,"Nivel Liceal":1,"Regim Juridic - Tip de proprietate":"Public de interes național și local","Număr total elevi":886,"Număr de schimburi":2,"Număr săli de clasă":17,"Număr laboratoare":6,"Număr săli de sport":1,"Număr cabinete medicale":1},"geometry":{"type":"Point","coordinates":[26.057268308706625,44.466392780358206]}},{"type":"Feature","properties":{"fid":216,"Cod SIIIR":"4061100122","Denumirea unității de învățământ":"Colegiul Tehnic Feroviar „Mihai I”","Tip unitate":"Unitate de învățământ","Nivel Primar":0,"Nivel Gimnazial":1,"Nivel Liceal":1,"Regim Juridic - Tip de proprietate":"Public de interes național și local","Număr total elevi":731,"Număr de schimburi":2,"Număr săli de clasă":14,"Număr laboratoare":13,"Număr săli de sport":2,"Număr cabinete medicale":1},"geometry":{"type":"Point","coordinates":[26.042248615000062,44.466547845000036]}},{"type":"Feature","properties":{"fid":217,"Cod SIIIR":"4061101955","Denumirea unității de învățământ":"Liceul „Dimitrie Paciurea”","Tip unitate":"Unitate de învățământ","Nivel Primar":0,"Nivel Gimnazial":0,"Nivel Liceal":1,"Regim Juridic - Tip de proprietate":"Public de interes național și local","Număr total elevi":366,"Număr de schimburi":2,"Număr săli de clasă":9,"Număr laboratoare":1,"Număr săli de sport":null,"Număr cabinete medicale":1},"geometry":{"type":"Point","coordinates":[26.063313998105656,44.483707595903695]}},{"type":"Feature","properties":{"fid":218,"Cod SIIIR":"4061101132","Denumirea unității de învățământ":"Şcoala Gimnazială Specială nr. 7","Tip unitate":"Unitate de învățământ","Nivel Primar":1,"Nivel Gimnazial":1,"Nivel Liceal":0,"Regim Juridic - Tip de proprietate":"Public de interes național și local","Număr total elevi":110,"Număr de schimburi":1,"Număr săli de clasă":16,"Număr laboratoare":1,"Număr săli de sport":1,"Număr cabinete medicale":1},"geometry":{"type":"Point","coordinates":[26.038346310361582,44.483663036678145]}},{"type":"Feature","properties":{"fid":219,"Cod SIIIR":"4061103021","Denumirea unității de învățământ":"Şcoala Gimnazială Specială nr. 8","Tip unitate":"Unitate de învățământ","Nivel Primar":1,"Nivel Gimnazial":1,"Nivel Liceal":0,"Regim Juridic - Tip de proprietate":"Public de interes național și local","Număr total elevi":139,"Număr de schimburi":1,"Număr săli de clasă":25,"Număr laboratoare":1,"Număr săli de sport":1,"Număr cabinete medicale":1},"geometry":{"type":"Point","coordinates":[26.05221402637573,44.488018280199036]}},{"type":"Feature","properties":{"fid":220,"Cod SIIIR":"4061103939","Denumirea unității de învățământ":"Şcoala Gimnazială Specială nr. 10","Tip unitate":"Unitate de învățământ","Nivel Primar":1,"Nivel Gimnazial":1,"Nivel Liceal":0,"Regim Juridic - Tip de proprietate":"Public de interes național și local","Număr total elevi":61,"Număr de schimburi":1,"Număr săli de clasă":15,"Număr laboratoare":1,"Număr săli de sport":1,"Număr cabinete medicale":1},"geometry":{"type":"Point","coordinates":[26.09049514161958,44.44247465436247]}},{"type":"Feature","properties":{"fid":221,"Cod SIIIR":"4061104135","Denumirea unității de învățământ":"Şcoala Gimnazială Specială Pentru Surzi nr. 1","Tip unitate":"Unitate de învățământ","Nivel Primar":1,"Nivel Gimnazial":1,"Nivel Liceal":0,"Regim Juridic - Tip de proprietate":"Public de interes național și local","Număr total elevi":132,"Număr de schimburi":1,"Număr săli de clasă":18,"Număr laboratoare":2,"Număr săli de sport":1,"Număr cabinete medicale":2},"geometry":{"type":"Point","coordinates":[26.0433661431524,44.48653978842641]}},{"type":"Feature","properties":{"fid":222,"Cod SIIIR":"4061103767","Denumirea unității de învățământ":"Şcoala Gimnazială de Arte „Iosif Sava”","Tip unitate":"Unitate de învățământ","Nivel Primar":0,"Nivel Gimnazial":1,"Nivel Liceal":0,"Regim Juridic - Tip de proprietate":"Public de interes național și local","Număr total elevi":0,"Număr de schimburi":2,"Număr săli de clasă":30,"Număr laboratoare":3,"Număr săli de sport":null,"Număr cabinete medicale":null},"geometry":{"type":"Point","coordinates":[26.076269787000058,44.45058988100004]}},{"type":"Feature","properties":{"fid":223,"Cod SIIIR":"4061102522","Denumirea unității de învățământ":"Şcoala Gimnazială de Arte nr. 3","Tip unitate":"Unitate de învățământ","Nivel Primar":0,"Nivel Gimnazial":1,"Nivel Liceal":0,"Regim Juridic - Tip de proprietate":"Public de interes național și local","Număr total elevi":0,"Număr de schimburi":2,"Număr săli de clasă":1,"Număr laboratoare":null,"Număr săli de sport":null,"Număr cabinete medicale":null},"geometry":{"type":"Point","coordinates":[26.080426599090266,44.43923520869854]}},{"type":"Feature","properties":{"fid":224,"Cod SIIIR":"4061208906","Denumirea unității de învățământ":"Şcoala Primară „Atlanthea”","Tip unitate":"Unitate de învățământ","Nivel Primar":1,"Nivel Gimnazial":0,"Nivel Liceal":0,"Regim Juridic - Tip de proprietate":"Privat","Număr total elevi":59,"Număr de schimburi":1,"Număr săli de clasă":null,"Număr laboratoare":null,"Număr săli de sport":null,"Număr cabinete medicale":null},"geometry":{"type":"Point","coordinates":[26.04079671962493,44.485691892205935]}},{"type":"Feature","properties":{"fid":225,"Cod SIIIR":"4061205663","Denumirea unității de învățământ":"Școala Primară Matei International School","Tip unitate":"Unitate de învățământ","Nivel Primar":1,"Nivel Gimnazial":0,"Nivel Liceal":0,"Regim Juridic - Tip de proprietate":"Privat","Număr total elevi":106,"Număr de schimburi":1,"Număr săli de clasă":null,"Număr laboratoare":null,"Număr săli de sport":null,"Număr cabinete medicale":null},"geometry":{"type":"Point","coordinates":[26.053378507096074,44.50316501443937]}},{"type":"Feature","properties":{"fid":226,"Cod SIIIR":"4061205903","Denumirea unității de învățământ":"Şcoala Primară „Teddybär”","Tip unitate":"Unitate de învățământ","Nivel Primar":1,"Nivel Gimnazial":0,"Nivel Liceal":0,"Regim Juridic - Tip de proprietate":"Privat","Număr total elevi":158,"Număr de schimburi":1,"Număr săli de clasă":13,"Număr laboratoare":1,"Număr săli de sport":null,"Număr cabinete medicale":2},"geometry":{"type":"Point","coordinates":[26.068252975017458,44.4617271042945]}},{"type":"Feature","properties":{"fid":227,"Cod SIIIR":"4061208508","Denumirea unității de învățământ":"Şcoala Primară „Montessori School Orizonturi Libere”","Tip unitate":"Unitate de învățământ","Nivel Primar":1,"Nivel Gimnazial":0,"Nivel Liceal":0,"Regim Juridic - Tip de proprietate":"Privat","Număr total elevi":43,"Număr de schimburi":1,"Număr săli de clasă":null,"Număr laboratoare":null,"Număr săli de sport":null,"Număr cabinete medicale":null},"geometry":{"type":"Point","coordinates":[26.089287584879322,44.478692304652995]}},{"type":"Feature","properties":{"fid":228,"Cod SIIIR":"4061206994","Denumirea unității de învățământ":"Şcoala Primară „Little Genius”","Tip unitate":"Unitate de învățământ","Nivel Primar":1,"Nivel Gimnazial":1,"Nivel Liceal":0,"Regim Juridic - Tip de proprietate":"Privat","Număr total elevi":180,"Număr de schimburi":1,"Număr săli de clasă":null,"Număr laboratoare":null,"Număr săli de sport":null,"Număr cabinete medicale":null},"geometry":{"type":"Point","coordinates":[26.070083200000056,44.46350060000003]}},{"type":"Feature","properties":{"fid":229,"Cod SIIIR":"4061209676","Denumirea unității de învățământ":"Şcoala Primară „Arkedo & International School”","Tip unitate":"Unitate de învățământ","Nivel Primar":1,"Nivel Gimnazial":1,"Nivel Liceal":0,"Regim Juridic - Tip de proprietate":"Privat","Număr total elevi":39,"Număr de schimburi":1,"Număr săli de clasă":null,"Număr laboratoare":null,"Număr săli de sport":null,"Număr cabinete medicale":null},"geometry":{"type":"Point","coordinates":[26.091425655537286,44.48651917704448]}},{"type":"Feature","properties":{"fid":230,"Cod SIIIR":"4061204418","Denumirea unității de învățământ":"Şcoala Gimnazială „Smart Kids”","Tip unitate":"Unitate de învățământ","Nivel Primar":1,"Nivel Gimnazial":1,"Nivel Liceal":0,"Regim Juridic - Tip de proprietate":"Privat","Număr total elevi":125,"Număr de schimburi":1,"Număr săli de clasă":null,"Număr laboratoare":null,"Număr săli de sport":null,"Număr cabinete medicale":null},"geometry":{"type":"Point","coordinates":[26.07727346520897,44.49151182220482]}},{"type":"Feature","properties":{"fid":231,"Cod SIIIR":"4061204418","Denumirea unității de învățământ":"Şcoala Gimnazială „Smart Kids”","Tip unitate":"Unitate de învățământ","Nivel Primar":1,"Nivel Gimnazial":1,"Nivel Liceal":0,"Regim Juridic - Tip de proprietate":"Privat","Număr total elevi":125,"Număr de schimburi":1,"Număr săli de clasă":null,"Număr laboratoare":null,"Număr săli de sport":null,"Număr cabinete medicale":null},"geometry":{"type":"Point","coordinates":[26.036849511801496,44.485994443161815]}},{"type":"Feature","properties":{"fid":232,"Cod SIIIR":"4061206162","Denumirea unității de învățământ":"Grădinița „Fridolin”","Tip unitate":"Unitate de învățământ","Nivel Primar":1,"Nivel Gimnazial":1,"Nivel Liceal":0,"Regim Juridic - Tip de proprietate":"Privat","Număr total elevi":250,"Număr de schimburi":1,"Număr săli de clasă":null,"Număr laboratoare":null,"Număr săli de sport":null,"Număr cabinete medicale":null},"geometry":{"type":"Point","coordinates":[26.086941281710374,44.442143065962696]}},{"type":"Feature","properties":{"fid":233,"Cod SIIIR":"4061206171","Denumirea unității de învățământ":"Şcoala Gimnazială Liberă „Waldorf”","Tip unitate":"Unitate de învățământ","Nivel Primar":1,"Nivel Gimnazial":1,"Nivel Liceal":0,"Regim Juridic - Tip de proprietate":"Privat","Număr total elevi":194,"Număr de schimburi":1,"Număr săli de clasă":15,"Număr laboratoare":1,"Număr săli de sport":1,"Număr cabinete medicale":1},"geometry":{"type":"Point","coordinates":[26.09416447800004,44.436489048000055]}},{"type":"Feature","properties":{"fid":234,"Cod SIIIR":"4061205862","Denumirea unității de învățământ":"Şcoala Gimnazială „Avenor”","Tip unitate":"Unitate de învățământ","Nivel Primar":1,"Nivel Gimnazial":1,"Nivel Liceal":0,"Regim Juridic - Tip de proprietate":"Privat","Număr total elevi":446,"Număr de schimburi":1,"Număr săli de clasă":null,"Număr laboratoare":null,"Număr săli de sport":null,"Număr cabinete medicale":null},"geometry":{"type":"Point","coordinates":[26.09918349617482,44.531340536290806]}},{"type":"Feature","properties":{"fid":235,"Cod SIIIR":"4061207005","Denumirea unității de învățământ":"Şcoala Gimnazială „Aletheea”","Tip unitate":"Unitate de învățământ","Nivel Primar":1,"Nivel Gimnazial":1,"Nivel Liceal":0,"Regim Juridic - Tip de proprietate":"Privat","Număr total elevi":324,"Număr de schimburi":1,"Număr săli de clasă":17,"Număr laboratoare":4,"Număr săli de sport":1,"Număr cabinete medicale":1},"geometry":{"type":"Point","coordinates":[26.041529354649967,44.50831890802976]}},{"type":"Feature","properties":{"fid":236,"Cod SIIIR":"4061205835","Denumirea unității de învățământ":"Liceul Internațional „Ioanid”","Tip unitate":"Unitate de învățământ","Nivel Primar":1,"Nivel Gimnazial":0,"Nivel Liceal":0,"Regim Juridic - Tip de proprietate":"Privat","Număr total elevi":453,"Număr de schimburi":2,"Număr săli de clasă":null,"Număr laboratoare":null,"Număr săli de sport":null,"Număr cabinete medicale":null},"geometry":{"type":"Point","coordinates":[26.09332538332434,44.44784809844169]}},{"type":"Feature","properties":{"fid":237,"Cod SIIIR":"4061205084","Denumirea unității de învățământ":"Liceul Teoretic „Genesis College”","Tip unitate":"Unitate de învățământ","Nivel Primar":1,"Nivel Gimnazial":1,"Nivel Liceal":1,"Regim Juridic - Tip de proprietate":"Privat","Număr total elevi":493,"Număr de schimburi":1,"Număr săli de clasă":35,"Număr laboratoare":2,"Număr săli de sport":null,"Număr cabinete medicale":1},"geometry":{"type":"Point","coordinates":[26.061948128408282,44.49525853955092]}},{"type":"Feature","properties":{"fid":238,"Cod SIIIR":"4061204273","Denumirea unității de învățământ":"Liceul Teoretic „Şcoala Mea”","Tip unitate":"Unitate de învățământ","Nivel Primar":1,"Nivel Gimnazial":1,"Nivel Liceal":1,"Regim Juridic - Tip de proprietate":"Privat","Număr total elevi":446,"Număr de schimburi":1,"Număr săli de clasă":null,"Număr laboratoare":null,"Număr săli de sport":null,"Număr cabinete medicale":null},"geometry":{"type":"Point","coordinates":[26.093977309434692,44.49016956285394]}},{"type":"Feature","properties":{"fid":239,"Cod SIIIR":"4061205265","Denumirea unității de învățământ":"Liceul Teoretic „Şcoala Europeană Bucureşti”","Tip unitate":"Unitate de învățământ","Nivel Primar":0,"Nivel Gimnazial":1,"Nivel Liceal":1,"Regim Juridic - Tip de proprietate":"Privat","Număr total elevi":540,"Număr de schimburi":1,"Număr săli de clasă":26,"Număr laboratoare":3,"Număr săli de sport":null,"Număr cabinete medicale":null},"geometry":{"type":"Point","coordinates":[26.059991615989343,44.476139649053586]}},{"type":"Feature","properties":{"fid":240,"Cod SIIIR":"4061205491","Denumirea unității de învățământ":"Liceul Teoretic Naţional","Tip unitate":"Unitate de învățământ","Nivel Primar":1,"Nivel Gimnazial":1,"Nivel Liceal":1,"Regim Juridic - Tip de proprietate":"Privat","Număr total elevi":346,"Număr de schimburi":1,"Număr săli de clasă":13,"Număr laboratoare":9,"Număr săli de sport":1,"Număr cabinete medicale":null},"geometry":{"type":"Point","coordinates":[26.082218699565285,44.44660532505807]}},{"type":"Feature","properties":{"fid":241,"Cod SIIIR":"4061209414","Denumirea unității de învățământ":"Liceul Teoretic German „Idees”","Tip unitate":"Unitate de învățământ","Nivel Primar":0,"Nivel Gimnazial":0,"Nivel Liceal":1,"Regim Juridic - Tip de proprietate":"Privat","Număr total elevi":24,"Număr de schimburi":1,"Număr săli de clasă":null,"Număr laboratoare":null,"Număr săli de sport":null,"Număr cabinete medicale":null},"geometry":{"type":"Point","coordinates":[26.077962387122493,44.43883719743146]}},{"type":"Feature","properties":{"fid":301,"Cod SIIIR":"4061205446","Denumirea unității de învățământ":"Şcoala Postliceală „FEG”","Tip unitate":"Unitate de învățământ","Nivel Primar":0,"Nivel Gimnazial":0,"Nivel Liceal":0,"Regim Juridic - Tip de proprietate":"Privat","Număr total elevi":1664,"Număr de schimburi":2,"Număr săli de clasă":16,"Număr laboratoare":2,"Număr săli de sport":null,"Număr cabinete medicale":null},"geometry":{"type":"Point","coordinates":[26.093733100000065,44.437289200000066]}},{"type":"Feature","properties":{"fid":419,"Cod SIIIR":"4061103066","Denumirea unității de învățământ":"Grădiniţa nr. 44","Tip unitate":"Unitate de învățământ","Nivel Primar":0,"Nivel Gimnazial":0,"Nivel Liceal":0,"Regim Juridic - Tip de proprietate":"Public de interes național și local","Număr total elevi":249,"Număr de schimburi":1,"Număr săli de clasă":14,"Număr laboratoare":null,"Număr săli de sport":null,"Număr cabinete medicale":1},"geometry":{"type":"Point","coordinates":[26.039900600000067,44.48649590000008]}},{"type":"Feature","properties":{"fid":420,"Cod SIIIR":"4061100366","Denumirea unității de învățământ":"Grădiniţa nr. 248","Tip unitate":"Unitate de învățământ","Nivel Primar":0,"Nivel Gimnazial":0,"Nivel Liceal":0,"Regim Juridic - Tip de proprietate":"Public de interes național și local","Număr total elevi":199,"Număr de schimburi":1,"Număr săli de clasă":13,"Număr laboratoare":null,"Număr săli de sport":null,"Număr cabinete medicale":null},"geometry":{"type":"Point","coordinates":[26.07743369488239,44.45299607821202]}},{"type":"Feature","properties":{"fid":421,"Cod SIIIR":"4061204282","Denumirea unității de învățământ":"Grădiniţa „Ge. Ce. Pic (Englishkinder)”","Tip unitate":"Unitate de învățământ","Nivel Primar":0,"Nivel Gimnazial":0,"Nivel Liceal":0,"Regim Juridic - Tip de proprietate":"Privat","Număr total elevi":19,"Număr de schimburi":1,"Număr săli de clasă":2,"Număr laboratoare":null,"Număr săli de sport":null,"Număr cabinete medicale":null},"geometry":{"type":"Point","coordinates":[26.082798100000048,44.46335520000008]}},{"type":"Feature","properties":{"fid":422,"Cod SIIIR":"4061204409","Denumirea unității de învățământ":"Grădiniţa „Hansel Und Grethel”","Tip unitate":"Unitate de învățământ","Nivel Primar":0,"Nivel Gimnazial":0,"Nivel Liceal":0,"Regim Juridic - Tip de proprietate":"Privat","Număr total elevi":27,"Număr de schimburi":1,"Număr săli de clasă":null,"Număr laboratoare":null,"Număr săli de sport":null,"Număr cabinete medicale":null},"geometry":{"type":"Point","coordinates":[26.069727448391276,44.4662527911766]}},{"type":"Feature","properties":{"fid":423,"Cod SIIIR":"4061205722","Denumirea unității de învățământ":"Grădiniţa „Happy Kids”","Tip unitate":"Unitate de învățământ","Nivel Primar":0,"Nivel Gimnazial":0,"Nivel Liceal":0,"Regim Juridic - Tip de proprietate":"Privat","Număr total elevi":25,"Număr de schimburi":1,"Număr săli de clasă":3,"Număr laboratoare":2,"Număr săli de sport":null,"Număr cabinete medicale":1},"geometry":{"type":"Point","coordinates":[26.09661833292967,44.45792294202396]}},{"type":"Feature","properties":{"fid":424,"Cod SIIIR":"4061205758","Denumirea unității de învățământ":"Grădiniţa „Super Kids Center Odt”","Tip unitate":"Unitate de învățământ","Nivel Primar":0,"Nivel Gimnazial":0,"Nivel Liceal":0,"Regim Juridic - Tip de proprietate":"Privat","Număr total elevi":30,"Număr de schimburi":1,"Număr săli de clasă":6,"Număr laboratoare":null,"Număr săli de sport":1,"Număr cabinete medicale":1},"geometry":{"type":"Point","coordinates":[26.041892677348642,44.474075090281765]}},{"type":"Feature","properties":{"fid":425,"Cod SIIIR":"4061206506","Denumirea unității de învățământ":"Liceul Internațional „Ioanid”","Tip unitate":"Unitate de învățământ","Nivel Primar":0,"Nivel Gimnazial":0,"Nivel Liceal":0,"Regim Juridic - Tip de proprietate":"Privat","Număr total elevi":111,"Număr de schimburi":1,"Număr săli de clasă":7,"Număr laboratoare":null,"Număr săli de sport":1,"Număr cabinete medicale":1},"geometry":{"type":"Point","coordinates":[26.10390645624705,44.44559092009822]}},{"type":"Feature","properties":{"fid":426,"Cod SIIIR":"4061206985","Denumirea unității de învățământ":"Grădiniţa „Sfântul Dumitru - Mavrogheni”","Tip unitate":"Unitate de învățământ","Nivel Primar":0,"Nivel Gimnazial":0,"Nivel Liceal":0,"Regim Juridic - Tip de proprietate":"Privat","Număr total elevi":39,"Număr de schimburi":1,"Număr săli de clasă":null,"Număr laboratoare":null,"Număr săli de sport":null,"Număr cabinete medicale":null},"geometry":{"type":"Point","coordinates":[26.083473897832203,44.45501230660454]}},{"type":"Feature","properties":{"fid":427,"Cod SIIIR":"4061207778","Denumirea unității de învățământ":"Grădiniţa cu Program Normal și Prelungit „Miniterra Kindergarten”","Tip unitate":"Unitate de învățământ","Nivel Primar":0,"Nivel Gimnazial":0,"Nivel Liceal":0,"Regim Juridic - Tip de proprietate":"Privat","Număr total elevi":58,"Număr de schimburi":1,"Număr săli de clasă":null,"Număr laboratoare":null,"Număr săli de sport":null,"Număr cabinete medicale":null},"geometry":{"type":"Point","coordinates":[26.095589509514422,44.48221290098914]}},{"type":"Feature","properties":{"fid":428,"Cod SIIIR":"4061205568","Denumirea unității de învățământ":"Grădiniţa cu Program Prelungit „Zum-Zum”","Tip unitate":"Unitate de învățământ","Nivel Primar":0,"Nivel Gimnazial":0,"Nivel Liceal":0,"Regim Juridic - Tip de proprietate":"Privat","Număr total elevi":51,"Număr de schimburi":1,"Număr săli de clasă":null,"Număr laboratoare":null,"Număr săli de sport":null,"Număr cabinete medicale":null},"geometry":{"type":"Point","coordinates":[26.071224140570376,44.44533993103408]}},{"type":"Feature","properties":{"fid":429,"Cod SIIIR":"4061208205","Denumirea unității de învățământ":"Grădiniţa cu Program Normal și Program Prelungit „Kluge Kinder”","Tip unitate":"Unitate de învățământ","Nivel Primar":0,"Nivel Gimnazial":0,"Nivel Liceal":0,"Regim Juridic - Tip de proprietate":"Privat","Număr total elevi":39,"Număr de schimburi":1,"Număr săli de clasă":4,"Număr laboratoare":null,"Număr săli de sport":null,"Număr cabinete medicale":1},"geometry":{"type":"Point","coordinates":[26.06662478245518,44.46811086802044]}},{"type":"Feature","properties":{"fid":430,"Cod SIIIR":"4061208327","Denumirea unității de învățământ":"Grădiniţa cu Program Normal și Program Prelungit „Aristokids”","Tip unitate":"Unitate de învățământ","Nivel Primar":0,"Nivel Gimnazial":0,"Nivel Liceal":0,"Regim Juridic - Tip de proprietate":"Privat","Număr total elevi":10,"Număr de schimburi":1,"Număr săli de clasă":2,"Număr laboratoare":null,"Număr săli de sport":1,"Număr cabinete medicale":null},"geometry":{"type":"Point","coordinates":[26.079592688354435,44.453445924518135]}},{"type":"Feature","properties":{"fid":431,"Cod SIIIR":"4061208779","Denumirea unității de învățământ":"Grădiniţa cu Program Prelungit „Luca 2”","Tip unitate":"Unitate de învățământ","Nivel Primar":0,"Nivel Gimnazial":0,"Nivel Liceal":0,"Regim Juridic - Tip de proprietate":"Privat","Număr total elevi":10,"Număr de schimburi":1,"Număr săli de clasă":null,"Număr laboratoare":null,"Număr săli de sport":null,"Număr cabinete medicale":null},"geometry":{"type":"Point","coordinates":[26.091149207398566,44.48423825876366]}},{"type":"Feature","properties":{"fid":432,"Cod SIIIR":"4061208788","Denumirea unității de învățământ":"Grădiniţa cu Program Prelungit „Karin' S Kids Academy Băneasa”","Tip unitate":"Unitate de învățământ","Nivel Primar":0,"Nivel Gimnazial":0,"Nivel Liceal":0,"Regim Juridic - Tip de proprietate":"Privat","Număr total elevi":123,"Număr de schimburi":1,"Număr săli de clasă":null,"Număr laboratoare":null,"Număr săli de sport":null,"Număr cabinete medicale":null},"geometry":{"type":"Point","coordinates":[26.070616764676355,44.53142921967836]}},{"type":"Feature","properties":{"fid":433,"Cod SIIIR":"4061208838","Denumirea unității de învățământ":"Grădiniţa cu Program Prelungit „Tărâmul Cunoașterii”","Tip unitate":"Unitate de învățământ","Nivel Primar":0,"Nivel Gimnazial":0,"Nivel Liceal":0,"Regim Juridic - Tip de proprietate":"Privat","Număr total elevi":0,"Număr de schimburi":1,"Număr săli de clasă":null,"Număr laboratoare":null,"Număr săli de sport":null,"Număr cabinete medicale":null},"geometry":{"type":"Point","coordinates":[26.08485125676179,44.43530286496848]}},{"type":"Feature","properties":{"fid":434,"Cod SIIIR":"4061209382","Denumirea unității de învățământ":"Grădiniţa cu Program Prelungit „Academia Ștrumfilor”","Tip unitate":"Unitate de învățământ","Nivel Primar":0,"Nivel Gimnazial":0,"Nivel Liceal":0,"Regim Juridic - Tip de proprietate":"Privat","Număr total elevi":43,"Număr de schimburi":1,"Număr săli de clasă":null,"Număr laboratoare":null,"Număr săli de sport":null,"Număr cabinete medicale":null},"geometry":{"type":"Point","coordinates":[26.058512872403,44.46473143846698]}},{"type":"Feature","properties":{"fid":435,"Cod SIIIR":"4061209391","Denumirea unității de învățământ":"Grădiniţa cu Program Prelungit „Apple Tree”","Tip unitate":"Unitate de învățământ","Nivel Primar":0,"Nivel Gimnazial":0,"Nivel Liceal":0,"Regim Juridic - Tip de proprietate":"Privat","Număr total elevi":26,"Număr de schimburi":1,"Număr săli de clasă":null,"Număr laboratoare":null,"Număr săli de sport":null,"Număr cabinete medicale":null},"geometry":{"type":"Point","coordinates":[26.039699070707535,44.490783102498646]}},{"type":"Feature","properties":{"fid":436,"Cod SIIIR":"4061209405","Denumirea unității de învățământ":"Grădiniţa cu Program Normal și Program Prelungit „Monteclaris”","Tip unitate":"Unitate de învățământ","Nivel Primar":0,"Nivel Gimnazial":0,"Nivel Liceal":0,"Regim Juridic - Tip de proprietate":"Privat","Număr total elevi":46,"Număr de schimburi":1,"Număr săli de clasă":null,"Număr laboratoare":null,"Număr săli de sport":null,"Număr cabinete medicale":null},"geometry":{"type":"Point","coordinates":[26.078522540367715,44.45512674178486]}},{"type":"Feature","properties":{"fid":437,"Cod SIIIR":"4061209554","Denumirea unității de învățământ":"Grădiniţa cu Program Normal și Prelungit „Ruffy Strumfi”","Tip unitate":"Unitate de învățământ","Nivel Primar":0,"Nivel Gimnazial":0,"Nivel Liceal":0,"Regim Juridic - Tip de proprietate":"Privat","Număr total elevi":42,"Număr de schimburi":1,"Număr săli de clasă":null,"Număr laboratoare":null,"Număr săli de sport":null,"Număr cabinete medicale":null},"geometry":{"type":"Point","coordinates":[26.04175212314975,44.4875947061765]}},{"type":"Feature","properties":{"fid":438,"Cod SIIIR":"4061209545","Denumirea unității de învățământ":"Grădiniţa cu Program Normal și Program Prelungit „Innababy”","Tip unitate":"Unitate de învățământ","Nivel Primar":0,"Nivel Gimnazial":0,"Nivel Liceal":0,"Regim Juridic - Tip de proprietate":"Privat","Număr total elevi":28,"Număr de schimburi":1,"Număr săli de clasă":null,"Număr laboratoare":null,"Număr săli de sport":null,"Număr cabinete medicale":null},"geometry":{"type":"Point","coordinates":[26.059241282931055,44.46231265825988]}},{"type":"Feature","properties":{"fid":439,"Cod SIIIR":"4061209952","Denumirea unității de învățământ":"Grădiniţa cu Program Prelungit „Bergman Nature Kindergarden”","Tip unitate":"Unitate de învățământ","Nivel Primar":0,"Nivel Gimnazial":0,"Nivel Liceal":0,"Regim Juridic - Tip de proprietate":"Privat","Număr total elevi":94,"Număr de schimburi":1,"Număr săli de clasă":null,"Număr laboratoare":null,"Număr săli de sport":null,"Număr cabinete medicale":null},"geometry":{"type":"Point","coordinates":[26.0959207290128,44.481919445038294]}},{"type":"Feature","properties":{"fid":440,"Cod SIIIR":"4061209952","Denumirea unității de învățământ":"Grădiniţa cu Program Prelungit „Bergman Nature Kindergarden”","Tip unitate":"Unitate de învățământ","Nivel Primar":0,"Nivel Gimnazial":0,"Nivel Liceal":0,"Regim Juridic - Tip de proprietate":"Privat","Număr total elevi":94,"Număr de schimburi":1,"Număr săli de clasă":null,"Număr laboratoare":null,"Număr săli de sport":null,"Număr cabinete medicale":null},"geometry":{"type":"Point","coordinates":[26.098928160579007,44.486072612782756]}},{"type":"Feature","properties":{"fid":474,"Cod SIIIR":"4061207914","Denumirea unității de învățământ":"Grădiniţa cu Program Normal și Program Prelungit „Teddybär 2”","Tip unitate":"Unitate de învățământ","Nivel Primar":0,"Nivel Gimnazial":0,"Nivel Liceal":0,"Regim Juridic - Tip de proprietate":"Privat","Număr total elevi":158,"Număr de schimburi":1,"Număr săli de clasă":4,"Număr laboratoare":1,"Număr săli de sport":null,"Număr cabinete medicale":1},"geometry":{"type":"Point","coordinates":[26.06368490240049,44.459549040817365]}},{"type":"Feature","properties":{"fid":475,"Cod SIIIR":"4061210126","Denumirea unității de învățământ":"Grădiniţa cu Program Normal și Prelungit „Christophori”","Tip unitate":"Unitate de învățământ","Nivel Primar":0,"Nivel Gimnazial":0,"Nivel Liceal":0,"Regim Juridic - Tip de proprietate":"Privat","Număr total elevi":28,"Număr de schimburi":1,"Număr săli de clasă":null,"Număr laboratoare":null,"Număr săli de sport":null,"Număr cabinete medicale":null},"geometry":{"type":"Point","coordinates":[26.08909665834138,44.44063679247723]}},{"type":"Feature","properties":{"fid":528,"Cod SIIIR":"4061101408","Denumirea unității de învățământ":"Colegiul Naţional de Informatică „Tudor Vianu”","Tip unitate":"Unitate de învățământ","Nivel Primar":0,"Nivel Gimnazial":1,"Nivel Liceal":1,"Regim Juridic - Tip de proprietate":"Public de interes național și local","Număr total elevi":1209,"Număr de schimburi":2,"Număr săli de clasă":24,"Număr laboratoare":11,"Număr săli de sport":1,"Număr cabinete medicale":1},"geometry":{"type":"Point","coordinates":[26.07996392584063,44.458270339949074]}},{"type":"Feature","properties":{"fid":529,"Cod SIIIR":"4061206845","Denumirea unității de învățământ":"Şcoala Primară „Maria International School of Bucharest”","Tip unitate":"Unitate de învățământ","Nivel Primar":1,"Nivel Gimnazial":0,"Nivel Liceal":0,"Regim Juridic - Tip de proprietate":"Privat","Număr total elevi":32,"Număr de schimburi":1,"Număr săli de clasă":6,"Număr laboratoare":null,"Număr săli de sport":1,"Număr cabinete medicale":1},"geometry":{"type":"Point","coordinates":[26.09412190000006,44.44327880000003]}},{"type":"Feature","properties":{"fid":530,"Cod SIIIR":"4061103541","Denumirea unității de învățământ":"Colegiul Naţional „Sfântul Sava”","Tip unitate":"Unitate de învățământ","Nivel Primar":0,"Nivel Gimnazial":0,"Nivel Liceal":1,"Regim Juridic - Tip de proprietate":"Public de interes național și local","Număr total elevi":973,"Număr de schimburi":1,"Număr săli de clasă":34,"Număr laboratoare":4,"Număr săli de sport":2,"Număr cabinete medicale":1},"geometry":{"type":"Point","coordinates":[26.090850600000067,44.44149770000007]}},{"type":"Feature","properties":{"fid":531,"Cod SIIIR":"4061102807","Denumirea unității de învățământ":"Liceul de Arte Plastice „Nicolae Tonitza”","Tip unitate":"Unitate de învățământ","Nivel Primar":0,"Nivel Gimnazial":1,"Nivel Liceal":1,"Regim Juridic - Tip de proprietate":"Public de interes național și local","Număr total elevi":920,"Număr de schimburi":1,"Număr săli de clasă":18,"Număr laboratoare":6,"Număr săli de sport":1,"Număr cabinete medicale":1},"geometry":{"type":"Point","coordinates":[26.085221004338997,44.44092442944234]}},{"type":"Feature","properties":{"fid":532,"Cod SIIIR":"4061209667","Denumirea unității de învățământ":"Şcoala Gimnazială „Helikon-Bucureşti”","Tip unitate":"Unitate de învățământ","Nivel Primar":0,"Nivel Gimnazial":1,"Nivel Liceal":0,"Regim Juridic - Tip de proprietate":"Privat","Număr total elevi":82,"Număr de schimburi":1,"Număr săli de clasă":null,"Număr laboratoare":null,"Număr săli de sport":null,"Număr cabinete medicale":null},"geometry":{"type":"Point","coordinates":[26.09010404972202,44.44185357678276]}},{"type":"Feature","properties":{"fid":533,"Cod SIIIR":"4061205265","Denumirea unității de învățământ":"Liceul Teoretic „Şcoala Europeană Bucureşti”","Tip unitate":"Unitate de învățământ","Nivel Primar":1,"Nivel Gimnazial":0,"Nivel Liceal":0,"Regim Juridic - Tip de proprietate":"Privat","Număr total elevi":540,"Număr de schimburi":1,"Număr săli de clasă":null,"Număr laboratoare":null,"Număr săli de sport":null,"Număr cabinete medicale":null},"geometry":{"type":"Point","coordinates":[26.05907009927385,44.48326152967179]}},{"type":"Feature","properties":{"fid":534,"Cod SIIIR":"4061204445","Denumirea unității de învățământ":"Liceul „Onicescu-Mihoc”","Tip unitate":"Unitate de învățământ","Nivel Primar":0,"Nivel Gimnazial":0,"Nivel Liceal":1,"Regim Juridic - Tip de proprietate":"Privat","Număr total elevi":325,"Număr de schimburi":1,"Număr săli de clasă":null,"Număr laboratoare":null,"Număr săli de sport":null,"Număr cabinete medicale":null},"geometry":{"type":"Point","coordinates":[26.064577857575642,44.498695584059064]}},{"type":"Feature","properties":{"fid":561,"Cod SIIIR":"4061101245","Denumirea unității de învățământ":"Școala Gimnazială nr. 5","Tip unitate":"Unitate de învățământ","Nivel Primar":1,"Nivel Gimnazial":1,"Nivel Liceal":0,"Regim Juridic - Tip de proprietate":"Public de interes național și local","Număr total elevi":508,"Număr de schimburi":2,"Număr săli de clasă":20,"Număr laboratoare":3,"Număr săli de sport":1,"Număr cabinete medicale":1},"geometry":{"type":"Point","coordinates":[26.09452935813037,44.44287684738542]}},{"type":"Feature","properties":{"fid":562,"Cod SIIIR":"4061103758","Denumirea unității de învățământ":"Școala Gimnazială nr. 7","Tip unitate":"Unitate de învățământ","Nivel Primar":1,"Nivel Gimnazial":1,"Nivel Liceal":0,"Regim Juridic - Tip de proprietate":"Public de interes național și local","Număr total elevi":801,"Număr de schimburi":2,"Număr săli de clasă":15,"Număr laboratoare":4,"Număr săli de sport":1,"Număr cabinete medicale":1},"geometry":{"type":"Point","coordinates":[26.081534499122252,44.49286028449068]}},{"type":"Feature","properties":{"fid":563,"Cod SIIIR":"4061104013","Denumirea unității de învățământ":"Școala Gimnazială nr. 178","Tip unitate":"Unitate de învățământ","Nivel Primar":1,"Nivel Gimnazial":1,"Nivel Liceal":0,"Regim Juridic - Tip de proprietate":"Public de interes național și local","Număr total elevi":698,"Număr de schimburi":1,"Număr săli de clasă":25,"Număr laboratoare":1,"Număr săli de sport":1,"Număr cabinete medicale":1},"geometry":{"type":"Point","coordinates":[26.055361167436903,44.4841978948129]}},{"type":"Feature","properties":{"fid":564,"Cod SIIIR":"4061102757","Denumirea unității de învățământ":"Școala Gimnazială nr. 179","Tip unitate":"Unitate de învățământ","Nivel Primar":1,"Nivel Gimnazial":1,"Nivel Liceal":0,"Regim Juridic - Tip de proprietate":"Public de interes național și local","Număr total elevi":1432,"Număr de schimburi":2,"Număr săli de clasă":23,"Număr laboratoare":1,"Număr săli de sport":1,"Număr cabinete medicale":1},"geometry":{"type":"Point","coordinates":[26.038990319967343,44.48907859847518]}},{"type":"Feature","properties":{"fid":565,"Cod SIIIR":"4061101272","Denumirea unității de învățământ":"Școala Gimnazială nr. 181","Tip unitate":"Unitate de învățământ","Nivel Primar":1,"Nivel Gimnazial":1,"Nivel Liceal":0,"Regim Juridic - Tip de proprietate":"Public de interes național și local","Număr total elevi":388,"Număr de schimburi":1,"Număr săli de clasă":19,"Număr laboratoare":3,"Număr săli de sport":1,"Număr cabinete medicale":1},"geometry":{"type":"Point","coordinates":[26.026262062836842,44.49437281874408]}},{"type":"Feature","properties":{"fid":566,"Cod SIIIR":"4061103948","Denumirea unității de învățământ":"Școala Gimnazială nr. 183","Tip unitate":"Unitate de învățământ","Nivel Primar":1,"Nivel Gimnazial":1,"Nivel Liceal":0,"Regim Juridic - Tip de proprietate":"Public de interes național și local","Număr total elevi":404,"Număr de schimburi":1,"Număr săli de clasă":24,"Număr laboratoare":1,"Număr săli de sport":1,"Număr cabinete medicale":1},"geometry":{"type":"Point","coordinates":[26.02961614596106,44.48344305828635]}},{"type":"Feature","properties":{"fid":567,"Cod SIIIR":"4061102305","Denumirea unității de învățământ":"Școala Gimnazială nr. 192","Tip unitate":"Unitate de învățământ","Nivel Primar":1,"Nivel Gimnazial":1,"Nivel Liceal":0,"Regim Juridic - Tip de proprietate":"Public de interes național și local","Număr total elevi":665,"Număr de schimburi":2,"Număr săli de clasă":15,"Număr laboratoare":3,"Număr săli de sport":1,"Număr cabinete medicale":1},"geometry":{"type":"Point","coordinates":[26.033952100738418,44.485384823304926]}},{"type":"Feature","properties":{"fid":568,"Cod SIIIR":"4061100606","Denumirea unității de învățământ":"Școala Gimnazială „Alexandru Costescu”","Tip unitate":"Unitate de învățământ","Nivel Primar":1,"Nivel Gimnazial":1,"Nivel Liceal":0,"Regim Juridic - Tip de proprietate":"Public de interes național și local","Număr total elevi":593,"Număr de schimburi":2,"Număr săli de clasă":19,"Număr laboratoare":1,"Număr săli de sport":1,"Număr cabinete medicale":null},"geometry":{"type":"Point","coordinates":[26.037131689147742,44.47642008672323]}},{"type":"Feature","properties":{"fid":569,"Cod SIIIR":"4061101218","Denumirea unității de învățământ":"Școala Gimnazială „Elena Văcărescu”","Tip unitate":"Unitate de învățământ","Nivel Primar":1,"Nivel Gimnazial":1,"Nivel Liceal":0,"Regim Juridic - Tip de proprietate":"Public de interes național și local","Număr total elevi":919,"Număr de schimburi":2,"Număr săli de clasă":22,"Număr laboratoare":5,"Număr săli de sport":1,"Număr cabinete medicale":1},"geometry":{"type":"Point","coordinates":[26.097378080370994,44.44881579460369]}},{"type":"Feature","properties":{"fid":570,"Cod SIIIR":"4061101991","Denumirea unității de învățământ":"Școala Gimnazială „Eugen Barbu”","Tip unitate":"Unitate de învățământ","Nivel Primar":1,"Nivel Gimnazial":1,"Nivel Liceal":0,"Regim Juridic - Tip de proprietate":"Public de interes național și local","Număr total elevi":377,"Număr de schimburi":1,"Număr săli de clasă":15,"Număr laboratoare":4,"Număr săli de sport":1,"Număr cabinete medicale":3},"geometry":{"type":"Point","coordinates":[26.056629245590283,44.46345604766323]}},{"type":"Feature","properties":{"fid":571,"Cod SIIIR":"4061101064","Denumirea unității de învățământ":"Școala Gimnazială „Geo Bogza”","Tip unitate":"Unitate de învățământ","Nivel Primar":1,"Nivel Gimnazial":1,"Nivel Liceal":0,"Regim Juridic - Tip de proprietate":"Public de interes național și local","Număr total elevi":709,"Număr de schimburi":2,"Număr săli de clasă":18,"Număr laboratoare":5,"Număr săli de sport":1,"Număr cabinete medicale":1},"geometry":{"type":"Point","coordinates":[26.06433950700697,44.455318665969074]}},{"type":"Feature","properties":{"fid":572,"Cod SIIIR":"4061104058","Denumirea unității de învățământ":"Școala Gimnazială „Herăstrău”","Tip unitate":"Unitate de învățământ","Nivel Primar":1,"Nivel Gimnazial":1,"Nivel Liceal":0,"Regim Juridic - Tip de proprietate":"Public de interes național și local","Număr total elevi":1502,"Număr de schimburi":3,"Număr săli de clasă":24,"Număr laboratoare":3,"Număr săli de sport":1,"Număr cabinete medicale":1},"geometry":{"type":"Point","coordinates":[26.098439092952393,44.48164286300538]}},{"type":"Feature","properties":{"fid":573,"Cod SIIIR":"4061104067","Denumirea unității de învățământ":"Școala Gimnazială „Nicolae Titulescu”","Tip unitate":"Unitate de învățământ","Nivel Primar":1,"Nivel Gimnazial":1,"Nivel Liceal":0,"Regim Juridic - Tip de proprietate":"Public de interes național și local","Număr total elevi":836,"Număr de schimburi":2,"Număr săli de clasă":26,"Număr laboratoare":null,"Număr săli de sport":1,"Număr cabinete medicale":null},"geometry":{"type":"Point","coordinates":[26.07628071684077,44.45268704176002]}},{"type":"Feature","properties":{"fid":574,"Cod SIIIR":"4061100651","Denumirea unității de învățământ":"Școala Gimnazială „Petre Ispirescu”","Tip unitate":"Unitate de învățământ","Nivel Primar":1,"Nivel Gimnazial":1,"Nivel Liceal":0,"Regim Juridic - Tip de proprietate":"Public de interes național și local","Număr total elevi":331,"Număr de schimburi":1,"Număr săli de clasă":20,"Număr laboratoare":3,"Număr săli de sport":1,"Număr cabinete medicale":1},"geometry":{"type":"Point","coordinates":[26.064826774979544,44.4589682159452]}},{"type":"Feature","properties":{"fid":575,"Cod SIIIR":"4061102092","Denumirea unității de învățământ":"Școala Gimnazială „Pia Brătianu”","Tip unitate":"Unitate de învățământ","Nivel Primar":1,"Nivel Gimnazial":1,"Nivel Liceal":0,"Regim Juridic - Tip de proprietate":"Public de interes național și local","Număr total elevi":1368,"Număr de schimburi":3,"Număr săli de clasă":24,"Număr laboratoare":3,"Număr săli de sport":1,"Număr cabinete medicale":1},"geometry":{"type":"Point","coordinates":[26.078245714038243,44.46151179870328]}},{"type":"Feature","properties":{"fid":576,"Cod SIIIR":"4061102897","Denumirea unității de învățământ":"Școala Gimnazială „Titu Maiorescu”","Tip unitate":"Unitate de învățământ","Nivel Primar":1,"Nivel Gimnazial":1,"Nivel Liceal":0,"Regim Juridic - Tip de proprietate":"Public de interes național și local","Număr total elevi":1084,"Număr de schimburi":2,"Număr săli de clasă":23,"Număr laboratoare":4,"Număr săli de sport":1,"Număr cabinete medicale":1},"geometry":{"type":"Point","coordinates":[26.094551169168607,44.459039605535146]}},{"type":"Feature","properties":{"fid":577,"Cod SIIIR":"4061101869","Denumirea unității de învățământ":"Școala Gimnazială „Vasile Alecsandri”","Tip unitate":"Unitate de învățământ","Nivel Primar":1,"Nivel Gimnazial":1,"Nivel Liceal":0,"Regim Juridic - Tip de proprietate":"Public de interes național și local","Număr total elevi":404,"Număr de schimburi":2,"Număr săli de clasă":14,"Număr laboratoare":1,"Număr săli de sport":1,"Număr cabinete medicale":1},"geometry":{"type":"Point","coordinates":[26.091112215648874,44.440197583396476]}},{"type":"Feature","properties":{"fid":651,"Cod SIIIR":"4061204445","Denumirea unității de învățământ":"Liceul Particular „Onicescu-Mihoc”","Tip unitate":"Unitate de învățământ","Nivel Primar":0,"Nivel Gimnazial":0,"Nivel Liceal":1,"Regim Juridic - Tip de proprietate":"Privat","Număr total elevi":325,"Număr de schimburi":1,"Număr săli de clasă":null,"Număr laboratoare":null,"Număr săli de sport":null,"Număr cabinete medicale":null},"geometry":{"type":"Point","coordinates":[26.084337774099502,44.44559780279696]}},{"type":"Feature","properties":{"fid":668,"Cod SIIIR":"4061103401","Denumirea unității de învățământ":"Liceul Teoretic „Alexandru Vlahuță\"","Tip unitate":"Unitate de învățământ","Nivel Primar":1,"Nivel Gimnazial":1,"Nivel Liceal":1,"Regim Juridic - Tip de proprietate":"Public de interes național și local","Număr total elevi":1166,"Număr de schimburi":2,"Număr săli de clasă":25,"Număr laboratoare":4,"Număr săli de sport":1,"Număr cabinete medicale":1},"geometry":{"type":"Point","coordinates":[26.09731130665426,44.45818078960606]}},{"type":"Feature","properties":{"fid":669,"Cod SIIIR":"4061101209","Denumirea unității de învățământ":"Liceul Teoretic „Jean Monet\"","Tip unitate":"Unitate de învățământ","Nivel Primar":1,"Nivel Gimnazial":1,"Nivel Liceal":1,"Regim Juridic - Tip de proprietate":"Public de interes național și local","Număr total elevi":1447,"Număr de schimburi":2,"Număr săli de clasă":25,"Număr laboratoare":5,"Număr săli de sport":1,"Număr cabinete medicale":1},"geometry":{"type":"Point","coordinates":[26.093226331945154,44.4660775172548]}},{"type":"Feature","properties":{"fid":670,"Cod SIIIR":"4061101774","Denumirea unității de învățământ":"Liceul Teoretic „Nicolae Iorga\"","Tip unitate":"Unitate de învățământ","Nivel Primar":1,"Nivel Gimnazial":1,"Nivel Liceal":1,"Regim Juridic - Tip de proprietate":"Public de interes național și local","Număr total elevi":1563,"Număr de schimburi":2,"Număr săli de clasă":25,"Număr laboratoare":4,"Număr săli de sport":null,"Număr cabinete medicale":null},"geometry":{"type":"Point","coordinates":[26.070608658117717,44.46473371163998]}},{"type":"Feature","properties":{"fid":671,"Cod SIIIR":"4061103532","Denumirea unității de învățământ":"Liceul Teoretic Bilinngv „Miguel de Cervantes\"","Tip unitate":"Unitate de învățământ","Nivel Primar":1,"Nivel Gimnazial":1,"Nivel Liceal":1,"Regim Juridic - Tip de proprietate":"Public de interes național și local","Număr total elevi":1068,"Număr de schimburi":2,"Număr săli de clasă":21,"Număr laboratoare":5,"Număr săli de sport":1,"Număr cabinete medicale":null},"geometry":{"type":"Point","coordinates":[26.083941004499195,44.43688184289319]}},{"type":"Feature","properties":{"fid":674,"Cod SIIIR":"4061101322","Denumirea unității de învățământ":"Grădinița nr. 162","Tip unitate":"Unitate de învățământ","Nivel Primar":0,"Nivel Gimnazial":0,"Nivel Liceal":0,"Regim Juridic - Tip de proprietate":"Public de interes național și local","Număr total elevi":0,"Număr de schimburi":1,"Număr săli de clasă":4,"Număr laboratoare":null,"Număr săli de sport":1,"Număr cabinete medicale":1},"geometry":{"type":"Point","coordinates":[26.031660572844295,44.468235699749904]}},{"type":"Feature","properties":{"fid":676,"Cod SIIIR":"4061101765","Denumirea unității de învățământ":"Grădinița nr. 50 (Thefrankwulf)","Tip unitate":"Unitate de învățământ","Nivel Primar":0,"Nivel Gimnazial":0,"Nivel Liceal":0,"Regim Juridic - Tip de proprietate":"Public de interes național și local","Număr total elevi":217,"Număr de schimburi":1,"Număr săli de clasă":8,"Număr laboratoare":null,"Număr săli de sport":1,"Număr cabinete medicale":1},"geometry":{"type":"Point","coordinates":[26.096323978215658,44.44844818519198]}},{"type":"Feature","properties":{"fid":677,"Cod SIIIR":"4061103645","Denumirea unității de învățământ":"Grădinița nr. 222","Tip unitate":"Unitate de învățământ","Nivel Primar":0,"Nivel Gimnazial":0,"Nivel Liceal":0,"Regim Juridic - Tip de proprietate":"Public de interes național și local","Număr total elevi":398,"Număr de schimburi":1,"Număr săli de clasă":null,"Număr laboratoare":null,"Număr săli de sport":null,"Număr cabinete medicale":null},"geometry":{"type":"Point","coordinates":[26.06743603664527,44.46341456378486]}},{"type":"Feature","properties":{"fid":681,"Cod SIIIR":"4061100366","Denumirea unității de învățământ":"Grădinița nr. 248","Tip unitate":"Unitate de învățământ","Nivel Primar":0,"Nivel Gimnazial":0,"Nivel Liceal":0,"Regim Juridic - Tip de proprietate":"Public de interes național și local","Număr total elevi":199,"Număr de schimburi":1,"Număr săli de clasă":null,"Număr laboratoare":null,"Număr săli de sport":null,"Număr cabinete medicale":null},"geometry":{"type":"Point","coordinates":[26.085720774207907,44.436755533862]}},{"type":"Feature","properties":{"fid":683,"Cod SIIIR":"4061102106","Denumirea unității de învățământ":"Grădinița Specială pentru Hipoacuzici nr. 65","Tip unitate":"Unitate de învățământ","Nivel Primar":0,"Nivel Gimnazial":0,"Nivel Liceal":0,"Regim Juridic - Tip de proprietate":"Public de interes național și local","Număr total elevi":122,"Număr de schimburi":1,"Număr săli de clasă":12,"Număr laboratoare":1,"Număr săli de sport":null,"Număr cabinete medicale":1},"geometry":{"type":"Point","coordinates":[26.092899280042054,44.478034944115194]}},{"type":"Feature","properties":{"fid":685,"Cod SIIIR":"4061205835","Denumirea unității de învățământ":"Liceul Internațional „Ioanid”","Tip unitate":"Unitate de învățământ","Nivel Primar":0,"Nivel Gimnazial":1,"Nivel Liceal":0,"Regim Juridic - Tip de proprietate":"Privat","Număr total elevi":453,"Număr de schimburi":2,"Număr săli de clasă":null,"Număr laboratoare":null,"Număr săli de sport":null,"Număr cabinete medicale":null},"geometry":{"type":"Point","coordinates":[26.09063439554931,44.443557977975864]}},{"type":"Feature","properties":{"fid":686,"Cod SIIIR":"4061205835","Denumirea unității de învățământ":"Liceul Internațional „Ioanid”","Tip unitate":"Unitate de învățământ","Nivel Primar":0,"Nivel Gimnazial":0,"Nivel Liceal":1,"Regim Juridic - Tip de proprietate":"Privat","Număr total elevi":453,"Număr de schimburi":2,"Număr săli de clasă":21,"Număr laboratoare":null,"Număr săli de sport":null,"Număr cabinete medicale":null},"geometry":{"type":"Point","coordinates":[26.091616309739308,44.44418609602282]}},{"type":"Feature","properties":{"fid":687,"Cod SIIIR":"4061205903","Denumirea unității de învățământ":"Grădinița „Teddybär”","Tip unitate":"Unitate de învățământ","Nivel Primar":0,"Nivel Gimnazial":0,"Nivel Liceal":0,"Regim Juridic - Tip de proprietate":"Privat","Număr total elevi":158,"Număr de schimburi":1,"Număr săli de clasă":null,"Număr laboratoare":null,"Număr săli de sport":null,"Număr cabinete medicale":null},"geometry":{"type":"Point","coordinates":[26.065867415259756,44.4548962952007]}},{"type":"Feature","properties":{"fid":690,"Cod SIIIR":"4061206162","Denumirea unității de învățământ":"Școala Gimnazială „Fridolin”","Tip unitate":"Unitate de învățământ","Nivel Primar":0,"Nivel Gimnazial":1,"Nivel Liceal":0,"Regim Juridic - Tip de proprietate":"Privat","Număr total elevi":250,"Număr de schimburi":1,"Număr săli de clasă":null,"Număr laboratoare":null,"Număr săli de sport":null,"Număr cabinete medicale":null},"geometry":{"type":"Point","coordinates":[26.078029634064478,44.438824025449094]}},{"type":"Feature","properties":{"fid":691,"Cod SIIIR":"4061206578","Denumirea unității de învățământ":"Grădiniţa \"Olga Gudynn International School\"","Tip unitate":"Unitate de învățământ","Nivel Primar":0,"Nivel Gimnazial":0,"Nivel Liceal":0,"Regim Juridic - Tip de proprietate":"Privat","Număr total elevi":60,"Număr de schimburi":1,"Număr săli de clasă":4,"Număr laboratoare":null,"Număr săli de sport":null,"Număr cabinete medicale":null},"geometry":{"type":"Point","coordinates":[26.078457999954395,44.43928341176336]}},{"type":"Feature","properties":{"fid":698,"Cod SIIIR":"4061208743","Denumirea unității de învățământ":"Gradinița „Dandi Kids”","Tip unitate":"Unitate de învățământ","Nivel Primar":0,"Nivel Gimnazial":0,"Nivel Liceal":0,"Regim Juridic - Tip de proprietate":"Privat","Număr total elevi":26,"Număr de schimburi":1,"Număr săli de clasă":null,"Număr laboratoare":null,"Număr săli de sport":null,"Număr cabinete medicale":null},"geometry":{"type":"Point","coordinates":[26.06545828469456,44.46120862240064]}},{"type":"Feature","properties":{"fid":704,"Cod SIIIR":"4082106952","Denumirea unității de învățământ":"Clubul Sportiv Școlar - Colegiul Tehnic Feroviar „Mihai I”","Tip unitate":"Club sportiv școlar","Nivel Primar":0,"Nivel Gimnazial":0,"Nivel Liceal":0,"Regim Juridic - Tip de proprietate":"Public de interes național și local","Număr total elevi":0,"Număr de schimburi":1,"Număr săli de clasă":null,"Număr laboratoare":null,"Număr săli de sport":null,"Număr cabinete medicale":null},"geometry":{"type":"Point","coordinates":[26.042037026483964,44.466092066182085]}},{"type":"Feature","properties":{"fid":710,"Cod SIIIR":"4051101023","Denumirea unității de învățământ":"Clubul Copiilor Sector 6","Tip unitate":"Club al copiilor","Nivel Primar":0,"Nivel Gimnazial":0,"Nivel Liceal":0,"Regim Juridic - Tip de proprietate":"Public de interes național și local","Număr total elevi":0,"Număr de schimburi":2,"Număr săli de clasă":8,"Număr laboratoare":1,"Număr săli de sport":2,"Număr cabinete medicale":null},"geometry":{"type":"Point","coordinates":[26.082290341167226,44.437606620916135]}},{"type":"Feature","properties":{"fid":714,"Cod SIIIR":"4051103708","Denumirea unității de învățământ":"Clubul Copiilor Sector 1","Tip unitate":"Club al copiilor","Nivel Primar":0,"Nivel Gimnazial":0,"Nivel Liceal":0,"Regim Juridic - Tip de proprietate":"Public de interes național și local","Număr total elevi":0,"Număr de schimburi":1,"Număr săli de clasă":5,"Număr laboratoare":1,"Număr săli de sport":3,"Număr cabinete medicale":null},"geometry":{"type":"Point","coordinates":[26.035302190257898,44.48928962882437]}},{"type":"Feature","properties":{"fid":715,"Cod SIIIR":"4051103708","Denumirea unității de învățământ":"Clubul Copiilor Sector 1","Tip unitate":"Club al copiilor","Nivel Primar":0,"Nivel Gimnazial":0,"Nivel Liceal":0,"Regim Juridic - Tip de proprietate":"Public de interes național și local","Număr total elevi":0,"Număr de schimburi":1,"Număr săli de clasă":null,"Număr laboratoare":null,"Număr săli de sport":null,"Număr cabinete medicale":null},"geometry":{"type":"Point","coordinates":[26.061894145483656,44.46668818827008]}},{"type":"Feature","properties":{"fid":716,"Cod SIIIR":"4061109425","Denumirea unității de învățământ":"Școala Militară de Maiștri Militari și Subofițeri de Logistică","Tip unitate":"Unitate de învățământ","Nivel Primar":0,"Nivel Gimnazial":0,"Nivel Liceal":0,"Regim Juridic - Tip de proprietate":"Public de interes național și local","Număr total elevi":82,"Număr de schimburi":1,"Număr săli de clasă":null,"Număr laboratoare":null,"Număr săli de sport":null,"Număr cabinete medicale":null},"geometry":{"type":"Point","coordinates":[25.992465707656226,44.49662509153]}},{"type":"Feature","properties":{"fid":727,"Cod SIIIR":"4061207118","Denumirea unității de învățământ":"Școala Postliceală Sanitară \"Centrul de Studii Europene București\"","Tip unitate":"Unitate de învățământ","Nivel Primar":0,"Nivel Gimnazial":0,"Nivel Liceal":0,"Regim Juridic - Tip de proprietate":"Privat","Număr total elevi":255,"Număr de schimburi":1,"Număr săli de clasă":6,"Număr laboratoare":null,"Număr săli de sport":null,"Număr cabinete medicale":null},"geometry":{"type":"Point","coordinates":[26.0644768202041,44.4987559697326]}},{"type":"Feature","properties":{"fid":729,"Cod SIIIR":"4061208892","Denumirea unității de învățământ":"Școala Primară „Helikon-București”","Tip unitate":"Unitate de învățământ","Nivel Primar":1,"Nivel Gimnazial":0,"Nivel Liceal":0,"Regim Juridic - Tip de proprietate":"Privat","Număr total elevi":237,"Număr de schimburi":1,"Număr săli de clasă":14,"Număr laboratoare":2,"Număr săli de sport":1,"Număr cabinete medicale":1},"geometry":{"type":"Point","coordinates":[26.09013251435614,44.44184591549943]}},{"type":"Feature","properties":{"fid":755,"Cod SIIIR":"4081104041","Denumirea unității de învățământ":"Clubul Sportiv Şcolar nr. 1","Tip unitate":"Club Sportiv Școlar","Nivel Primar":0,"Nivel Gimnazial":0,"Nivel Liceal":0,"Regim Juridic - Tip de proprietate":"Public de interes național și local","Număr total elevi":0,"Număr de schimburi":2,"Număr săli de clasă":null,"Număr laboratoare":null,"Număr săli de sport":11,"Număr cabinete medicale":null},"geometry":{"type":"Point","coordinates":[26.056138569876,44.47031957290891]}},{"type":"Feature","properties":{"fid":756,"Cod SIIIR":"4081106857","Denumirea unității de învățământ":"Clubul Sportiv Școlar nr. 5","Tip unitate":"Club sportiv școlar","Nivel Primar":0,"Nivel Gimnazial":0,"Nivel Liceal":0,"Regim Juridic - Tip de proprietate":"Public de interes național și local","Număr total elevi":0,"Număr de schimburi":1,"Număr săli de clasă":null,"Număr laboratoare":null,"Număr săli de sport":7,"Număr cabinete medicale":null},"geometry":{"type":"Point","coordinates":[26.072837338355917,44.44153084074881]}},{"type":"Feature","properties":{"fid":757,"Cod SIIIR":"4082106925","Denumirea unității de învățământ":"CSS - Colegiul Naţional „Aurel Vlaicu”","Tip unitate":"Club sportiv şcolar","Nivel Primar":0,"Nivel Gimnazial":0,"Nivel Liceal":0,"Regim Juridic - Tip de proprietate":"Public de interes național și local","Număr total elevi":0,"Număr de schimburi":1,"Număr săli de clasă":null,"Număr laboratoare":null,"Număr săli de sport":null,"Număr cabinete medicale":null},"geometry":{"type":"Point","coordinates":[26.057915253115283,44.4661988660838]}},{"type":"Feature","properties":{"fid":759,"Cod SIIIR":"4082106943","Denumirea unității de învățământ":"CSS - Colegiul Tehnic „Media”","Tip unitate":"Club sportiv școlar","Nivel Primar":0,"Nivel Gimnazial":0,"Nivel Liceal":0,"Regim Juridic - Tip de proprietate":"Public de interes național și local","Număr total elevi":0,"Număr de schimburi":1,"Număr săli de clasă":null,"Număr laboratoare":null,"Număr săli de sport":null,"Număr cabinete medicale":null},"geometry":{"type":"Point","coordinates":[26.05887805111344,44.48627013967388]}}]}
