{"type":"FeatureCollection","features":[{"type":"Feature","properties":{"fid":7,"Pediatrie":0,"Cardiologie":0,"Contract Ecograf":1,"Contract CNAS":1,"Contract CASAOPSNAJ":0},"geometry":{"type":"Point","coordinates":[26.04376669628812,44.48067810191721]}},{"type":"Feature","properties":{"fid":8,"Pediatrie":0,"Cardiologie":0,"Contract Ecograf":0,"Contract CNAS":1,"Contract CASAOPSNAJ":0},"geometry":{"type":"Point","coordinates":[26.043795686794407,44.48076601030825]}},{"type":"Feature","properties":{"fid":9,"Pediatrie":0,"Cardiologie":0,"Contract Ecograf":0,"Contract CNAS":1,"Contract CASAOPSNAJ":0},"geometry":{"type":"Point","coordinates":[26.04386816306012,44.480812549991064]}},{"type":"Feature","properties":{"fid":39,"Pediatrie":1,"Cardiologie":1,"Contract Ecograf":1,"Contract CNAS":1,"Contract CASAOPSNAJ":0},"geometry":{"type":"Point","coordinates":[26.07420596271433,44.4969803200311]}},{"type":"Feature","properties":{"fid":40,"Pediatrie":0,"Cardiologie":0,"Contract Ecograf":1,"Contract CNAS":1,"Contract CASAOPSNAJ":0},"geometry":{"type":"Point","coordinates":[26.082121833393604,44.453631374652694]}},{"type":"Feature","properties":{"fid":41,"Pediatrie":0,"Cardiologie":0,"Contract Ecograf":0,"Contract CNAS":1,"Contract CASAOPSNAJ":0},"geometry":{"type":"Point","coordinates":[26.078954620581865,44.45636290943546]}},{"type":"Feature","properties":{"fid":42,"Pediatrie":0,"Cardiologie":0,"Contract Ecograf":0,"Contract CNAS":1,"Contract CASAOPSNAJ":0},"geometry":{"type":"Point","coordinates":[26.077896467102423,44.457495838078685]}},{"type":"Feature","properties":{"fid":43,"Pediatrie":0,"Cardiologie":0,"Contract Ecograf":0,"Contract CNAS":1,"Contract CASAOPSNAJ":0},"geometry":{"type":"Point","coordinates":[26.073199099130775,44.461997589586574]}},{"type":"Feature","properties":{"fid":44,"Pediatrie":0,"Cardiologie":0,"Contract Ecograf":0,"Contract CNAS":1,"Contract CASAOPSNAJ":0},"geometry":{"type":"Point","coordinates":[26.068917563733663,44.465070116957136]}},{"type":"Feature","properties":{"fid":45,"Pediatrie":0,"Cardiologie":0,"Contract Ecograf":0,"Contract CNAS":1,"Contract CASAOPSNAJ":0},"geometry":{"type":"Point","coordinates":[26.065089004997272,44.466536493467224]}},{"type":"Feature","properties":{"fid":67,"Pediatrie":0,"Cardiologie":0,"Contract Ecograf":0,"Contract CNAS":1,"Contract CASAOPSNAJ":0},"geometry":{"type":"Point","coordinates":[26.070164913184072,44.474142212076245]}},{"type":"Feature","properties":{"fid":68,"Pediatrie":0,"Cardiologie":0,"Contract Ecograf":0,"Contract CNAS":1,"Contract CASAOPSNAJ":0},"geometry":{"type":"Point","coordinates":[26.07419278165118,44.466505749170565]}},{"type":"Feature","properties":{"fid":69,"Pediatrie":0,"Cardiologie":0,"Contract Ecograf":0,"Contract CNAS":1,"Contract CASAOPSNAJ":0},"geometry":{"type":"Point","coordinates":[26.0839631158582,44.435761792204005]}},{"type":"Feature","properties":{"fid":115,"Pediatrie":0,"Cardiologie":0,"Contract Ecograf":0,"Contract CNAS":1,"Contract CASAOPSNAJ":0},"geometry":{"type":"Point","coordinates":[26.10184297745088,44.477967107930624]}},{"type":"Feature","properties":{"fid":121,"Pediatrie":0,"Cardiologie":0,"Contract Ecograf":0,"Contract CNAS":1,"Contract CASAOPSNAJ":0},"geometry":{"type":"Point","coordinates":[26.100311266883708,44.448582093903205]}},{"type":"Feature","properties":{"fid":124,"Pediatrie":0,"Cardiologie":0,"Contract Ecograf":0,"Contract CNAS":1,"Contract CASAOPSNAJ":0},"geometry":{"type":"Point","coordinates":[26.033429040414088,44.48072096634179]}},{"type":"Feature","properties":{"fid":125,"Pediatrie":0,"Cardiologie":0,"Contract Ecograf":0,"Contract CNAS":1,"Contract CASAOPSNAJ":0},"geometry":{"type":"Point","coordinates":[26.043161696946285,44.477276924136554]}},{"type":"Feature","properties":{"fid":127,"Pediatrie":0,"Cardiologie":0,"Contract Ecograf":0,"Contract CNAS":1,"Contract CASAOPSNAJ":0},"geometry":{"type":"Point","coordinates":[26.101777368203305,44.4430702801736]}},{"type":"Feature","properties":{"fid":128,"Pediatrie":0,"Cardiologie":0,"Contract Ecograf":0,"Contract CNAS":1,"Contract CASAOPSNAJ":0},"geometry":{"type":"Point","coordinates":[26.100197650946107,44.44846576766299]}},{"type":"Feature","properties":{"fid":129,"Pediatrie":0,"Cardiologie":0,"Contract Ecograf":0,"Contract CNAS":1,"Contract CASAOPSNAJ":0},"geometry":{"type":"Point","coordinates":[26.100233889078964,44.448460593722835]}},{"type":"Feature","properties":{"fid":130,"Pediatrie":0,"Cardiologie":0,"Contract Ecograf":0,"Contract CNAS":1,"Contract CASAOPSNAJ":0},"geometry":{"type":"Point","coordinates":[26.10027737483839,44.448460593722835]}},{"type":"Feature","properties":{"fid":131,"Pediatrie":0,"Cardiologie":0,"Contract Ecograf":0,"Contract CNAS":1,"Contract CASAOPSNAJ":0},"geometry":{"type":"Point","coordinates":[26.100306365344675,44.448455419782235]}},{"type":"Feature","properties":{"fid":132,"Pediatrie":0,"Cardiologie":0,"Contract Ecograf":0,"Contract CNAS":1,"Contract CASAOPSNAJ":0},"geometry":{"type":"Point","coordinates":[26.10018315569296,44.44849163735684]}},{"type":"Feature","properties":{"fid":133,"Pediatrie":0,"Cardiologie":0,"Contract Ecograf":0,"Contract CNAS":1,"Contract CASAOPSNAJ":0},"geometry":{"type":"Point","coordinates":[26.100219393825817,44.448496811294234]}},{"type":"Feature","properties":{"fid":134,"Pediatrie":0,"Cardiologie":0,"Contract Ecograf":0,"Contract CNAS":1,"Contract CASAOPSNAJ":0},"geometry":{"type":"Point","coordinates":[26.10027012721182,44.44849163735684]}},{"type":"Feature","properties":{"fid":135,"Pediatrie":0,"Cardiologie":0,"Contract Ecograf":0,"Contract CNAS":1,"Contract CASAOPSNAJ":0},"geometry":{"type":"Point","coordinates":[26.100309989157967,44.448483876449885]}},{"type":"Feature","properties":{"fid":136,"Pediatrie":0,"Cardiologie":0,"Contract Ecograf":0,"Contract CNAS":1,"Contract CASAOPSNAJ":0},"geometry":{"type":"Point","coordinates":[26.100175908066394,44.44852268097434]}},{"type":"Feature","properties":{"fid":137,"Pediatrie":0,"Cardiologie":0,"Contract Ecograf":0,"Contract CNAS":1,"Contract CASAOPSNAJ":0},"geometry":{"type":"Point","coordinates":[26.10021214619925,44.44851233310367]}},{"type":"Feature","properties":{"fid":138,"Pediatrie":0,"Cardiologie":0,"Contract Ecograf":0,"Contract CNAS":1,"Contract CASAOPSNAJ":0},"geometry":{"type":"Point","coordinates":[26.100259255771963,44.44851750703924]}},{"type":"Feature","properties":{"fid":139,"Pediatrie":1,"Cardiologie":0,"Contract Ecograf":1,"Contract CNAS":1,"Contract CASAOPSNAJ":0},"geometry":{"type":"Point","coordinates":[26.100313612971252,44.44851750703924]}},{"type":"Feature","properties":{"fid":140,"Pediatrie":1,"Cardiologie":0,"Contract Ecograf":0,"Contract CNAS":1,"Contract CASAOPSNAJ":0},"geometry":{"type":"Point","coordinates":[26.10018315569296,44.448545963676644]}},{"type":"Feature","properties":{"fid":141,"Pediatrie":0,"Cardiologie":0,"Contract Ecograf":0,"Contract CNAS":1,"Contract CASAOPSNAJ":0},"geometry":{"type":"Point","coordinates":[26.100241136705534,44.448545963676644]}},{"type":"Feature","properties":{"fid":142,"Pediatrie":0,"Cardiologie":0,"Contract Ecograf":0,"Contract CNAS":1,"Contract CASAOPSNAJ":0},"geometry":{"type":"Point","coordinates":[26.100291870091535,44.44854855064299]}},{"type":"Feature","properties":{"fid":144,"Pediatrie":0,"Cardiologie":0,"Contract Ecograf":0,"Contract CNAS":1,"Contract CASAOPSNAJ":0},"geometry":{"type":"Point","coordinates":[26.100197650946104,44.44857442030018]}},{"type":"Feature","properties":{"fid":145,"Pediatrie":0,"Cardiologie":0,"Contract Ecograf":0,"Contract CNAS":1,"Contract CASAOPSNAJ":0},"geometry":{"type":"Point","coordinates":[26.100252008145393,44.44856665940423]}},{"type":"Feature","properties":{"fid":168,"Pediatrie":0,"Cardiologie":0,"Contract Ecograf":0,"Contract CNAS":1,"Contract CASAOPSNAJ":0},"geometry":{"type":"Point","coordinates":[26.100858452571362,44.45660334940393]}},{"type":"Feature","properties":{"fid":169,"Pediatrie":0,"Cardiologie":1,"Contract Ecograf":0,"Contract CNAS":1,"Contract CASAOPSNAJ":0},"geometry":{"type":"Point","coordinates":[26.101336795925075,44.45376706318854]}},{"type":"Feature","properties":{"fid":170,"Pediatrie":0,"Cardiologie":1,"Contract Ecograf":0,"Contract CNAS":1,"Contract CASAOPSNAJ":0},"geometry":{"type":"Point","coordinates":[26.0761539858173,44.463776806090635]}},{"type":"Feature","properties":{"fid":172,"Pediatrie":0,"Cardiologie":0,"Contract Ecograf":0,"Contract CNAS":1,"Contract CASAOPSNAJ":0},"geometry":{"type":"Point","coordinates":[26.05626332364967,44.46393079096864]}},{"type":"Feature","properties":{"fid":175,"Pediatrie":0,"Cardiologie":0,"Contract Ecograf":0,"Contract CNAS":1,"Contract CASAOPSNAJ":0},"geometry":{"type":"Point","coordinates":[26.071575746688676,44.4496569563519]}},{"type":"Feature","properties":{"fid":176,"Pediatrie":0,"Cardiologie":0,"Contract Ecograf":0,"Contract CNAS":1,"Contract CASAOPSNAJ":0},"geometry":{"type":"Point","coordinates":[26.090917422634067,44.44409320146036]}},{"type":"Feature","properties":{"fid":177,"Pediatrie":0,"Cardiologie":1,"Contract Ecograf":0,"Contract CNAS":1,"Contract CASAOPSNAJ":0},"geometry":{"type":"Point","coordinates":[26.090915610727425,44.444066036236116]}},{"type":"Feature","properties":{"fid":178,"Pediatrie":0,"Cardiologie":1,"Contract Ecograf":0,"Contract CNAS":1,"Contract CASAOPSNAJ":0},"geometry":{"type":"Point","coordinates":[26.089686232070235,44.44457408851758]}},{"type":"Feature","properties":{"fid":183,"Pediatrie":0,"Cardiologie":0,"Contract Ecograf":0,"Contract CNAS":1,"Contract CASAOPSNAJ":0},"geometry":{"type":"Point","coordinates":[26.0828460212923,44.4371585944214]}},{"type":"Feature","properties":{"fid":184,"Pediatrie":0,"Cardiologie":0,"Contract Ecograf":0,"Contract CNAS":1,"Contract CASAOPSNAJ":0},"geometry":{"type":"Point","coordinates":[26.082781864407405,44.437165138595326]}},{"type":"Feature","properties":{"fid":187,"Pediatrie":1,"Cardiologie":0,"Contract Ecograf":1,"Contract CNAS":1,"Contract CASAOPSNAJ":0},"geometry":{"type":"Point","coordinates":[26.08646648626195,44.451224035958056]}},{"type":"Feature","properties":{"fid":204,"Pediatrie":0,"Cardiologie":0,"Contract Ecograf":0,"Contract CNAS":1,"Contract CASAOPSNAJ":0},"geometry":{"type":"Point","coordinates":[26.053797406258333,44.48333547395328]}},{"type":"Feature","properties":{"fid":205,"Pediatrie":0,"Cardiologie":0,"Contract Ecograf":0,"Contract CNAS":1,"Contract CASAOPSNAJ":0},"geometry":{"type":"Point","coordinates":[26.053713685048642,44.48331456801019]}},{"type":"Feature","properties":{"fid":206,"Pediatrie":0,"Cardiologie":0,"Contract Ecograf":0,"Contract CNAS":1,"Contract CASAOPSNAJ":0},"geometry":{"type":"Point","coordinates":[26.05362577777847,44.483320541137545]}},{"type":"Feature","properties":{"fid":207,"Pediatrie":0,"Cardiologie":0,"Contract Ecograf":1,"Contract CNAS":1,"Contract CASAOPSNAJ":0},"geometry":{"type":"Point","coordinates":[26.05355042868975,44.48331456801019]}},{"type":"Feature","properties":{"fid":208,"Pediatrie":0,"Cardiologie":0,"Contract Ecograf":0,"Contract CNAS":1,"Contract CASAOPSNAJ":0},"geometry":{"type":"Point","coordinates":[26.0535378705083,44.4833504067652]}},{"type":"Feature","properties":{"fid":209,"Pediatrie":0,"Cardiologie":0,"Contract Ecograf":1,"Contract CNAS":1,"Contract CASAOPSNAJ":0},"geometry":{"type":"Point","coordinates":[26.053613219597022,44.48334742020312]}},{"type":"Feature","properties":{"fid":210,"Pediatrie":0,"Cardiologie":0,"Contract Ecograf":0,"Contract CNAS":1,"Contract CASAOPSNAJ":0},"geometry":{"type":"Point","coordinates":[26.053663452322834,44.4833504067652]}},{"type":"Feature","properties":{"fid":211,"Pediatrie":0,"Cardiologie":0,"Contract Ecograf":0,"Contract CNAS":1,"Contract CASAOPSNAJ":0},"geometry":{"type":"Point","coordinates":[26.053755545653488,44.48334742020312]}},{"type":"Feature","properties":{"fid":212,"Pediatrie":0,"Cardiologie":0,"Contract Ecograf":0,"Contract CNAS":1,"Contract CASAOPSNAJ":0},"geometry":{"type":"Point","coordinates":[26.091302636446702,44.450845761784315]}},{"type":"Feature","properties":{"fid":213,"Pediatrie":0,"Cardiologie":0,"Contract Ecograf":0,"Contract CNAS":1,"Contract CASAOPSNAJ":0},"geometry":{"type":"Point","coordinates":[26.091260775841857,44.45084426767153]}},{"type":"Feature","properties":{"fid":214,"Pediatrie":0,"Cardiologie":0,"Contract Ecograf":0,"Contract CNAS":1,"Contract CASAOPSNAJ":0},"geometry":{"type":"Point","coordinates":[26.09123565947895,44.45083978533291]}},{"type":"Feature","properties":{"fid":215,"Pediatrie":0,"Cardiologie":0,"Contract Ecograf":1,"Contract CNAS":1,"Contract CASAOPSNAJ":0},"geometry":{"type":"Point","coordinates":[26.09129845038622,44.45086070291016]}},{"type":"Feature","properties":{"fid":216,"Pediatrie":0,"Cardiologie":0,"Contract Ecograf":0,"Contract CNAS":1,"Contract CASAOPSNAJ":0},"geometry":{"type":"Point","coordinates":[26.09125449675113,44.45086369113487]}},{"type":"Feature","properties":{"fid":240,"Pediatrie":0,"Cardiologie":0,"Contract Ecograf":1,"Contract CNAS":1,"Contract CASAOPSNAJ":0},"geometry":{"type":"Point","coordinates":[26.052001720527393,44.47020689450667]}},{"type":"Feature","properties":{"fid":245,"Pediatrie":0,"Cardiologie":0,"Contract Ecograf":0,"Contract CNAS":1,"Contract CASAOPSNAJ":0},"geometry":{"type":"Point","coordinates":[26.097147701998683,44.45742338029542]}},{"type":"Feature","properties":{"fid":322,"Pediatrie":0,"Cardiologie":0,"Contract Ecograf":1,"Contract CNAS":1,"Contract CASAOPSNAJ":0},"geometry":{"type":"Point","coordinates":[26.054666819436456,44.484659380474234]}},{"type":"Feature","properties":{"fid":326,"Pediatrie":0,"Cardiologie":0,"Contract Ecograf":0,"Contract CNAS":1,"Contract CASAOPSNAJ":0},"geometry":{"type":"Point","coordinates":[26.089380294943002,44.45280705772653]}},{"type":"Feature","properties":{"fid":327,"Pediatrie":0,"Cardiologie":0,"Contract Ecograf":0,"Contract CNAS":1,"Contract CASAOPSNAJ":0},"geometry":{"type":"Point","coordinates":[26.036127076570935,44.50506063377176]}},{"type":"Feature","properties":{"fid":328,"Pediatrie":0,"Cardiologie":0,"Contract Ecograf":0,"Contract CNAS":1,"Contract CASAOPSNAJ":0},"geometry":{"type":"Point","coordinates":[26.067786252014177,44.501164490859985]}},{"type":"Feature","properties":{"fid":329,"Pediatrie":0,"Cardiologie":0,"Contract Ecograf":0,"Contract CNAS":1,"Contract CASAOPSNAJ":0},"geometry":{"type":"Point","coordinates":[26.06846439381264,44.50104506474216]}},{"type":"Feature","properties":{"fid":347,"Pediatrie":0,"Cardiologie":0,"Contract Ecograf":0,"Contract CNAS":1,"Contract CASAOPSNAJ":0},"geometry":{"type":"Point","coordinates":[26.080526499931867,44.447598446469684]}},{"type":"Feature","properties":{"fid":378,"Pediatrie":0,"Cardiologie":0,"Contract Ecograf":0,"Contract CNAS":1,"Contract CASAOPSNAJ":0},"geometry":{"type":"Point","coordinates":[26.028477214982704,44.49362383594913]}},{"type":"Feature","properties":{"fid":395,"Pediatrie":0,"Cardiologie":0,"Contract Ecograf":0,"Contract CNAS":1,"Contract CASAOPSNAJ":0},"geometry":{"type":"Point","coordinates":[26.092775162774224,44.48557510678028]}},{"type":"Feature","properties":{"fid":398,"Pediatrie":0,"Cardiologie":0,"Contract Ecograf":0,"Contract CNAS":1,"Contract CASAOPSNAJ":0},"geometry":{"type":"Point","coordinates":[26.075102614188626,44.45096647848219]}},{"type":"Feature","properties":{"fid":399,"Pediatrie":0,"Cardiologie":1,"Contract Ecograf":1,"Contract CNAS":1,"Contract CASAOPSNAJ":0},"geometry":{"type":"Point","coordinates":[26.087359320951197,44.46040840449154]}},{"type":"Feature","properties":{"fid":400,"Pediatrie":0,"Cardiologie":0,"Contract Ecograf":0,"Contract CNAS":1,"Contract CASAOPSNAJ":0},"geometry":{"type":"Point","coordinates":[26.079244982972675,44.455665028526745]}},{"type":"Feature","properties":{"fid":401,"Pediatrie":0,"Cardiologie":0,"Contract Ecograf":0,"Contract CNAS":1,"Contract CASAOPSNAJ":0},"geometry":{"type":"Point","coordinates":[26.094023000476778,44.446229333071315]}},{"type":"Feature","properties":{"fid":405,"Pediatrie":0,"Cardiologie":0,"Contract Ecograf":0,"Contract CNAS":1,"Contract CASAOPSNAJ":0},"geometry":{"type":"Point","coordinates":[26.08681871694354,44.43877162791227]}},{"type":"Feature","properties":{"fid":407,"Pediatrie":0,"Cardiologie":1,"Contract Ecograf":0,"Contract CNAS":1,"Contract CASAOPSNAJ":0},"geometry":{"type":"Point","coordinates":[26.085068033851726,44.44999370863044]}},{"type":"Feature","properties":{"fid":413,"Pediatrie":0,"Cardiologie":0,"Contract Ecograf":0,"Contract CNAS":1,"Contract CASAOPSNAJ":0},"geometry":{"type":"Point","coordinates":[26.09016714427701,44.482511091231075]}},{"type":"Feature","properties":{"fid":419,"Pediatrie":0,"Cardiologie":0,"Contract Ecograf":0,"Contract CNAS":1,"Contract CASAOPSNAJ":0},"geometry":{"type":"Point","coordinates":[26.100241077535816,44.44573142875687]}},{"type":"Feature","properties":{"fid":433,"Pediatrie":0,"Cardiologie":0,"Contract Ecograf":0,"Contract CNAS":1,"Contract CASAOPSNAJ":0},"geometry":{"type":"Point","coordinates":[26.099101813904994,44.482349686267206]}},{"type":"Feature","properties":{"fid":434,"Pediatrie":0,"Cardiologie":0,"Contract Ecograf":0,"Contract CNAS":1,"Contract CASAOPSNAJ":0},"geometry":{"type":"Point","coordinates":[26.097014535667597,44.451566913265374]}},{"type":"Feature","properties":{"fid":440,"Pediatrie":0,"Cardiologie":0,"Contract Ecograf":0,"Contract CNAS":1,"Contract CASAOPSNAJ":0},"geometry":{"type":"Point","coordinates":[26.08402116715316,44.44889938008906]}},{"type":"Feature","properties":{"fid":443,"Pediatrie":0,"Cardiologie":0,"Contract Ecograf":0,"Contract CNAS":1,"Contract CASAOPSNAJ":0},"geometry":{"type":"Point","coordinates":[26.082773445873226,44.4371145056451]}},{"type":"Feature","properties":{"fid":453,"Pediatrie":0,"Cardiologie":0,"Contract Ecograf":0,"Contract CNAS":1,"Contract CASAOPSNAJ":0},"geometry":{"type":"Point","coordinates":[26.071482626232193,44.445302000532585]}},{"type":"Feature","properties":{"fid":455,"Pediatrie":0,"Cardiologie":0,"Contract Ecograf":0,"Contract CNAS":1,"Contract CASAOPSNAJ":0},"geometry":{"type":"Point","coordinates":[26.084636190092787,44.44238942392173]}},{"type":"Feature","properties":{"fid":462,"Pediatrie":0,"Cardiologie":0,"Contract Ecograf":0,"Contract CNAS":1,"Contract CASAOPSNAJ":0},"geometry":{"type":"Point","coordinates":[26.085026004002938,44.450086137837935]}},{"type":"Feature","properties":{"fid":465,"Pediatrie":0,"Cardiologie":0,"Contract Ecograf":0,"Contract CNAS":1,"Contract CASAOPSNAJ":0},"geometry":{"type":"Point","coordinates":[26.055634409991743,44.472205532283624]}},{"type":"Feature","properties":{"fid":470,"Pediatrie":0,"Cardiologie":0,"Contract Ecograf":0,"Contract CNAS":1,"Contract CASAOPSNAJ":0},"geometry":{"type":"Point","coordinates":[26.078789014324265,44.43748250432187]}},{"type":"Feature","properties":{"fid":473,"Pediatrie":0,"Cardiologie":0,"Contract Ecograf":0,"Contract CNAS":1,"Contract CASAOPSNAJ":0},"geometry":{"type":"Point","coordinates":[26.096694808537148,44.45564954631146]}},{"type":"Feature","properties":{"fid":475,"Pediatrie":0,"Cardiologie":0,"Contract Ecograf":0,"Contract CNAS":1,"Contract CASAOPSNAJ":0},"geometry":{"type":"Point","coordinates":[26.100274349732146,44.48242818239591]}},{"type":"Feature","properties":{"fid":479,"Pediatrie":1,"Cardiologie":1,"Contract Ecograf":0,"Contract CNAS":1,"Contract CASAOPSNAJ":0},"geometry":{"type":"Point","coordinates":[26.08037759130692,44.44170651634977]}},{"type":"Feature","properties":{"fid":483,"Pediatrie":0,"Cardiologie":0,"Contract Ecograf":0,"Contract CNAS":1,"Contract CASAOPSNAJ":0},"geometry":{"type":"Point","coordinates":[26.07914318734765,44.44279261454312]}},{"type":"Feature","properties":{"fid":497,"Pediatrie":0,"Cardiologie":1,"Contract Ecograf":1,"Contract CNAS":1,"Contract CASAOPSNAJ":0},"geometry":{"type":"Point","coordinates":[26.07482274984232,44.457063948155266]}},{"type":"Feature","properties":{"fid":498,"Pediatrie":0,"Cardiologie":0,"Contract Ecograf":0,"Contract CNAS":1,"Contract CASAOPSNAJ":0},"geometry":{"type":"Point","coordinates":[26.091780806066602,44.483401050230285]}},{"type":"Feature","properties":{"fid":499,"Pediatrie":0,"Cardiologie":0,"Contract Ecograf":0,"Contract CNAS":1,"Contract CASAOPSNAJ":0},"geometry":{"type":"Point","coordinates":[26.066101913004207,44.45922650768771]}},{"type":"Feature","properties":{"fid":500,"Pediatrie":0,"Cardiologie":0,"Contract Ecograf":0,"Contract CNAS":1,"Contract CASAOPSNAJ":0},"geometry":{"type":"Point","coordinates":[26.096671366130266,44.487453907195416]}},{"type":"Feature","properties":{"fid":505,"Pediatrie":0,"Cardiologie":0,"Contract Ecograf":0,"Contract CNAS":1,"Contract CASAOPSNAJ":0},"geometry":{"type":"Point","coordinates":[26.07784505705018,44.491110723786]}},{"type":"Feature","properties":{"fid":506,"Pediatrie":1,"Cardiologie":1,"Contract Ecograf":0,"Contract CNAS":1,"Contract CASAOPSNAJ":0},"geometry":{"type":"Point","coordinates":[26.091894447457225,44.48991181327566]}},{"type":"Feature","properties":{"fid":515,"Pediatrie":1,"Cardiologie":0,"Contract Ecograf":0,"Contract CNAS":1,"Contract CASAOPSNAJ":0},"geometry":{"type":"Point","coordinates":[26.085779192500514,44.4645959789075]}},{"type":"Feature","properties":{"fid":519,"Pediatrie":0,"Cardiologie":0,"Contract Ecograf":0,"Contract CNAS":1,"Contract CASAOPSNAJ":0},"geometry":{"type":"Point","coordinates":[26.051688168851754,44.47300213781439]}},{"type":"Feature","properties":{"fid":521,"Pediatrie":0,"Cardiologie":0,"Contract Ecograf":0,"Contract CNAS":1,"Contract CASAOPSNAJ":0},"geometry":{"type":"Point","coordinates":[26.082570646789595,44.44963208422264]}},{"type":"Feature","properties":{"fid":523,"Pediatrie":0,"Cardiologie":0,"Contract Ecograf":0,"Contract CNAS":1,"Contract CASAOPSNAJ":0},"geometry":{"type":"Point","coordinates":[26.08425755720896,44.44967123346969]}},{"type":"Feature","properties":{"fid":532,"Pediatrie":0,"Cardiologie":1,"Contract Ecograf":0,"Contract CNAS":1,"Contract CASAOPSNAJ":0},"geometry":{"type":"Point","coordinates":[26.09589519025914,44.454006353608314]}},{"type":"Feature","properties":{"fid":537,"Pediatrie":0,"Cardiologie":1,"Contract Ecograf":1,"Contract CNAS":1,"Contract CASAOPSNAJ":0},"geometry":{"type":"Point","coordinates":[26.06774175517458,44.49738495173116]}},{"type":"Feature","properties":{"fid":538,"Pediatrie":0,"Cardiologie":0,"Contract Ecograf":0,"Contract CNAS":1,"Contract CASAOPSNAJ":0},"geometry":{"type":"Point","coordinates":[26.10026095237797,44.448586085137684]}},{"type":"Feature","properties":{"fid":542,"Pediatrie":0,"Cardiologie":0,"Contract Ecograf":0,"Contract CNAS":1,"Contract CASAOPSNAJ":0},"geometry":{"type":"Point","coordinates":[26.087053196860992,44.4478392279574]}},{"type":"Feature","properties":{"fid":544,"Pediatrie":0,"Cardiologie":0,"Contract Ecograf":0,"Contract CNAS":1,"Contract CASAOPSNAJ":0},"geometry":{"type":"Point","coordinates":[26.066880291421025,44.46402041592256]}},{"type":"Feature","properties":{"fid":548,"Pediatrie":1,"Cardiologie":0,"Contract Ecograf":0,"Contract CNAS":1,"Contract CASAOPSNAJ":0},"geometry":{"type":"Point","coordinates":[26.091703441320576,44.4520036917941]}},{"type":"Feature","properties":{"fid":554,"Pediatrie":0,"Cardiologie":1,"Contract Ecograf":1,"Contract CNAS":1,"Contract CASAOPSNAJ":0},"geometry":{"type":"Point","coordinates":[26.10094313842311,44.45749565486608]}},{"type":"Feature","properties":{"fid":555,"Pediatrie":0,"Cardiologie":0,"Contract Ecograf":0,"Contract CNAS":1,"Contract CASAOPSNAJ":0},"geometry":{"type":"Point","coordinates":[26.099128021966703,44.44406639318095]}},{"type":"Feature","properties":{"fid":561,"Pediatrie":0,"Cardiologie":0,"Contract Ecograf":0,"Contract CNAS":1,"Contract CASAOPSNAJ":0},"geometry":{"type":"Point","coordinates":[26.082749001780137,44.437139601432314]}},{"type":"Feature","properties":{"fid":564,"Pediatrie":0,"Cardiologie":0,"Contract Ecograf":0,"Contract CNAS":1,"Contract CASAOPSNAJ":0},"geometry":{"type":"Point","coordinates":[26.04367890486422,44.48072055410513]}},{"type":"Feature","properties":{"fid":575,"Pediatrie":0,"Cardiologie":0,"Contract Ecograf":1,"Contract CNAS":1,"Contract CASAOPSNAJ":0},"geometry":{"type":"Point","coordinates":[26.048511080290595,44.471804848246016]}},{"type":"Feature","properties":{"fid":582,"Pediatrie":0,"Cardiologie":0,"Contract Ecograf":0,"Contract CNAS":1,"Contract CASAOPSNAJ":0},"geometry":{"type":"Point","coordinates":[26.067979635365838,44.50129670253934]}},{"type":"Feature","properties":{"fid":584,"Pediatrie":0,"Cardiologie":0,"Contract Ecograf":0,"Contract CNAS":1,"Contract CASAOPSNAJ":0},"geometry":{"type":"Point","coordinates":[26.092204549757067,44.480148669501624]}},{"type":"Feature","properties":{"fid":585,"Pediatrie":0,"Cardiologie":0,"Contract Ecograf":0,"Contract CNAS":1,"Contract CASAOPSNAJ":0},"geometry":{"type":"Point","coordinates":[26.09194305349667,44.48341299336022]}},{"type":"Feature","properties":{"fid":587,"Pediatrie":0,"Cardiologie":0,"Contract Ecograf":0,"Contract CNAS":1,"Contract CASAOPSNAJ":0},"geometry":{"type":"Point","coordinates":[26.05202638300477,44.47227045234891]}},{"type":"Feature","properties":{"fid":589,"Pediatrie":0,"Cardiologie":0,"Contract Ecograf":0,"Contract CNAS":1,"Contract CASAOPSNAJ":0},"geometry":{"type":"Point","coordinates":[26.100040263634593,44.44585349178154]}},{"type":"Feature","properties":{"fid":592,"Pediatrie":0,"Cardiologie":0,"Contract Ecograf":0,"Contract CNAS":1,"Contract CASAOPSNAJ":0},"geometry":{"type":"Point","coordinates":[26.09975262258782,44.45081437161524]}},{"type":"Feature","properties":{"fid":593,"Pediatrie":1,"Cardiologie":0,"Contract Ecograf":0,"Contract CNAS":1,"Contract CASAOPSNAJ":0},"geometry":{"type":"Point","coordinates":[26.091775388989824,44.48987867901895]}},{"type":"Feature","properties":{"fid":602,"Pediatrie":0,"Cardiologie":0,"Contract Ecograf":0,"Contract CNAS":1,"Contract CASAOPSNAJ":0},"geometry":{"type":"Point","coordinates":[26.083361414003708,44.464629360273385]}},{"type":"Feature","properties":{"fid":605,"Pediatrie":0,"Cardiologie":0,"Contract Ecograf":0,"Contract CNAS":1,"Contract CASAOPSNAJ":0},"geometry":{"type":"Point","coordinates":[26.03336411538972,44.483361400152965]}},{"type":"Feature","properties":{"fid":620,"Pediatrie":0,"Cardiologie":0,"Contract Ecograf":0,"Contract CNAS":1,"Contract CASAOPSNAJ":0},"geometry":{"type":"Point","coordinates":[26.095839376339963,44.45171100899317]}},{"type":"Feature","properties":{"fid":625,"Pediatrie":0,"Cardiologie":0,"Contract Ecograf":1,"Contract CNAS":1,"Contract CASAOPSNAJ":0},"geometry":{"type":"Point","coordinates":[26.033289221758867,44.48337236897098]}},{"type":"Feature","properties":{"fid":634,"Pediatrie":0,"Cardiologie":0,"Contract Ecograf":1,"Contract CNAS":1,"Contract CASAOPSNAJ":0},"geometry":{"type":"Point","coordinates":[26.098962274816223,44.45958177009692]}},{"type":"Feature","properties":{"fid":647,"Pediatrie":0,"Cardiologie":1,"Contract Ecograf":0,"Contract CNAS":1,"Contract CASAOPSNAJ":0},"geometry":{"type":"Point","coordinates":[26.079447077343985,44.45007484047717]}},{"type":"Feature","properties":{"fid":651,"Pediatrie":0,"Cardiologie":0,"Contract Ecograf":1,"Contract CNAS":1,"Contract CASAOPSNAJ":0},"geometry":{"type":"Point","coordinates":[26.076692712471562,44.43907781352765]}},{"type":"Feature","properties":{"fid":654,"Pediatrie":0,"Cardiologie":0,"Contract Ecograf":0,"Contract CNAS":1,"Contract CASAOPSNAJ":0},"geometry":{"type":"Point","coordinates":[26.073107560843493,44.44424687529446]}},{"type":"Feature","properties":{"fid":659,"Pediatrie":0,"Cardiologie":1,"Contract Ecograf":0,"Contract CNAS":1,"Contract CASAOPSNAJ":0},"geometry":{"type":"Point","coordinates":[26.09197800954668,44.44964566812691]}},{"type":"Feature","properties":{"fid":662,"Pediatrie":0,"Cardiologie":0,"Contract Ecograf":0,"Contract CNAS":1,"Contract CASAOPSNAJ":0},"geometry":{"type":"Point","coordinates":[26.08758733761957,44.436645647009705]}},{"type":"Feature","properties":{"fid":684,"Pediatrie":0,"Cardiologie":0,"Contract Ecograf":0,"Contract CNAS":1,"Contract CASAOPSNAJ":0},"geometry":{"type":"Point","coordinates":[26.068483735793595,44.466323363826604]}},{"type":"Feature","properties":{"fid":687,"Pediatrie":1,"Cardiologie":1,"Contract Ecograf":0,"Contract CNAS":1,"Contract CASAOPSNAJ":0},"geometry":{"type":"Point","coordinates":[26.09666902458511,44.44274303229031]}},{"type":"Feature","properties":{"fid":691,"Pediatrie":0,"Cardiologie":0,"Contract Ecograf":0,"Contract CNAS":1,"Contract CASAOPSNAJ":0},"geometry":{"type":"Point","coordinates":[26.09969132129067,44.45412038609484]}},{"type":"Feature","properties":{"fid":696,"Pediatrie":0,"Cardiologie":0,"Contract Ecograf":0,"Contract CNAS":1,"Contract CASAOPSNAJ":0},"geometry":{"type":"Point","coordinates":[26.091280135949756,44.45086733792501]}},{"type":"Feature","properties":{"fid":702,"Pediatrie":1,"Cardiologie":1,"Contract Ecograf":0,"Contract CNAS":1,"Contract CASAOPSNAJ":0},"geometry":{"type":"Point","coordinates":[26.090171049105823,44.45091769297548]}},{"type":"Feature","properties":{"fid":707,"Pediatrie":0,"Cardiologie":0,"Contract Ecograf":0,"Contract CNAS":1,"Contract CASAOPSNAJ":0},"geometry":{"type":"Point","coordinates":[26.080443581346966,44.51585217279815]}},{"type":"Feature","properties":{"fid":709,"Pediatrie":0,"Cardiologie":0,"Contract Ecograf":0,"Contract CNAS":1,"Contract CASAOPSNAJ":0},"geometry":{"type":"Point","coordinates":[26.08085758311262,44.50841564974775]}},{"type":"Feature","properties":{"fid":711,"Pediatrie":0,"Cardiologie":0,"Contract Ecograf":0,"Contract CNAS":1,"Contract CASAOPSNAJ":0},"geometry":{"type":"Point","coordinates":[26.081296406218318,44.49124259312191]}},{"type":"Feature","properties":{"fid":715,"Pediatrie":0,"Cardiologie":0,"Contract Ecograf":0,"Contract CNAS":1,"Contract CASAOPSNAJ":0},"geometry":{"type":"Point","coordinates":[26.04358945026693,44.4806786113484]}},{"type":"Feature","properties":{"fid":716,"Pediatrie":0,"Cardiologie":0,"Contract Ecograf":0,"Contract CNAS":1,"Contract CASAOPSNAJ":0},"geometry":{"type":"Point","coordinates":[26.100000668833633,44.44710574153356]}},{"type":"Feature","properties":{"fid":718,"Pediatrie":0,"Cardiologie":0,"Contract Ecograf":0,"Contract CNAS":1,"Contract CASAOPSNAJ":0},"geometry":{"type":"Point","coordinates":[26.091278210722372,44.45084847735841]}},{"type":"Feature","properties":{"fid":723,"Pediatrie":0,"Cardiologie":1,"Contract Ecograf":0,"Contract CNAS":1,"Contract CASAOPSNAJ":0},"geometry":{"type":"Point","coordinates":[26.0919938194667,44.482601048404156]}},{"type":"Feature","properties":{"fid":725,"Pediatrie":1,"Cardiologie":1,"Contract Ecograf":0,"Contract CNAS":1,"Contract CASAOPSNAJ":0},"geometry":{"type":"Point","coordinates":[26.052075976237646,44.47018351890623]}},{"type":"Feature","properties":{"fid":729,"Pediatrie":1,"Cardiologie":0,"Contract Ecograf":1,"Contract CNAS":1,"Contract CASAOPSNAJ":0},"geometry":{"type":"Point","coordinates":[26.07390516786727,44.49667989567619]}},{"type":"Feature","properties":{"fid":731,"Pediatrie":0,"Cardiologie":0,"Contract Ecograf":0,"Contract CNAS":1,"Contract CASAOPSNAJ":0},"geometry":{"type":"Point","coordinates":[26.09696714399304,44.46102755006247]}},{"type":"Feature","properties":{"fid":732,"Pediatrie":0,"Cardiologie":0,"Contract Ecograf":0,"Contract CNAS":1,"Contract CASAOPSNAJ":0},"geometry":{"type":"Point","coordinates":[26.062265588521175,44.49396270094888]}},{"type":"Feature","properties":{"fid":741,"Pediatrie":0,"Cardiologie":0,"Contract Ecograf":0,"Contract CNAS":1,"Contract CASAOPSNAJ":0},"geometry":{"type":"Point","coordinates":[26.05262049511844,44.503767633794425]}},{"type":"Feature","properties":{"fid":742,"Pediatrie":0,"Cardiologie":1,"Contract Ecograf":1,"Contract CNAS":1,"Contract CASAOPSNAJ":0},"geometry":{"type":"Point","coordinates":[26.085900989121075,44.492841459005156]}},{"type":"Feature","properties":{"fid":743,"Pediatrie":0,"Cardiologie":0,"Contract Ecograf":0,"Contract CNAS":1,"Contract CASAOPSNAJ":0},"geometry":{"type":"Point","coordinates":[26.05194238552234,44.472296402382064]}},{"type":"Feature","properties":{"fid":744,"Pediatrie":0,"Cardiologie":0,"Contract Ecograf":0,"Contract CNAS":1,"Contract CASAOPSNAJ":0},"geometry":{"type":"Point","coordinates":[26.09125449675113,44.45086369113487]}},{"type":"Feature","properties":{"fid":745,"Pediatrie":0,"Cardiologie":0,"Contract Ecograf":0,"Contract CNAS":1,"Contract CASAOPSNAJ":0},"geometry":{"type":"Point","coordinates":[26.09582654490285,44.46071585832977]}},{"type":"Feature","properties":{"fid":750,"Pediatrie":0,"Cardiologie":0,"Contract Ecograf":0,"Contract CNAS":1,"Contract CASAOPSNAJ":0},"geometry":{"type":"Point","coordinates":[26.08042562761767,44.45336348327021]}},{"type":"Feature","properties":{"fid":751,"Pediatrie":0,"Cardiologie":0,"Contract Ecograf":0,"Contract CNAS":1,"Contract CASAOPSNAJ":0},"geometry":{"type":"Point","coordinates":[26.101110850077568,44.43947965540475]}},{"type":"Feature","properties":{"fid":753,"Pediatrie":0,"Cardiologie":0,"Contract Ecograf":0,"Contract CNAS":1,"Contract CASAOPSNAJ":0},"geometry":{"type":"Point","coordinates":[26.089405718431372,44.45281752622177]}},{"type":"Feature","properties":{"fid":754,"Pediatrie":0,"Cardiologie":0,"Contract Ecograf":0,"Contract CNAS":1,"Contract CASAOPSNAJ":0},"geometry":{"type":"Point","coordinates":[26.090451440069117,44.48356711093385]}},{"type":"Feature","properties":{"fid":756,"Pediatrie":0,"Cardiologie":0,"Contract Ecograf":0,"Contract CNAS":0,"Contract CASAOPSNAJ":1},"geometry":{"type":"Point","coordinates":[26.087625389831093,44.43746647735827]}},{"type":"Feature","properties":{"fid":757,"Pediatrie":0,"Cardiologie":0,"Contract Ecograf":0,"Contract CNAS":0,"Contract CASAOPSNAJ":1},"geometry":{"type":"Point","coordinates":[26.03265233048054,44.49398438750211]}},{"type":"Feature","properties":{"fid":758,"Pediatrie":0,"Cardiologie":0,"Contract Ecograf":0,"Contract CNAS":0,"Contract CASAOPSNAJ":1},"geometry":{"type":"Point","coordinates":[26.100349098010195,44.48074024556117]}},{"type":"Feature","properties":{"fid":759,"Pediatrie":0,"Cardiologie":0,"Contract Ecograf":0,"Contract CNAS":0,"Contract CASAOPSNAJ":1},"geometry":{"type":"Point","coordinates":[26.092707096506313,44.4404814039791]}},{"type":"Feature","properties":{"fid":760,"Pediatrie":0,"Cardiologie":0,"Contract Ecograf":0,"Contract CNAS":0,"Contract CASAOPSNAJ":1},"geometry":{"type":"Point","coordinates":[26.09995540392078,44.4471110887547]}},{"type":"Feature","properties":{"fid":761,"Pediatrie":0,"Cardiologie":0,"Contract Ecograf":0,"Contract CNAS":0,"Contract CASAOPSNAJ":1},"geometry":{"type":"Point","coordinates":[26.08471720057998,44.43810826076423]}},{"type":"Feature","properties":{"fid":762,"Pediatrie":0,"Cardiologie":0,"Contract Ecograf":0,"Contract CNAS":0,"Contract CASAOPSNAJ":1},"geometry":{"type":"Point","coordinates":[26.094480084941452,44.452353359090644]}},{"type":"Feature","properties":{"fid":763,"Pediatrie":0,"Cardiologie":0,"Contract Ecograf":0,"Contract CNAS":0,"Contract CASAOPSNAJ":1},"geometry":{"type":"Point","coordinates":[26.073163416842576,44.46201229846064]}},{"type":"Feature","properties":{"fid":764,"Pediatrie":1,"Cardiologie":1,"Contract Ecograf":0,"Contract CNAS":0,"Contract CASAOPSNAJ":1},"geometry":{"type":"Point","coordinates":[26.0799145447304,44.44968985144205]}},{"type":"Feature","properties":{"fid":765,"Pediatrie":0,"Cardiologie":0,"Contract Ecograf":0,"Contract CNAS":0,"Contract CASAOPSNAJ":1},"geometry":{"type":"Point","coordinates":[26.0746696261144,44.45437333468992]}},{"type":"Feature","properties":{"fid":766,"Pediatrie":0,"Cardiologie":0,"Contract Ecograf":0,"Contract CNAS":0,"Contract CASAOPSNAJ":1},"geometry":{"type":"Point","coordinates":[26.09194501887474,44.482286206294404]}},{"type":"Feature","properties":{"fid":818,"Pediatrie":0,"Cardiologie":1,"Contract Ecograf":0,"Contract CNAS":1,"Contract CASAOPSNAJ":0},"geometry":{"type":"Point","coordinates":[26.08178050232097,44.45410649540322]}},{"type":"Feature","properties":{"fid":849,"Pediatrie":1,"Cardiologie":1,"Contract Ecograf":0,"Contract CNAS":0,"Contract CASAOPSNAJ":1},"geometry":{"type":"Point","coordinates":[26.073026418452137,44.44259643330126]}},{"type":"Feature","properties":{"fid":850,"Pediatrie":0,"Cardiologie":1,"Contract Ecograf":0,"Contract CNAS":0,"Contract CASAOPSNAJ":1},"geometry":{"type":"Point","coordinates":[26.073170392883394,44.44219536167133]}},{"type":"Feature","properties":{"fid":851,"Pediatrie":1,"Cardiologie":1,"Contract Ecograf":0,"Contract CNAS":0,"Contract CASAOPSNAJ":1},"geometry":{"type":"Point","coordinates":[26.090879247927905,44.4551170668766]}},{"type":"Feature","properties":{"fid":852,"Pediatrie":1,"Cardiologie":1,"Contract Ecograf":0,"Contract CNAS":0,"Contract CASAOPSNAJ":1},"geometry":{"type":"Point","coordinates":[26.094794838263667,44.45500908605316]}},{"type":"Feature","properties":{"fid":855,"Pediatrie":1,"Cardiologie":1,"Contract Ecograf":1,"Contract CNAS":0,"Contract CASAOPSNAJ":1},"geometry":{"type":"Point","coordinates":[26.08552705734866,44.438269810824806]}},{"type":"Feature","properties":{"fid":856,"Pediatrie":0,"Cardiologie":0,"Contract Ecograf":0,"Contract CNAS":1,"Contract CASAOPSNAJ":0},"geometry":{"type":"Point","coordinates":[26.09591050243728,44.45306228462044]}},{"type":"Feature","properties":{"fid":858,"Pediatrie":0,"Cardiologie":0,"Contract Ecograf":0,"Contract CNAS":1,"Contract CASAOPSNAJ":0},"geometry":{"type":"Point","coordinates":[26.101876388318665,44.47791671705975]}},{"type":"Feature","properties":{"fid":860,"Pediatrie":0,"Cardiologie":0,"Contract Ecograf":0,"Contract CNAS":1,"Contract CASAOPSNAJ":0},"geometry":{"type":"Point","coordinates":[26.082197970205225,44.45515232420341]}},{"type":"Feature","properties":{"fid":861,"Pediatrie":0,"Cardiologie":0,"Contract Ecograf":0,"Contract CNAS":1,"Contract CASAOPSNAJ":0},"geometry":{"type":"Point","coordinates":[26.08366552992627,44.489427632413204]}},{"type":"Feature","properties":{"fid":864,"Pediatrie":0,"Cardiologie":0,"Contract Ecograf":0,"Contract CNAS":1,"Contract CASAOPSNAJ":0},"geometry":{"type":"Point","coordinates":[26.023070890899174,44.48761162974173]}},{"type":"Feature","properties":{"fid":867,"Pediatrie":0,"Cardiologie":0,"Contract Ecograf":0,"Contract CNAS":1,"Contract CASAOPSNAJ":0},"geometry":{"type":"Point","coordinates":[26.08552580534917,44.435602625015285]}},{"type":"Feature","properties":{"fid":868,"Pediatrie":0,"Cardiologie":0,"Contract Ecograf":0,"Contract CNAS":1,"Contract CASAOPSNAJ":0},"geometry":{"type":"Point","coordinates":[26.10019648336442,44.44860405633116]}},{"type":"Feature","properties":{"fid":893,"Pediatrie":0,"Cardiologie":0,"Contract Ecograf":0,"Contract CNAS":1,"Contract CASAOPSNAJ":0},"geometry":{"type":"Point","coordinates":[26.100239116384316,44.448608155660075]}},{"type":"Feature","properties":{"fid":894,"Pediatrie":0,"Cardiologie":0,"Contract Ecograf":0,"Contract CNAS":1,"Contract CASAOPSNAJ":0},"geometry":{"type":"Point","coordinates":[26.10030880497442,44.44860897552584]}},{"type":"Feature","properties":{"fid":911,"Pediatrie":0,"Cardiologie":0,"Contract Ecograf":0,"Contract CNAS":1,"Contract CASAOPSNAJ":0},"geometry":{"type":"Point","coordinates":[26.077789419343596,44.448944508815046]}},{"type":"Feature","properties":{"fid":912,"Pediatrie":0,"Cardiologie":0,"Contract Ecograf":0,"Contract CNAS":1,"Contract CASAOPSNAJ":0},"geometry":{"type":"Point","coordinates":[26.073141600316312,44.46201316912467]}},{"type":"Feature","properties":{"fid":922,"Pediatrie":0,"Cardiologie":0,"Contract Ecograf":0,"Contract CNAS":1,"Contract CASAOPSNAJ":0},"geometry":{"type":"Point","coordinates":[26.09744898054589,44.454760226626085]}},{"type":"Feature","properties":{"fid":924,"Pediatrie":0,"Cardiologie":0,"Contract Ecograf":0,"Contract CNAS":1,"Contract CASAOPSNAJ":0},"geometry":{"type":"Point","coordinates":[26.10215992923716,44.46491016480881]}},{"type":"Feature","properties":{"fid":929,"Pediatrie":0,"Cardiologie":0,"Contract Ecograf":0,"Contract CNAS":1,"Contract CASAOPSNAJ":0},"geometry":{"type":"Point","coordinates":[26.078788835712388,44.491527926766814]}},{"type":"Feature","properties":{"fid":943,"Pediatrie":0,"Cardiologie":0,"Contract Ecograf":0,"Contract CNAS":1,"Contract CASAOPSNAJ":0},"geometry":{"type":"Point","coordinates":[26.086846868655517,44.4798851649883]}},{"type":"Feature","properties":{"fid":961,"Pediatrie":0,"Cardiologie":0,"Contract Ecograf":0,"Contract CNAS":1,"Contract CASAOPSNAJ":0},"geometry":{"type":"Point","coordinates":[26.073690756151713,44.445170339274966]}},{"type":"Feature","properties":{"fid":971,"Pediatrie":0,"Cardiologie":0,"Contract Ecograf":0,"Contract CNAS":1,"Contract CASAOPSNAJ":0},"geometry":{"type":"Point","coordinates":[26.09225428394228,44.47941276997262]}},{"type":"Feature","properties":{"fid":972,"Pediatrie":0,"Cardiologie":0,"Contract Ecograf":0,"Contract CNAS":1,"Contract CASAOPSNAJ":0},"geometry":{"type":"Point","coordinates":[26.092769838953213,44.48202010666783]}},{"type":"Feature","properties":{"fid":974,"Pediatrie":0,"Cardiologie":0,"Contract Ecograf":0,"Contract CNAS":1,"Contract CASAOPSNAJ":0},"geometry":{"type":"Point","coordinates":[26.047181059385267,44.48204139104903]}},{"type":"Feature","properties":{"fid":975,"Pediatrie":0,"Cardiologie":0,"Contract Ecograf":0,"Contract CNAS":1,"Contract CASAOPSNAJ":0},"geometry":{"type":"Point","coordinates":[26.05200315538927,44.4833343312836]}},{"type":"Feature","properties":{"fid":978,"Pediatrie":0,"Cardiologie":0,"Contract Ecograf":0,"Contract CNAS":1,"Contract CASAOPSNAJ":0},"geometry":{"type":"Point","coordinates":[26.087191041700358,44.48041537646821]}},{"type":"Feature","properties":{"fid":981,"Pediatrie":0,"Cardiologie":0,"Contract Ecograf":0,"Contract CNAS":1,"Contract CASAOPSNAJ":0},"geometry":{"type":"Point","coordinates":[26.072107382798865,44.461314671707825]}},{"type":"Feature","properties":{"fid":983,"Pediatrie":0,"Cardiologie":0,"Contract Ecograf":0,"Contract CNAS":1,"Contract CASAOPSNAJ":0},"geometry":{"type":"Point","coordinates":[26.095370363452407,44.448187818645096]}},{"type":"Feature","properties":{"fid":984,"Pediatrie":0,"Cardiologie":0,"Contract Ecograf":0,"Contract CNAS":1,"Contract CASAOPSNAJ":0},"geometry":{"type":"Point","coordinates":[26.057140245668997,44.470028051579845]}},{"type":"Feature","properties":{"fid":986,"Pediatrie":0,"Cardiologie":0,"Contract Ecograf":0,"Contract CNAS":1,"Contract CASAOPSNAJ":0},"geometry":{"type":"Point","coordinates":[26.045219561814807,44.49095468627616]}},{"type":"Feature","properties":{"fid":989,"Pediatrie":0,"Cardiologie":0,"Contract Ecograf":0,"Contract CNAS":1,"Contract CASAOPSNAJ":0},"geometry":{"type":"Point","coordinates":[26.05787800151777,44.47064804809129]}},{"type":"Feature","properties":{"fid":996,"Pediatrie":0,"Cardiologie":0,"Contract Ecograf":0,"Contract CNAS":1,"Contract CASAOPSNAJ":0},"geometry":{"type":"Point","coordinates":[26.09845490054932,44.480051310329074]}},{"type":"Feature","properties":{"fid":1006,"Pediatrie":0,"Cardiologie":0,"Contract Ecograf":0,"Contract CNAS":1,"Contract CASAOPSNAJ":0},"geometry":{"type":"Point","coordinates":[26.08734445357041,44.43522063903261]}},{"type":"Feature","properties":{"fid":1012,"Pediatrie":0,"Cardiologie":0,"Contract Ecograf":0,"Contract CNAS":0,"Contract CASAOPSNAJ":1},"geometry":{"type":"Point","coordinates":[26.077262751682188,44.44389757176249]}},{"type":"Feature","properties":{"fid":1013,"Pediatrie":0,"Cardiologie":0,"Contract Ecograf":0,"Contract CNAS":0,"Contract CASAOPSNAJ":1},"geometry":{"type":"Point","coordinates":[26.07730532044456,44.44386209779385]}}]}
