{"type":"FeatureCollection","features":[{"type":"Feature","properties":{"fid":3,"Nume spital":"Spitalul Clinic „Sf. Maria”","Tip":"Spital public","Spitalizare continua (paturi)":295,"Spitalizare de zi (paturi)":8,"Pediatrie (paturi)":0,"Cardiologie (paturi)":14,"CPU - Compartiment Primiri Urgențe":1,"UPU - Unitate Primiri Urgențe":0,"Laborator Analize":1,"Radiologie":1,"RMN - Rezonanță Magnetică Nucleară":0,"CT - Computer Tomograf":0},"geometry":{"type":"Point","coordinates":[26.079055158278695,44.456490026427936]}},{"type":"Feature","properties":{"fid":8,"Nume spital":"Spitalul Clinic de Chirurgie Omf „Prof. Dr. Dan Theodorescu”","Tip":"Spital public","Spitalizare continua (paturi)":61,"Spitalizare de zi (paturi)":5,"Pediatrie (paturi)":0,"Cardiologie (paturi)":0,"CPU - Compartiment Primiri Urgențe":0,"UPU - Unitate Primiri Urgențe":0,"Laborator Analize":0,"Radiologie":1,"RMN - Rezonanță Magnetică Nucleară":0,"CT - Computer Tomograf":0},"geometry":{"type":"Point","coordinates":[26.085572336409875,44.43558944753507]}},{"type":"Feature","properties":{"fid":9,"Nume spital":"Spitalul Clinic „Filantropia”","Tip":"Spital public","Spitalizare continua (paturi)":193,"Spitalizare de zi (paturi)":13,"Pediatrie (paturi)":0,"Cardiologie (paturi)":0,"CPU - Compartiment Primiri Urgențe":0,"UPU - Unitate Primiri Urgențe":0,"Laborator Analize":1,"Radiologie":1,"RMN - Rezonanță Magnetică Nucleară":0,"CT - Computer Tomograf":0},"geometry":{"type":"Point","coordinates":[26.08227809538512,44.45310452997173]}},{"type":"Feature","properties":{"fid":11,"Nume spital":"Spitalul Clinic de Nefrologie „Dr. Carol Davila”","Tip":"Spital public","Spitalizare continua (paturi)":208,"Spitalizare de zi (paturi)":7,"Pediatrie (paturi)":0,"Cardiologie (paturi)":0,"CPU - Compartiment Primiri Urgențe":0,"UPU - Unitate Primiri Urgențe":0,"Laborator Analize":1,"Radiologie":1,"RMN - Rezonanță Magnetică Nucleară":0,"CT - Computer Tomograf":0},"geometry":{"type":"Point","coordinates":[26.089793528372322,44.44457417676263]}},{"type":"Feature","properties":{"fid":22,"Nume spital":"Institutul Național Pentru Sănătatea Mamei și Copilului „Prof. Dr. Alfred Rusescu”","Tip":"Spital public","Spitalizare continua (paturi)":335,"Spitalizare de zi (paturi)":5,"Pediatrie (paturi)":0,"Cardiologie (paturi)":0,"CPU - Compartiment Primiri Urgențe":0,"UPU - Unitate Primiri Urgențe":0,"Laborator Analize":1,"Radiologie":1,"RMN - Rezonanță Magnetică Nucleară":1,"CT - Computer Tomograf":0},"geometry":{"type":"Point","coordinates":[26.080664250034786,44.44714826043083]}},{"type":"Feature","properties":{"fid":23,"Nume spital":"Institutul de Endocrinologie „Prof. Dr. C. I. Parhon”","Tip":"Spital public","Spitalizare continua (paturi)":341,"Spitalizare de zi (paturi)":17,"Pediatrie (paturi)":0,"Cardiologie (paturi)":0,"CPU - Compartiment Primiri Urgențe":0,"UPU - Unitate Primiri Urgențe":0,"Laborator Analize":1,"Radiologie":1,"RMN - Rezonanță Magnetică Nucleară":0,"CT - Computer Tomograf":1},"geometry":{"type":"Point","coordinates":[26.08745238305552,44.460412240430145]}},{"type":"Feature","properties":{"fid":24,"Nume spital":"Institutul Național de Geriatrie și Gerontologie „Ana Aslan”","Tip":"Spital public","Spitalizare continua (paturi)":246,"Spitalizare de zi (paturi)":2,"Pediatrie (paturi)":0,"Cardiologie (paturi)":0,"CPU - Compartiment Primiri Urgențe":0,"UPU - Unitate Primiri Urgențe":0,"Laborator Analize":0,"Radiologie":0,"RMN - Rezonanță Magnetică Nucleară":0,"CT - Computer Tomograf":0},"geometry":{"type":"Point","coordinates":[26.074589156196936,44.45622876232997]}},{"type":"Feature","properties":{"fid":36,"Nume spital":"Spitalul Clinic de Urgență București","Tip":"Spital public","Spitalizare continua (paturi)":730,"Spitalizare de zi (paturi)":17,"Pediatrie (paturi)":0,"Cardiologie (paturi)":54,"CPU - Compartiment Primiri Urgențe":0,"UPU - Unitate Primiri Urgențe":1,"Laborator Analize":1,"Radiologie":1,"RMN - Rezonanță Magnetică Nucleară":1,"CT - Computer Tomograf":1},"geometry":{"type":"Point","coordinates":[26.101502820153506,44.4538824226216]}},{"type":"Feature","properties":{"fid":37,"Nume spital":"Spitalul Clinic de Urgență Pentru Copii „Grigore Alexandrescu”","Tip":"Spital public","Spitalizare continua (paturi)":422,"Spitalizare de zi (paturi)":12,"Pediatrie (paturi)":70,"Cardiologie (paturi)":0,"CPU - Compartiment Primiri Urgențe":0,"UPU - Unitate Primiri Urgențe":1,"Laborator Analize":1,"Radiologie":1,"RMN - Rezonanță Magnetică Nucleară":1,"CT - Computer Tomograf":1},"geometry":{"type":"Point","coordinates":[26.0918649071986,44.45194191319108]}},{"type":"Feature","properties":{"fid":38,"Nume spital":"Spitalul Clinic de Urgențe Oftalmologice","Tip":"Spital public","Spitalizare continua (paturi)":130,"Spitalizare de zi (paturi)":12,"Pediatrie (paturi)":0,"Cardiologie (paturi)":0,"CPU - Compartiment Primiri Urgențe":1,"UPU - Unitate Primiri Urgențe":0,"Laborator Analize":1,"Radiologie":0,"RMN - Rezonanță Magnetică Nucleară":0,"CT - Computer Tomograf":0},"geometry":{"type":"Point","coordinates":[26.100159929692467,44.44589516926748]}},{"type":"Feature","properties":{"fid":39,"Nume spital":"Spitalul Clinic de Urgență de Chirurgie Plastică Reparatorie și Arsuri","Tip":"Spital public","Spitalizare continua (paturi)":68,"Spitalizare de zi (paturi)":2,"Pediatrie (paturi)":0,"Cardiologie (paturi)":0,"CPU - Compartiment Primiri Urgențe":0,"UPU - Unitate Primiri Urgențe":0,"Laborator Analize":1,"Radiologie":1,"RMN - Rezonanță Magnetică Nucleară":0,"CT - Computer Tomograf":0},"geometry":{"type":"Point","coordinates":[26.05638883105434,44.46402801010281]}},{"type":"Feature","properties":{"fid":47,"Nume spital":"Spitalul Clinic CF 2 București","Tip":"Spital public","Spitalizare continua (paturi)":530,"Spitalizare de zi (paturi)":21,"Pediatrie (paturi)":25,"Cardiologie (paturi)":25,"CPU - Compartiment Primiri Urgențe":0,"UPU - Unitate Primiri Urgențe":0,"Laborator Analize":1,"Radiologie":1,"RMN - Rezonanță Magnetică Nucleară":0,"CT - Computer Tomograf":0},"geometry":{"type":"Point","coordinates":[26.07019233573757,44.47413241711953]}},{"type":"Feature","properties":{"fid":49,"Nume spital":"Spitalul Universitar de Urgență Militar Central „Dr. Carol Davila”","Tip":"Spital public","Spitalizare continua (paturi)":1255,"Spitalizare de zi (paturi)":0,"Pediatrie (paturi)":0,"Cardiologie (paturi)":90,"CPU - Compartiment Primiri Urgențe":0,"UPU - Unitate Primiri Urgențe":1,"Laborator Analize":1,"Radiologie":1,"RMN - Rezonanță Magnetică Nucleară":1,"CT - Computer Tomograf":1},"geometry":{"type":"Point","coordinates":[26.074682105792213,44.44316111196983]}},{"type":"Feature","properties":{"fid":52,"Nume spital":"Spitalul Clinic de Urgență „Prof. Dr. Agrippa Ionescu”","Tip":"Spital public","Spitalizare continua (paturi)":460,"Spitalizare de zi (paturi)":10,"Pediatrie (paturi)":0,"Cardiologie (paturi)":0,"CPU - Compartiment Primiri Urgențe":0,"UPU - Unitate Primiri Urgențe":1,"Laborator Analize":1,"Radiologie":1,"RMN - Rezonanță Magnetică Nucleară":1,"CT - Computer Tomograf":1},"geometry":{"type":"Point","coordinates":[26.079483236290052,44.458660269126376]}},{"type":"Feature","properties":{"fid":56,"Nume spital":"Spitalul Clinic Sanador","Tip":"Spital privat","Spitalizare continua (paturi)":null,"Spitalizare de zi (paturi)":null,"Pediatrie (paturi)":null,"Cardiologie (paturi)":null,"CPU - Compartiment Primiri Urgențe":1,"UPU - Unitate Primiri Urgențe":null,"Laborator Analize":1,"Radiologie":1,"RMN - Rezonanță Magnetică Nucleară":1,"CT - Computer Tomograf":1},"geometry":{"type":"Point","coordinates":[26.084393699462655,44.449608989498714]}},{"type":"Feature","properties":{"fid":60,"Nume spital":"Spitalul Universitar de Urgență „Elias” București","Tip":"Spital public","Spitalizare continua (paturi)":726,"Spitalizare de zi (paturi)":40,"Pediatrie (paturi)":44,"Cardiologie (paturi)":46,"CPU - Compartiment Primiri Urgențe":0,"UPU - Unitate Primiri Urgențe":1,"Laborator Analize":1,"Radiologie":1,"RMN - Rezonanță Magnetică Nucleară":0,"CT - Computer Tomograf":1},"geometry":{"type":"Point","coordinates":[26.073698598114646,44.46616030011816]}},{"type":"Feature","properties":{"fid":62,"Nume spital":"Institutul Național de Recuperare, Medicină Fizică și Balneoclimatologie","Tip":"Spital public","Spitalizare continua (paturi)":115,"Spitalizare de zi (paturi)":20,"Pediatrie (paturi)":0,"Cardiologie (paturi)":0,"CPU - Compartiment Primiri Urgențe":0,"UPU - Unitate Primiri Urgențe":0,"Laborator Analize":0,"Radiologie":1,"RMN - Rezonanță Magnetică Nucleară":0,"CT - Computer Tomograf":0},"geometry":{"type":"Point","coordinates":[26.08183142980881,44.45410277428907]}},{"type":"Feature","properties":{"fid":68,"Nume spital":"M Hospital (Creștină Medicală Munposan 94 S.R.L.)","Tip":"Spital privat","Spitalizare continua (paturi)":null,"Spitalizare de zi (paturi)":null,"Pediatrie (paturi)":null,"Cardiologie (paturi)":null,"CPU - Compartiment Primiri Urgențe":null,"UPU - Unitate Primiri Urgențe":null,"Laborator Analize":1,"Radiologie":1,"RMN - Rezonanță Magnetică Nucleară":null,"CT - Computer Tomograf":1},"geometry":{"type":"Point","coordinates":[26.073132168309826,44.4443121911745]}},{"type":"Feature","properties":{"fid":69,"Nume spital":"Regina Maria - Euroclinic (Euroclinic Hospital S.A.)","Tip":"Spital privat","Spitalizare continua (paturi)":null,"Spitalizare de zi (paturi)":null,"Pediatrie (paturi)":null,"Cardiologie (paturi)":null,"CPU - Compartiment Primiri Urgențe":null,"UPU - Unitate Primiri Urgențe":null,"Laborator Analize":null,"Radiologie":null,"RMN - Rezonanță Magnetică Nucleară":null,"CT - Computer Tomograf":null},"geometry":{"type":"Point","coordinates":[26.10104246474737,44.45452724909034]}},{"type":"Feature","properties":{"fid":70,"Nume spital":"Regina Maria - Ponderas Academic Hospital (S.C. Delta Health)","Tip":"Spital privat","Spitalizare continua (paturi)":null,"Spitalizare de zi (paturi)":null,"Pediatrie (paturi)":null,"Cardiologie (paturi)":null,"CPU - Compartiment Primiri Urgențe":null,"UPU - Unitate Primiri Urgențe":null,"Laborator Analize":null,"Radiologie":null,"RMN - Rezonanță Magnetică Nucleară":null,"CT - Computer Tomograf":null},"geometry":{"type":"Point","coordinates":[26.091828562468187,44.483422494353746]}},{"type":"Feature","properties":{"fid":71,"Nume spital":"Regina Maria - Spitalul Băneasa (S.C. Centrul Medical Unirea S.R.L.)","Tip":"Spital privat","Spitalizare continua (paturi)":null,"Spitalizare de zi (paturi)":null,"Pediatrie (paturi)":null,"Cardiologie (paturi)":null,"CPU - Compartiment Primiri Urgențe":null,"UPU - Unitate Primiri Urgențe":null,"Laborator Analize":null,"Radiologie":null,"RMN - Rezonanță Magnetică Nucleară":null,"CT - Computer Tomograf":null},"geometry":{"type":"Point","coordinates":[26.072236869643,44.49606844692541]}},{"type":"Feature","properties":{"fid":72,"Nume spital":"Med Life - Life Memorial Hospital București (S.C. Med Life S.A.)","Tip":"Spital privat","Spitalizare continua (paturi)":null,"Spitalizare de zi (paturi)":null,"Pediatrie (paturi)":null,"Cardiologie (paturi)":null,"CPU - Compartiment Primiri Urgențe":null,"UPU - Unitate Primiri Urgențe":null,"Laborator Analize":null,"Radiologie":null,"RMN - Rezonanță Magnetică Nucleară":null,"CT - Computer Tomograf":null},"geometry":{"type":"Point","coordinates":[26.05419276451327,44.465271766174176]}},{"type":"Feature","properties":{"fid":73,"Nume spital":"Med Life - Spitalul de Pediatrie (S.C. Medlife S.A. București)","Tip":"Spital privat","Spitalizare continua (paturi)":null,"Spitalizare de zi (paturi)":null,"Pediatrie (paturi)":null,"Cardiologie (paturi)":null,"CPU - Compartiment Primiri Urgențe":null,"UPU - Unitate Primiri Urgențe":null,"Laborator Analize":null,"Radiologie":null,"RMN - Rezonanță Magnetică Nucleară":null,"CT - Computer Tomograf":null},"geometry":{"type":"Point","coordinates":[26.094148665013208,44.477288311242354]}},{"type":"Feature","properties":{"fid":87,"Nume spital":"Maternitatea Medicover (medicover Hospitals S.R.L.)","Tip":"Spital privat","Spitalizare continua (paturi)":null,"Spitalizare de zi (paturi)":null,"Pediatrie (paturi)":null,"Cardiologie (paturi)":null,"CPU - Compartiment Primiri Urgențe":null,"UPU - Unitate Primiri Urgențe":null,"Laborator Analize":null,"Radiologie":null,"RMN - Rezonanță Magnetică Nucleară":null,"CT - Computer Tomograf":null},"geometry":{"type":"Point","coordinates":[26.09177212637567,44.48990031678196]}},{"type":"Feature","properties":{"fid":90,"Nume spital":"Clinica Pediatrie Medicover (Medicover S.R.L.)","Tip":"Spital privat","Spitalizare continua (paturi)":null,"Spitalizare de zi (paturi)":null,"Pediatrie (paturi)":null,"Cardiologie (paturi)":null,"CPU - Compartiment Primiri Urgențe":null,"UPU - Unitate Primiri Urgențe":null,"Laborator Analize":null,"Radiologie":null,"RMN - Rezonanță Magnetică Nucleară":null,"CT - Computer Tomograf":null},"geometry":{"type":"Point","coordinates":[26.090255234634526,44.45089569973863]}},{"type":"Feature","properties":{"fid":92,"Nume spital":"Laurus Medical S.R.L.","Tip":"Spital privat","Spitalizare continua (paturi)":null,"Spitalizare de zi (paturi)":null,"Pediatrie (paturi)":null,"Cardiologie (paturi)":null,"CPU - Compartiment Primiri Urgențe":null,"UPU - Unitate Primiri Urgențe":null,"Laborator Analize":null,"Radiologie":null,"RMN - Rezonanță Magnetică Nucleară":null,"CT - Computer Tomograf":null},"geometry":{"type":"Point","coordinates":[26.092208264726146,44.48015685344662]}},{"type":"Feature","properties":{"fid":94,"Nume spital":"Imunoclass S.R.L.","Tip":"Spital privat","Spitalizare continua (paturi)":null,"Spitalizare de zi (paturi)":null,"Pediatrie (paturi)":null,"Cardiologie (paturi)":null,"CPU - Compartiment Primiri Urgențe":null,"UPU - Unitate Primiri Urgențe":null,"Laborator Analize":null,"Radiologie":null,"RMN - Rezonanță Magnetică Nucleară":null,"CT - Computer Tomograf":null},"geometry":{"type":"Point","coordinates":[26.079140741185526,44.44283323034989]}},{"type":"Feature","properties":{"fid":95,"Nume spital":"Centrul Medical Overmed S.R.L.","Tip":"Spital privat","Spitalizare continua (paturi)":null,"Spitalizare de zi (paturi)":6,"Pediatrie (paturi)":null,"Cardiologie (paturi)":null,"CPU - Compartiment Primiri Urgențe":null,"UPU - Unitate Primiri Urgențe":null,"Laborator Analize":null,"Radiologie":null,"RMN - Rezonanță Magnetică Nucleară":null,"CT - Computer Tomograf":null},"geometry":{"type":"Point","coordinates":[26.099139155405016,44.45957872964644]}},{"type":"Feature","properties":{"fid":96,"Nume spital":"Nutrilife S.R.L.","Tip":"Spital privat","Spitalizare continua (paturi)":null,"Spitalizare de zi (paturi)":null,"Pediatrie (paturi)":null,"Cardiologie (paturi)":null,"CPU - Compartiment Primiri Urgențe":null,"UPU - Unitate Primiri Urgențe":null,"Laborator Analize":null,"Radiologie":null,"RMN - Rezonanță Magnetică Nucleară":null,"CT - Computer Tomograf":null},"geometry":{"type":"Point","coordinates":[26.077843837116788,44.49110832713256]}},{"type":"Feature","properties":{"fid":97,"Nume spital":"Spital Wellborn Băneasa (Promed System S.R.L.)","Tip":"Spital privat","Spitalizare continua (paturi)":null,"Spitalizare de zi (paturi)":null,"Pediatrie (paturi)":null,"Cardiologie (paturi)":null,"CPU - Compartiment Primiri Urgențe":null,"UPU - Unitate Primiri Urgențe":null,"Laborator Analize":null,"Radiologie":null,"RMN - Rezonanță Magnetică Nucleară":null,"CT - Computer Tomograf":null},"geometry":{"type":"Point","coordinates":[26.07382266710488,44.49666631215988]}},{"type":"Feature","properties":{"fid":99,"Nume spital":"Neolife (MNT Healthcare Europe S.R.L.)","Tip":"Spital privat","Spitalizare continua (paturi)":null,"Spitalizare de zi (paturi)":null,"Pediatrie (paturi)":null,"Cardiologie (paturi)":null,"CPU - Compartiment Primiri Urgențe":null,"UPU - Unitate Primiri Urgențe":null,"Laborator Analize":null,"Radiologie":null,"RMN - Rezonanță Magnetică Nucleară":null,"CT - Computer Tomograf":null},"geometry":{"type":"Point","coordinates":[26.08585548118632,44.49301518076812]}},{"type":"Feature","properties":{"fid":100,"Nume spital":"Neolife (MNT Healthcare Europe S.R.L.)","Tip":"Spital privat","Spitalizare continua (paturi)":null,"Spitalizare de zi (paturi)":null,"Pediatrie (paturi)":null,"Cardiologie (paturi)":null,"CPU - Compartiment Primiri Urgențe":null,"UPU - Unitate Primiri Urgențe":null,"Laborator Analize":null,"Radiologie":null,"RMN - Rezonanță Magnetică Nucleară":null,"CT - Computer Tomograf":null},"geometry":{"type":"Point","coordinates":[26.068097871629934,44.501371756014976]}},{"type":"Feature","properties":{"fid":107,"Nume spital":"Victoria Medical Center S.R.L.","Tip":"Spital privat","Spitalizare continua (paturi)":null,"Spitalizare de zi (paturi)":null,"Pediatrie (paturi)":null,"Cardiologie (paturi)":null,"CPU - Compartiment Primiri Urgențe":null,"UPU - Unitate Primiri Urgențe":null,"Laborator Analize":null,"Radiologie":null,"RMN - Rezonanță Magnetică Nucleară":null,"CT - Computer Tomograf":null},"geometry":{"type":"Point","coordinates":[26.080413983789686,44.45340415163123]}},{"type":"Feature","properties":{"fid":108,"Nume spital":"Lotus Med S.R.L.","Tip":"Spital privat","Spitalizare continua (paturi)":null,"Spitalizare de zi (paturi)":null,"Pediatrie (paturi)":null,"Cardiologie (paturi)":null,"CPU - Compartiment Primiri Urgențe":null,"UPU - Unitate Primiri Urgențe":null,"Laborator Analize":null,"Radiologie":null,"RMN - Rezonanță Magnetică Nucleară":null,"CT - Computer Tomograf":null},"geometry":{"type":"Point","coordinates":[26.048517050289366,44.47172194146514]}},{"type":"Feature","properties":{"fid":110,"Nume spital":"Infosan - Spital de Oftalmologie","Tip":"Spital privat","Spitalizare continua (paturi)":null,"Spitalizare de zi (paturi)":null,"Pediatrie (paturi)":null,"Cardiologie (paturi)":null,"CPU - Compartiment Primiri Urgențe":null,"UPU - Unitate Primiri Urgențe":null,"Laborator Analize":null,"Radiologie":null,"RMN - Rezonanță Magnetică Nucleară":null,"CT - Computer Tomograf":null},"geometry":{"type":"Point","coordinates":[26.099756271985864,44.45077929034608]}},{"type":"Feature","properties":{"fid":111,"Nume spital":"Clinica Nord Alexandrina (Medical City Blue S.R.L.)","Tip":"Spital privat","Spitalizare continua (paturi)":null,"Spitalizare de zi (paturi)":null,"Pediatrie (paturi)":null,"Cardiologie (paturi)":null,"CPU - Compartiment Primiri Urgențe":null,"UPU - Unitate Primiri Urgențe":null,"Laborator Analize":null,"Radiologie":null,"RMN - Rezonanță Magnetică Nucleară":null,"CT - Computer Tomograf":null},"geometry":{"type":"Point","coordinates":[26.0833518424147,44.464704772017996]}},{"type":"Feature","properties":{"fid":114,"Nume spital":"Enayati Hospital (Revera Assisted S.R.L.)","Tip":"Spital privat","Spitalizare continua (paturi)":null,"Spitalizare de zi (paturi)":null,"Pediatrie (paturi)":null,"Cardiologie (paturi)":null,"CPU - Compartiment Primiri Urgențe":null,"UPU - Unitate Primiri Urgențe":null,"Laborator Analize":null,"Radiologie":null,"RMN - Rezonanță Magnetică Nucleară":null,"CT - Computer Tomograf":null},"geometry":{"type":"Point","coordinates":[26.068361984737045,44.501150541151624]}},{"type":"Feature","properties":{"fid":117,"Nume spital":"Imunomedica Provița S.R.L.","Tip":"Spital privat","Spitalizare continua (paturi)":null,"Spitalizare de zi (paturi)":null,"Pediatrie (paturi)":null,"Cardiologie (paturi)":null,"CPU - Compartiment Primiri Urgențe":null,"UPU - Unitate Primiri Urgențe":null,"Laborator Analize":null,"Radiologie":null,"RMN - Rezonanță Magnetică Nucleară":null,"CT - Computer Tomograf":null},"geometry":{"type":"Point","coordinates":[26.076660124379757,44.439053165221765]}},{"type":"Feature","properties":{"fid":118,"Nume spital":"Spitalul de Oncologie Monza","Tip":"Spital privat","Spitalizare continua (paturi)":null,"Spitalizare de zi (paturi)":null,"Pediatrie (paturi)":null,"Cardiologie (paturi)":null,"CPU - Compartiment Primiri Urgențe":null,"UPU - Unitate Primiri Urgențe":null,"Laborator Analize":null,"Radiologie":null,"RMN - Rezonanță Magnetică Nucleară":null,"CT - Computer Tomograf":null},"geometry":{"type":"Point","coordinates":[26.068495000538935,44.50137677324781]}},{"type":"Feature","properties":{"fid":122,"Nume spital":"Estet ORL S.R.L.","Tip":"Spital privat","Spitalizare continua (paturi)":null,"Spitalizare de zi (paturi)":null,"Pediatrie (paturi)":null,"Cardiologie (paturi)":null,"CPU - Compartiment Primiri Urgențe":null,"UPU - Unitate Primiri Urgențe":null,"Laborator Analize":null,"Radiologie":null,"RMN - Rezonanță Magnetică Nucleară":null,"CT - Computer Tomograf":null},"geometry":{"type":"Point","coordinates":[26.043846149245024,44.48068020218257]}},{"type":"Feature","properties":{"fid":124,"Nume spital":"Genesys Fertility Center S.R.L.","Tip":"Spital privat","Spitalizare continua (paturi)":null,"Spitalizare de zi (paturi)":null,"Pediatrie (paturi)":null,"Cardiologie (paturi)":null,"CPU - Compartiment Primiri Urgențe":null,"UPU - Unitate Primiri Urgențe":null,"Laborator Analize":null,"Radiologie":null,"RMN - Rezonanță Magnetică Nucleară":null,"CT - Computer Tomograf":null},"geometry":{"type":"Point","coordinates":[26.070229321956198,44.467704149284316]}},{"type":"Feature","properties":{"fid":125,"Nume spital":"Dr. Marek Valcu Clinica Silhouette S.R.L.","Tip":"Spital privat","Spitalizare continua (paturi)":null,"Spitalizare de zi (paturi)":null,"Pediatrie (paturi)":null,"Cardiologie (paturi)":null,"CPU - Compartiment Primiri Urgențe":null,"UPU - Unitate Primiri Urgențe":null,"Laborator Analize":null,"Radiologie":null,"RMN - Rezonanță Magnetică Nucleară":null,"CT - Computer Tomograf":null},"geometry":{"type":"Point","coordinates":[26.095980669608277,44.4609046701435]}},{"type":"Feature","properties":{"fid":128,"Nume spital":"Arca Health Services S.R.L.","Tip":"Spital privat","Spitalizare continua (paturi)":null,"Spitalizare de zi (paturi)":null,"Pediatrie (paturi)":null,"Cardiologie (paturi)":null,"CPU - Compartiment Primiri Urgențe":null,"UPU - Unitate Primiri Urgențe":null,"Laborator Analize":null,"Radiologie":null,"RMN - Rezonanță Magnetică Nucleară":null,"CT - Computer Tomograf":null},"geometry":{"type":"Point","coordinates":[26.053118885436394,44.48494073413514]}},{"type":"Feature","properties":{"fid":132,"Nume spital":"Centrul Medical Nordestetica S.R.L.","Tip":"Spital privat","Spitalizare continua (paturi)":null,"Spitalizare de zi (paturi)":null,"Pediatrie (paturi)":null,"Cardiologie (paturi)":null,"CPU - Compartiment Primiri Urgențe":null,"UPU - Unitate Primiri Urgențe":null,"Laborator Analize":null,"Radiologie":null,"RMN - Rezonanță Magnetică Nucleară":null,"CT - Computer Tomograf":null},"geometry":{"type":"Point","coordinates":[26.057655491680638,44.46549524975908]}},{"type":"Feature","properties":{"fid":136,"Nume spital":"Centrul Medical Medicum S.R.L.","Tip":"Spital privat","Spitalizare continua (paturi)":null,"Spitalizare de zi (paturi)":null,"Pediatrie (paturi)":null,"Cardiologie (paturi)":null,"CPU - Compartiment Primiri Urgențe":null,"UPU - Unitate Primiri Urgențe":null,"Laborator Analize":null,"Radiologie":null,"RMN - Rezonanță Magnetică Nucleară":null,"CT - Computer Tomograf":null},"geometry":{"type":"Point","coordinates":[26.101242467772586,44.46568876000011]}},{"type":"Feature","properties":{"fid":138,"Nume spital":"Centrul Medical Internațional Bucureşti S.R.L.","Tip":"Spital privat","Spitalizare continua (paturi)":null,"Spitalizare de zi (paturi)":null,"Pediatrie (paturi)":null,"Cardiologie (paturi)":null,"CPU - Compartiment Primiri Urgențe":null,"UPU - Unitate Primiri Urgențe":null,"Laborator Analize":null,"Radiologie":null,"RMN - Rezonanță Magnetică Nucleară":null,"CT - Computer Tomograf":null},"geometry":{"type":"Point","coordinates":[26.09092606913535,44.46965922945836]}},{"type":"Feature","properties":{"fid":141,"Nume spital":"Arensia Clinics S.R.L.","Tip":"Spital privat","Spitalizare continua (paturi)":null,"Spitalizare de zi (paturi)":null,"Pediatrie (paturi)":null,"Cardiologie (paturi)":null,"CPU - Compartiment Primiri Urgențe":null,"UPU - Unitate Primiri Urgențe":null,"Laborator Analize":null,"Radiologie":null,"RMN - Rezonanță Magnetică Nucleară":null,"CT - Computer Tomograf":null},"geometry":{"type":"Point","coordinates":[26.098112759433214,44.459594705011106]}},{"type":"Feature","properties":{"fid":142,"Nume spital":"Anna Clinics S.R.L.","Tip":"Spital privat","Spitalizare continua (paturi)":null,"Spitalizare de zi (paturi)":null,"Pediatrie (paturi)":null,"Cardiologie (paturi)":null,"CPU - Compartiment Primiri Urgențe":null,"UPU - Unitate Primiri Urgențe":null,"Laborator Analize":null,"Radiologie":null,"RMN - Rezonanță Magnetică Nucleară":null,"CT - Computer Tomograf":null},"geometry":{"type":"Point","coordinates":[26.09409414741759,44.44896327379327]}},{"type":"Feature","properties":{"fid":143,"Nume spital":"Clinica Medical Service S.A.","Tip":"Spital privat","Spitalizare continua (paturi)":null,"Spitalizare de zi (paturi)":null,"Pediatrie (paturi)":null,"Cardiologie (paturi)":null,"CPU - Compartiment Primiri Urgențe":null,"UPU - Unitate Primiri Urgențe":null,"Laborator Analize":null,"Radiologie":null,"RMN - Rezonanță Magnetică Nucleară":null,"CT - Computer Tomograf":null},"geometry":{"type":"Point","coordinates":[26.088245289127485,44.48475550008529]}},{"type":"Feature","properties":{"fid":146,"Nume spital":"Fresenius Nephrocare România S.R.L.","Tip":"Spital privat","Spitalizare continua (paturi)":null,"Spitalizare de zi (paturi)":null,"Pediatrie (paturi)":null,"Cardiologie (paturi)":null,"CPU - Compartiment Primiri Urgențe":null,"UPU - Unitate Primiri Urgențe":null,"Laborator Analize":null,"Radiologie":null,"RMN - Rezonanță Magnetică Nucleară":null,"CT - Computer Tomograf":null},"geometry":{"type":"Point","coordinates":[26.05463066118508,44.484638701958445]}}]}
