{"type":"FeatureCollection","features":[{"type":"Feature","properties":{"fid":1,"Contract Ecograf":0,"Contract CNAS":1,"Contract CASAOPSNAJ":0},"geometry":{"type":"Point","coordinates":[26.100244925495584,44.44879426677132]}},{"type":"Feature","properties":{"fid":10,"Contract Ecograf":0,"Contract CNAS":1,"Contract CASAOPSNAJ":0},"geometry":{"type":"Point","coordinates":[26.087531119328712,44.43752939921595]}},{"type":"Feature","properties":{"fid":26,"Contract Ecograf":0,"Contract CNAS":1,"Contract CASAOPSNAJ":0},"geometry":{"type":"Point","coordinates":[26.05220474446089,44.470318915703665]}},{"type":"Feature","properties":{"fid":54,"Contract Ecograf":0,"Contract CNAS":1,"Contract CASAOPSNAJ":0},"geometry":{"type":"Point","coordinates":[26.09192946199019,44.483519509710746]}},{"type":"Feature","properties":{"fid":63,"Contract Ecograf":0,"Contract CNAS":1,"Contract CASAOPSNAJ":0},"geometry":{"type":"Point","coordinates":[26.04387903449998,44.480732398292034]}},{"type":"Feature","properties":{"fid":67,"Contract Ecograf":0,"Contract CNAS":1,"Contract CASAOPSNAJ":0},"geometry":{"type":"Point","coordinates":[26.0980524990303,44.45368664817547]}},{"type":"Feature","properties":{"fid":73,"Contract Ecograf":0,"Contract CNAS":1,"Contract CASAOPSNAJ":0},"geometry":{"type":"Point","coordinates":[26.053340079150416,44.483295155342034]}},{"type":"Feature","properties":{"fid":77,"Contract Ecograf":0,"Contract CNAS":1,"Contract CASAOPSNAJ":0},"geometry":{"type":"Point","coordinates":[26.040054702909266,44.48558470612362]}},{"type":"Feature","properties":{"fid":79,"Contract Ecograf":0,"Contract CNAS":1,"Contract CASAOPSNAJ":0},"geometry":{"type":"Point","coordinates":[26.077846112121936,44.44905851334171]}},{"type":"Feature","properties":{"fid":85,"Contract Ecograf":0,"Contract CNAS":1,"Contract CASAOPSNAJ":0},"geometry":{"type":"Point","coordinates":[26.052227546400392,44.470348204883486]}},{"type":"Feature","properties":{"fid":95,"Contract Ecograf":0,"Contract CNAS":1,"Contract CASAOPSNAJ":0},"geometry":{"type":"Point","coordinates":[26.077875087376853,44.44907903829322]}},{"type":"Feature","properties":{"fid":99,"Contract Ecograf":0,"Contract CNAS":1,"Contract CASAOPSNAJ":0},"geometry":{"type":"Point","coordinates":[26.10024859278055,44.44876612338468]}},{"type":"Feature","properties":{"fid":124,"Contract Ecograf":0,"Contract CNAS":1,"Contract CASAOPSNAJ":0},"geometry":{"type":"Point","coordinates":[26.100269221258497,44.44882535538035]}},{"type":"Feature","properties":{"fid":139,"Contract Ecograf":0,"Contract CNAS":1,"Contract CASAOPSNAJ":0},"geometry":{"type":"Point","coordinates":[26.07298975410103,44.46214587818794]}},{"type":"Feature","properties":{"fid":140,"Contract Ecograf":0,"Contract CNAS":1,"Contract CASAOPSNAJ":0},"geometry":{"type":"Point","coordinates":[26.10027655582844,44.44874550670911]}},{"type":"Feature","properties":{"fid":142,"Contract Ecograf":0,"Contract CNAS":1,"Contract CASAOPSNAJ":0},"geometry":{"type":"Point","coordinates":[26.0908618435389,44.44406409586247]}},{"type":"Feature","properties":{"fid":144,"Contract Ecograf":0,"Contract CNAS":1,"Contract CASAOPSNAJ":0},"geometry":{"type":"Point","coordinates":[26.073050277337543,44.46213435918866]}},{"type":"Feature","properties":{"fid":158,"Contract Ecograf":0,"Contract CNAS":1,"Contract CASAOPSNAJ":0},"geometry":{"type":"Point","coordinates":[26.033539566719302,44.48115662836717]}},{"type":"Feature","properties":{"fid":163,"Contract Ecograf":0,"Contract CNAS":1,"Contract CASAOPSNAJ":0},"geometry":{"type":"Point","coordinates":[26.08757444301376,44.43747892837478]}},{"type":"Feature","properties":{"fid":166,"Contract Ecograf":0,"Contract CNAS":1,"Contract CASAOPSNAJ":0},"geometry":{"type":"Point","coordinates":[26.080567477706296,44.44751194292182]}},{"type":"Feature","properties":{"fid":168,"Contract Ecograf":0,"Contract CNAS":1,"Contract CASAOPSNAJ":0},"geometry":{"type":"Point","coordinates":[26.100214211983975,44.44880833845957]}},{"type":"Feature","properties":{"fid":176,"Contract Ecograf":0,"Contract CNAS":1,"Contract CASAOPSNAJ":0},"geometry":{"type":"Point","coordinates":[26.073032120366587,44.46215739718497]}},{"type":"Feature","properties":{"fid":177,"Contract Ecograf":0,"Contract CNAS":1,"Contract CASAOPSNAJ":0},"geometry":{"type":"Point","coordinates":[26.090798742748962,44.44406409586247]}},{"type":"Feature","properties":{"fid":190,"Contract Ecograf":0,"Contract CNAS":1,"Contract CASAOPSNAJ":0},"geometry":{"type":"Point","coordinates":[26.090870074076722,44.44409151748774]}},{"type":"Feature","properties":{"fid":191,"Contract Ecograf":0,"Contract CNAS":1,"Contract CASAOPSNAJ":0},"geometry":{"type":"Point","coordinates":[26.05218650290929,44.47038074839939]}},{"type":"Feature","properties":{"fid":194,"Contract Ecograf":0,"Contract CNAS":1,"Contract CASAOPSNAJ":0},"geometry":{"type":"Point","coordinates":[26.04001821980607,44.48559772013343]}},{"type":"Feature","properties":{"fid":200,"Contract Ecograf":0,"Contract CNAS":1,"Contract CASAOPSNAJ":0},"geometry":{"type":"Point","coordinates":[26.09667144055864,44.48750078239413]}},{"type":"Feature","properties":{"fid":203,"Contract Ecograf":0,"Contract CNAS":1,"Contract CASAOPSNAJ":0},"geometry":{"type":"Point","coordinates":[26.073038172690243,44.46210988130762]}},{"type":"Feature","properties":{"fid":213,"Contract Ecograf":0,"Contract CNAS":1,"Contract CASAOPSNAJ":0},"geometry":{"type":"Point","coordinates":[26.072993788983464,44.462119960436354]}},{"type":"Feature","properties":{"fid":216,"Contract Ecograf":0,"Contract CNAS":1,"Contract CASAOPSNAJ":0},"geometry":{"type":"Point","coordinates":[26.09126810144771,44.45082857948488]}},{"type":"Feature","properties":{"fid":227,"Contract Ecograf":0,"Contract CNAS":1,"Contract CASAOPSNAJ":0},"geometry":{"type":"Point","coordinates":[26.073060364543625,44.46211852056093]}},{"type":"Feature","properties":{"fid":230,"Contract Ecograf":0,"Contract CNAS":1,"Contract CASAOPSNAJ":0},"geometry":{"type":"Point","coordinates":[26.08762004689276,44.43751963066945]}},{"type":"Feature","properties":{"fid":231,"Contract Ecograf":0,"Contract CNAS":1,"Contract CASAOPSNAJ":0},"geometry":{"type":"Point","coordinates":[26.07781360623589,44.44903683661237]}},{"type":"Feature","properties":{"fid":239,"Contract Ecograf":0,"Contract CNAS":1,"Contract CASAOPSNAJ":0},"geometry":{"type":"Point","coordinates":[26.08268562908006,44.437096424732566]}},{"type":"Feature","properties":{"fid":241,"Contract Ecograf":0,"Contract CNAS":1,"Contract CASAOPSNAJ":0},"geometry":{"type":"Point","coordinates":[26.05216826135769,44.470289626509135]}},{"type":"Feature","properties":{"fid":243,"Contract Ecograf":0,"Contract CNAS":1,"Contract CASAOPSNAJ":0},"geometry":{"type":"Point","coordinates":[26.082683264420794,44.43706941011994]}},{"type":"Feature","properties":{"fid":252,"Contract Ecograf":0,"Contract CNAS":1,"Contract CASAOPSNAJ":0},"geometry":{"type":"Point","coordinates":[26.073076504073367,44.46213723893869]}},{"type":"Feature","properties":{"fid":253,"Contract Ecograf":0,"Contract CNAS":1,"Contract CASAOPSNAJ":0},"geometry":{"type":"Point","coordinates":[26.077870358058316,44.44903683661237]}},{"type":"Feature","properties":{"fid":256,"Contract Ecograf":0,"Contract CNAS":1,"Contract CASAOPSNAJ":0},"geometry":{"type":"Point","coordinates":[26.100203210129067,44.44872456277727]}},{"type":"Feature","properties":{"fid":257,"Contract Ecograf":0,"Contract CNAS":1,"Contract CASAOPSNAJ":0},"geometry":{"type":"Point","coordinates":[26.073009928513205,44.4621026819289]}},{"type":"Feature","properties":{"fid":269,"Contract Ecograf":0,"Contract CNAS":1,"Contract CASAOPSNAJ":0},"geometry":{"type":"Point","coordinates":[26.048553249841337,44.471749089851315]}},{"type":"Feature","properties":{"fid":281,"Contract Ecograf":0,"Contract CNAS":1,"Contract CASAOPSNAJ":0},"geometry":{"type":"Point","coordinates":[26.040059263297167,44.48561561439218]}},{"type":"Feature","properties":{"fid":290,"Contract Ecograf":0,"Contract CNAS":1,"Contract CASAOPSNAJ":0},"geometry":{"type":"Point","coordinates":[26.087512877777115,44.4375082340298]}},{"type":"Feature","properties":{"fid":301,"Contract Ecograf":0,"Contract CNAS":1,"Contract CASAOPSNAJ":0},"geometry":{"type":"Point","coordinates":[26.10021650403708,44.44877201386207]}},{"type":"Feature","properties":{"fid":302,"Contract Ecograf":0,"Contract CNAS":1,"Contract CASAOPSNAJ":0},"geometry":{"type":"Point","coordinates":[26.055474460221987,44.46943087397735]}},{"type":"Feature","properties":{"fid":303,"Contract Ecograf":0,"Contract CNAS":1,"Contract CASAOPSNAJ":0},"geometry":{"type":"Point","coordinates":[26.099784881537236,44.45412906811909]}},{"type":"Feature","properties":{"fid":309,"Contract Ecograf":0,"Contract CNAS":1,"Contract CASAOPSNAJ":0},"geometry":{"type":"Point","coordinates":[26.087869952693787,44.46594008610641]}},{"type":"Feature","properties":{"fid":310,"Contract Ecograf":0,"Contract CNAS":1,"Contract CASAOPSNAJ":0},"geometry":{"type":"Point","coordinates":[26.074353409667125,44.497004912914875]}},{"type":"Feature","properties":{"fid":311,"Contract Ecograf":0,"Contract CNAS":1,"Contract CASAOPSNAJ":0},"geometry":{"type":"Point","coordinates":[26.074296657844695,44.49703189980339]}},{"type":"Feature","properties":{"fid":314,"Contract Ecograf":0,"Contract CNAS":1,"Contract CASAOPSNAJ":0},"geometry":{"type":"Point","coordinates":[26.096755700000074,44.44276060000004]}},{"type":"Feature","properties":{"fid":319,"Contract Ecograf":0,"Contract CNAS":1,"Contract CASAOPSNAJ":0},"geometry":{"type":"Point","coordinates":[26.074320304437375,44.49697117928667]}},{"type":"Feature","properties":{"fid":320,"Contract Ecograf":0,"Contract CNAS":1,"Contract CASAOPSNAJ":0},"geometry":{"type":"Point","coordinates":[26.096967,44.442854]}},{"type":"Feature","properties":{"fid":323,"Contract Ecograf":0,"Contract CNAS":1,"Contract CASAOPSNAJ":0},"geometry":{"type":"Point","coordinates":[26.08765881018991,44.437483812651635]}},{"type":"Feature","properties":{"fid":326,"Contract Ecograf":0,"Contract CNAS":1,"Contract CASAOPSNAJ":0},"geometry":{"type":"Point","coordinates":[26.07964275785657,44.49040271000326]}},{"type":"Feature","properties":{"fid":327,"Contract Ecograf":0,"Contract CNAS":1,"Contract CASAOPSNAJ":0},"geometry":{"type":"Point","coordinates":[26.079666404449245,44.49049717475231]}},{"type":"Feature","properties":{"fid":328,"Contract Ecograf":0,"Contract CNAS":1,"Contract CASAOPSNAJ":0},"geometry":{"type":"Point","coordinates":[26.05428109778236,44.46508620232083]}},{"type":"Feature","properties":{"fid":329,"Contract Ecograf":0,"Contract CNAS":1,"Contract CASAOPSNAJ":0},"geometry":{"type":"Point","coordinates":[26.054394601427223,44.465032198969986]}},{"type":"Feature","properties":{"fid":340,"Contract Ecograf":0,"Contract CNAS":1,"Contract CASAOPSNAJ":0},"geometry":{"type":"Point","coordinates":[26.075938330111022,44.451642880117646]}},{"type":"Feature","properties":{"fid":341,"Contract Ecograf":0,"Contract CNAS":1,"Contract CASAOPSNAJ":0},"geometry":{"type":"Point","coordinates":[26.062501304833575,44.46233873299417]}},{"type":"Feature","properties":{"fid":347,"Contract Ecograf":0,"Contract CNAS":1,"Contract CASAOPSNAJ":0},"geometry":{"type":"Point","coordinates":[26.052090734763393,44.47028637215329]}},{"type":"Feature","properties":{"fid":355,"Contract Ecograf":0,"Contract CNAS":1,"Contract CASAOPSNAJ":0},"geometry":{"type":"Point","coordinates":[26.100245383906206,44.448744852211355]}},{"type":"Feature","properties":{"fid":360,"Contract Ecograf":0,"Contract CNAS":1,"Contract CASAOPSNAJ":0},"geometry":{"type":"Point","coordinates":[26.040091186012464,44.48559609338237]}},{"type":"Feature","properties":{"fid":389,"Contract Ecograf":0,"Contract CNAS":1,"Contract CASAOPSNAJ":0},"geometry":{"type":"Point","coordinates":[26.100207794235278,44.448747470202335]}},{"type":"Feature","properties":{"fid":393,"Contract Ecograf":0,"Contract CNAS":1,"Contract CASAOPSNAJ":0},"geometry":{"type":"Point","coordinates":[26.073060364543625,44.462161716808254]}},{"type":"Feature","properties":{"fid":396,"Contract Ecograf":0,"Contract CNAS":1,"Contract CASAOPSNAJ":0},"geometry":{"type":"Point","coordinates":[26.07302606804294,44.46212715981295]}},{"type":"Feature","properties":{"fid":409,"Contract Ecograf":0,"Contract CNAS":1,"Contract CASAOPSNAJ":0},"geometry":{"type":"Point","coordinates":[26.087592684565365,44.43750334975499]}},{"type":"Feature","properties":{"fid":414,"Contract Ecograf":0,"Contract CNAS":1,"Contract CASAOPSNAJ":0},"geometry":{"type":"Point","coordinates":[26.084678388351882,44.44245587974658]}},{"type":"Feature","properties":{"fid":415,"Contract Ecograf":0,"Contract CNAS":1,"Contract CASAOPSNAJ":0},"geometry":{"type":"Point","coordinates":[26.084706764263096,44.44245925626254]}},{"type":"Feature","properties":{"fid":447,"Contract Ecograf":0,"Contract CNAS":1,"Contract CASAOPSNAJ":0},"geometry":{"type":"Point","coordinates":[26.062477658240894,44.46231510542238]}},{"type":"Feature","properties":{"fid":465,"Contract Ecograf":0,"Contract CNAS":1,"Contract CASAOPSNAJ":0},"geometry":{"type":"Point","coordinates":[26.09868658193346,44.45533703140142]}},{"type":"Feature","properties":{"fid":471,"Contract Ecograf":0,"Contract CNAS":1,"Contract CASAOPSNAJ":0},"geometry":{"type":"Point","coordinates":[26.100215587215835,44.44879492126853]}},{"type":"Feature","properties":{"fid":474,"Contract Ecograf":0,"Contract CNAS":1,"Contract CASAOPSNAJ":0},"geometry":{"type":"Point","coordinates":[26.033383499207623,44.48069435037267]}},{"type":"Feature","properties":{"fid":495,"Contract Ecograf":0,"Contract CNAS":1,"Contract CASAOPSNAJ":0},"geometry":{"type":"Point","coordinates":[26.05215458019399,44.470348204883486]}},{"type":"Feature","properties":{"fid":515,"Contract Ecograf":0,"Contract CNAS":1,"Contract CASAOPSNAJ":0},"geometry":{"type":"Point","coordinates":[26.05212265747869,44.47025708294243]}},{"type":"Feature","properties":{"fid":519,"Contract Ecograf":0,"Contract CNAS":1,"Contract CASAOPSNAJ":0},"geometry":{"type":"Point","coordinates":[26.08850083581585,44.46746848781757]}},{"type":"Feature","properties":{"fid":525,"Contract Ecograf":0,"Contract CNAS":1,"Contract CASAOPSNAJ":0},"geometry":{"type":"Point","coordinates":[26.03326991608551,44.483417549651385]}},{"type":"Feature","properties":{"fid":560,"Contract Ecograf":0,"Contract CNAS":1,"Contract CASAOPSNAJ":0},"geometry":{"type":"Point","coordinates":[26.08238126267821,44.450281514939384]}},{"type":"Feature","properties":{"fid":561,"Contract Ecograf":0,"Contract CNAS":1,"Contract CASAOPSNAJ":0},"geometry":{"type":"Point","coordinates":[26.08058016847378,44.51587309050739]}},{"type":"Feature","properties":{"fid":562,"Contract Ecograf":0,"Contract CNAS":1,"Contract CASAOPSNAJ":0},"geometry":{"type":"Point","coordinates":[26.101372937230668,44.46509976388721]}},{"type":"Feature","properties":{"fid":565,"Contract Ecograf":0,"Contract CNAS":1,"Contract CASAOPSNAJ":0},"geometry":{"type":"Point","coordinates":[26.05211809709079,44.4703221700577]}},{"type":"Feature","properties":{"fid":591,"Contract Ecograf":0,"Contract CNAS":1,"Contract CASAOPSNAJ":0},"geometry":{"type":"Point","coordinates":[26.081444180309173,44.454627261508634]}},{"type":"Feature","properties":{"fid":592,"Contract Ecograf":0,"Contract CNAS":1,"Contract CASAOPSNAJ":0},"geometry":{"type":"Point","coordinates":[26.08142289837576,44.454654268002656]}},{"type":"Feature","properties":{"fid":593,"Contract Ecograf":0,"Contract CNAS":1,"Contract CASAOPSNAJ":0},"geometry":{"type":"Point","coordinates":[26.081482014857457,44.45463401313331]}},{"type":"Feature","properties":{"fid":594,"Contract Ecograf":0,"Contract CNAS":1,"Contract CASAOPSNAJ":0},"geometry":{"type":"Point","coordinates":[26.0815080261094,44.45461038244353]}},{"type":"Feature","properties":{"fid":595,"Contract Ecograf":0,"Contract CNAS":1,"Contract CASAOPSNAJ":0},"geometry":{"type":"Point","coordinates":[26.081463097583317,44.454600255002134]}},{"type":"Feature","properties":{"fid":596,"Contract Ecograf":1,"Contract CNAS":1,"Contract CASAOPSNAJ":0},"geometry":{"type":"Point","coordinates":[26.081458368264776,44.454657643813526]}},{"type":"Feature","properties":{"fid":600,"Contract Ecograf":1,"Contract CNAS":1,"Contract CASAOPSNAJ":0},"geometry":{"type":"Point","coordinates":[26.07792609777615,44.449054803303284]}},{"type":"Feature","properties":{"fid":609,"Contract Ecograf":0,"Contract CNAS":1,"Contract CASAOPSNAJ":0},"geometry":{"type":"Point","coordinates":[26.09013047626809,44.45098341048559]}},{"type":"Feature","properties":{"fid":610,"Contract Ecograf":0,"Contract CNAS":1,"Contract CASAOPSNAJ":0},"geometry":{"type":"Point","coordinates":[26.090137570245894,44.450969062385354]}},{"type":"Feature","properties":{"fid":611,"Contract Ecograf":1,"Contract CNAS":1,"Contract CASAOPSNAJ":0},"geometry":{"type":"Point","coordinates":[26.090160034508937,44.45098341048559]}},{"type":"Feature","properties":{"fid":612,"Contract Ecograf":0,"Contract CNAS":1,"Contract CASAOPSNAJ":0},"geometry":{"type":"Point","coordinates":[26.09018486343125,44.45096990639135]}},{"type":"Feature","properties":{"fid":613,"Contract Ecograf":0,"Contract CNAS":1,"Contract CASAOPSNAJ":0},"geometry":{"type":"Point","coordinates":[26.090160034508937,44.4509665303673]}},{"type":"Feature","properties":{"fid":614,"Contract Ecograf":0,"Contract CNAS":1,"Contract CASAOPSNAJ":0},"geometry":{"type":"Point","coordinates":[26.09018722809052,44.450986786508665]}},{"type":"Feature","properties":{"fid":615,"Contract Ecograf":0,"Contract CNAS":1,"Contract CASAOPSNAJ":0},"geometry":{"type":"Point","coordinates":[26.09021205701283,44.45099100653722]}},{"type":"Feature","properties":{"fid":616,"Contract Ecograf":0,"Contract CNAS":1,"Contract CASAOPSNAJ":0},"geometry":{"type":"Point","coordinates":[26.090217968661,44.45097412642114]}},{"type":"Feature","properties":{"fid":628,"Contract Ecograf":1,"Contract CNAS":1,"Contract CASAOPSNAJ":0},"geometry":{"type":"Point","coordinates":[26.100281598345266,44.44872619902222]}},{"type":"Feature","properties":{"fid":648,"Contract Ecograf":0,"Contract CNAS":1,"Contract CASAOPSNAJ":0},"geometry":{"type":"Point","coordinates":[26.047277706418445,44.48428986942711]}},{"type":"Feature","properties":{"fid":665,"Contract Ecograf":0,"Contract CNAS":1,"Contract CASAOPSNAJ":0},"geometry":{"type":"Point","coordinates":[26.096597436651514,44.48756038920887]}},{"type":"Feature","properties":{"fid":666,"Contract Ecograf":0,"Contract CNAS":1,"Contract CASAOPSNAJ":0},"geometry":{"type":"Point","coordinates":[26.096676215004262,44.48756038920887]}},{"type":"Feature","properties":{"fid":667,"Contract Ecograf":0,"Contract CNAS":1,"Contract CASAOPSNAJ":0},"geometry":{"type":"Point","coordinates":[26.096595049428704,44.48750589155206]}},{"type":"Feature","properties":{"fid":672,"Contract Ecograf":0,"Contract CNAS":1,"Contract CASAOPSNAJ":0},"geometry":{"type":"Point","coordinates":[26.100281139934648,44.44870754582712]}},{"type":"Feature","properties":{"fid":680,"Contract Ecograf":1,"Contract CNAS":1,"Contract CASAOPSNAJ":0},"geometry":{"type":"Point","coordinates":[26.10024263344248,44.44880572047132]}},{"type":"Feature","properties":{"fid":682,"Contract Ecograf":0,"Contract CNAS":1,"Contract CASAOPSNAJ":0},"geometry":{"type":"Point","coordinates":[26.07568939838189,44.44676175535941]}},{"type":"Feature","properties":{"fid":683,"Contract Ecograf":0,"Contract CNAS":1,"Contract CASAOPSNAJ":0},"geometry":{"type":"Point","coordinates":[26.048546155863534,44.471718716439966]}},{"type":"Feature","properties":{"fid":684,"Contract Ecograf":0,"Contract CNAS":1,"Contract CASAOPSNAJ":0},"geometry":{"type":"Point","coordinates":[26.048522509270853,44.471735590559334]}},{"type":"Feature","properties":{"fid":685,"Contract Ecograf":0,"Contract CNAS":1,"Contract CASAOPSNAJ":0},"geometry":{"type":"Point","coordinates":[26.100269221258497,44.44880964745365]}},{"type":"Feature","properties":{"fid":686,"Contract Ecograf":0,"Contract CNAS":1,"Contract CASAOPSNAJ":0},"geometry":{"type":"Point","coordinates":[26.07685918282294,44.44424041684629]}},{"type":"Feature","properties":{"fid":689,"Contract Ecograf":0,"Contract CNAS":1,"Contract CASAOPSNAJ":0},"geometry":{"type":"Point","coordinates":[26.04858162575255,44.47175921431825]}},{"type":"Feature","properties":{"fid":692,"Contract Ecograf":0,"Contract CNAS":1,"Contract CASAOPSNAJ":0},"geometry":{"type":"Point","coordinates":[26.075725335065552,44.44678294882237]}},{"type":"Feature","properties":{"fid":693,"Contract Ecograf":0,"Contract CNAS":1,"Contract CASAOPSNAJ":0},"geometry":{"type":"Point","coordinates":[26.048576896434017,44.471740652794196]}},{"type":"Feature","properties":{"fid":695,"Contract Ecograf":0,"Contract CNAS":1,"Contract CASAOPSNAJ":0},"geometry":{"type":"Point","coordinates":[26.075750334497666,44.44680079594309]}},{"type":"Feature","properties":{"fid":696,"Contract Ecograf":0,"Contract CNAS":1,"Contract CASAOPSNAJ":0},"geometry":{"type":"Point","coordinates":[26.073254373935235,44.444469354895055]}},{"type":"Feature","properties":{"fid":708,"Contract Ecograf":0,"Contract CNAS":1,"Contract CASAOPSNAJ":0},"geometry":{"type":"Point","coordinates":[26.099157077582394,44.45774597124951]}},{"type":"Feature","properties":{"fid":709,"Contract Ecograf":0,"Contract CNAS":1,"Contract CASAOPSNAJ":0},"geometry":{"type":"Point","coordinates":[26.090809716799388,44.44409151748774]}},{"type":"Feature","properties":{"fid":712,"Contract Ecograf":0,"Contract CNAS":1,"Contract CASAOPSNAJ":0},"geometry":{"type":"Point","coordinates":[26.019659132199894,44.48595950235112]}},{"type":"Feature","properties":{"fid":713,"Contract Ecograf":0,"Contract CNAS":1,"Contract CASAOPSNAJ":0},"geometry":{"type":"Point","coordinates":[26.077841982147103,44.44901657979474]}},{"type":"Feature","properties":{"fid":718,"Contract Ecograf":0,"Contract CNAS":1,"Contract CASAOPSNAJ":0},"geometry":{"type":"Point","coordinates":[26.09127874241442,44.45081507535483]}},{"type":"Feature","properties":{"fid":736,"Contract Ecograf":0,"Contract CNAS":1,"Contract CASAOPSNAJ":0},"geometry":{"type":"Point","coordinates":[26.043938319542676,44.48075192092938]}},{"type":"Feature","properties":{"fid":737,"Contract Ecograf":0,"Contract CNAS":1,"Contract CASAOPSNAJ":0},"geometry":{"type":"Point","coordinates":[26.092957465762233,44.45331883920857]}},{"type":"Feature","properties":{"fid":745,"Contract Ecograf":0,"Contract CNAS":1,"Contract CASAOPSNAJ":0},"geometry":{"type":"Point","coordinates":[26.068462856725308,44.46641056127961]}},{"type":"Feature","properties":{"fid":752,"Contract Ecograf":0,"Contract CNAS":1,"Contract CASAOPSNAJ":0},"geometry":{"type":"Point","coordinates":[26.082716369650544,44.43709980155826]}},{"type":"Feature","properties":{"fid":762,"Contract Ecograf":0,"Contract CNAS":1,"Contract CASAOPSNAJ":0},"geometry":{"type":"Point","coordinates":[26.08336348288116,44.46474317495289]}},{"type":"Feature","properties":{"fid":763,"Contract Ecograf":0,"Contract CNAS":1,"Contract CASAOPSNAJ":0},"geometry":{"type":"Point","coordinates":[26.087385435798414,44.435230915499446]}},{"type":"Feature","properties":{"fid":770,"Contract Ecograf":0,"Contract CNAS":1,"Contract CASAOPSNAJ":0},"geometry":{"type":"Point","coordinates":[26.07894960570634,44.453894012655574]}},{"type":"Feature","properties":{"fid":780,"Contract Ecograf":0,"Contract CNAS":1,"Contract CASAOPSNAJ":0},"geometry":{"type":"Point","coordinates":[26.090853613001084,44.444042550290725]}},{"type":"Feature","properties":{"fid":781,"Contract Ecograf":0,"Contract CNAS":1,"Contract CASAOPSNAJ":0},"geometry":{"type":"Point","coordinates":[26.10093627418201,44.46570077401826]}},{"type":"Feature","properties":{"fid":784,"Contract Ecograf":0,"Contract CNAS":1,"Contract CASAOPSNAJ":0},"geometry":{"type":"Point","coordinates":[26.099445917236658,44.45071020935553]}},{"type":"Feature","properties":{"fid":788,"Contract Ecograf":0,"Contract CNAS":1,"Contract CASAOPSNAJ":0},"geometry":{"type":"Point","coordinates":[26.073009928513205,44.46215019781209]}},{"type":"Feature","properties":{"fid":806,"Contract Ecograf":0,"Contract CNAS":1,"Contract CASAOPSNAJ":0},"geometry":{"type":"Point","coordinates":[26.087679331935462,44.43751311830422]}},{"type":"Feature","properties":{"fid":812,"Contract Ecograf":0,"Contract CNAS":1,"Contract CASAOPSNAJ":0},"geometry":{"type":"Point","coordinates":[26.06849014816585,44.46641519862301]}},{"type":"Feature","properties":{"fid":813,"Contract Ecograf":0,"Contract CNAS":1,"Contract CASAOPSNAJ":0},"geometry":{"type":"Point","coordinates":[26.101024646465664,44.465685934336456]}},{"type":"Feature","properties":{"fid":815,"Contract Ecograf":0,"Contract CNAS":1,"Contract CASAOPSNAJ":0},"geometry":{"type":"Point","coordinates":[26.099965845764114,44.44715882776098]}},{"type":"Feature","properties":{"fid":831,"Contract Ecograf":0,"Contract CNAS":1,"Contract CASAOPSNAJ":0},"geometry":{"type":"Point","coordinates":[26.081306301091878,44.491360798718624]}},{"type":"Feature","properties":{"fid":832,"Contract Ecograf":0,"Contract CNAS":1,"Contract CASAOPSNAJ":0},"geometry":{"type":"Point","coordinates":[26.098681852614924,44.455384292183325]}},{"type":"Feature","properties":{"fid":833,"Contract Ecograf":0,"Contract CNAS":1,"Contract CASAOPSNAJ":0},"geometry":{"type":"Point","coordinates":[26.084040486419166,44.49372635075222]}},{"type":"Feature","properties":{"fid":834,"Contract Ecograf":0,"Contract CNAS":1,"Contract CASAOPSNAJ":0},"geometry":{"type":"Point","coordinates":[26.081301471921567,44.491334961826205]}},{"type":"Feature","properties":{"fid":836,"Contract Ecograf":0,"Contract CNAS":1,"Contract CASAOPSNAJ":0},"geometry":{"type":"Point","coordinates":[26.0858942199567,44.49306737848346]}},{"type":"Feature","properties":{"fid":840,"Contract Ecograf":0,"Contract CNAS":1,"Contract CASAOPSNAJ":0},"geometry":{"type":"Point","coordinates":[26.100247217548688,44.44872848976507]}},{"type":"Feature","properties":{"fid":843,"Contract Ecograf":0,"Contract CNAS":1,"Contract CASAOPSNAJ":0},"geometry":{"type":"Point","coordinates":[26.033426063074437,44.480660607309936]}},{"type":"Feature","properties":{"fid":847,"Contract Ecograf":0,"Contract CNAS":1,"Contract CASAOPSNAJ":0},"geometry":{"type":"Point","coordinates":[26.047192,44.482115]}},{"type":"Feature","properties":{"fid":861,"Contract Ecograf":0,"Contract CNAS":1,"Contract CASAOPSNAJ":0},"geometry":{"type":"Point","coordinates":[26.051559257248844,44.46973425450352]}},{"type":"Feature","properties":{"fid":865,"Contract Ecograf":0,"Contract CNAS":1,"Contract CASAOPSNAJ":0},"geometry":{"type":"Point","coordinates":[26.100855419823283,44.45742464188618]}},{"type":"Feature","properties":{"fid":876,"Contract Ecograf":0,"Contract CNAS":1,"Contract CASAOPSNAJ":0},"geometry":{"type":"Point","coordinates":[26.102333685327352,44.531241784969666]}},{"type":"Feature","properties":{"fid":877,"Contract Ecograf":0,"Contract CNAS":1,"Contract CASAOPSNAJ":0},"geometry":{"type":"Point","coordinates":[26.09125627815137,44.45081507535483]}},{"type":"Feature","properties":{"fid":888,"Contract Ecograf":0,"Contract CNAS":1,"Contract CASAOPSNAJ":0},"geometry":{"type":"Point","coordinates":[26.10020504377155,44.44870623683075]}},{"type":"Feature","properties":{"fid":902,"Contract Ecograf":0,"Contract CNAS":1,"Contract CASAOPSNAJ":0},"geometry":{"type":"Point","coordinates":[26.100831273971718,44.457517708709496]}},{"type":"Feature","properties":{"fid":916,"Contract Ecograf":0,"Contract CNAS":1,"Contract CASAOPSNAJ":0},"geometry":{"type":"Point","coordinates":[26.10027059649036,44.44879426677132]}},{"type":"Feature","properties":{"fid":919,"Contract Ecograf":0,"Contract CNAS":1,"Contract CASAOPSNAJ":0},"geometry":{"type":"Point","coordinates":[26.068151100000023,44.50087860000008]}},{"type":"Feature","properties":{"fid":922,"Contract Ecograf":0,"Contract CNAS":1,"Contract CASAOPSNAJ":0},"geometry":{"type":"Point","coordinates":[26.070519943930563,44.47370244951234]}},{"type":"Feature","properties":{"fid":936,"Contract Ecograf":0,"Contract CNAS":1,"Contract CASAOPSNAJ":0},"geometry":{"type":"Point","coordinates":[26.082718734309815,44.43706941011994]}},{"type":"Feature","properties":{"fid":939,"Contract Ecograf":0,"Contract CNAS":1,"Contract CASAOPSNAJ":0},"geometry":{"type":"Point","coordinates":[26.076602539563325,44.43905177589975]}},{"type":"Feature","properties":{"fid":944,"Contract Ecograf":0,"Contract CNAS":1,"Contract CASAOPSNAJ":0},"geometry":{"type":"Point","coordinates":[26.03242508122267,44.485611032113525]}},{"type":"Feature","properties":{"fid":948,"Contract Ecograf":0,"Contract CNAS":1,"Contract CASAOPSNAJ":0},"geometry":{"type":"Point","coordinates":[26.095928935371116,44.46326593565232]}},{"type":"Feature","properties":{"fid":950,"Contract Ecograf":0,"Contract CNAS":1,"Contract CASAOPSNAJ":0},"geometry":{"type":"Point","coordinates":[26.056693629170386,44.47146704609323]}},{"type":"Feature","properties":{"fid":961,"Contract Ecograf":0,"Contract CNAS":1,"Contract CASAOPSNAJ":0},"geometry":{"type":"Point","coordinates":[26.10023621569378,44.448823391889746]}},{"type":"Feature","properties":{"fid":962,"Contract Ecograf":0,"Contract CNAS":1,"Contract CASAOPSNAJ":0},"geometry":{"type":"Point","coordinates":[26.087027339650827,44.4643980441956]}},{"type":"Feature","properties":{"fid":975,"Contract Ecograf":0,"Contract CNAS":1,"Contract CASAOPSNAJ":0},"geometry":{"type":"Point","coordinates":[26.100272430132843,44.44877070486715]}},{"type":"Feature","properties":{"fid":977,"Contract Ecograf":0,"Contract CNAS":1,"Contract CASAOPSNAJ":0},"geometry":{"type":"Point","coordinates":[26.083633255427916,44.45053477441814]}},{"type":"Feature","properties":{"fid":981,"Contract Ecograf":0,"Contract CNAS":1,"Contract CASAOPSNAJ":0},"geometry":{"type":"Point","coordinates":[26.096859712489117,44.461004933556445]}},{"type":"Feature","properties":{"fid":987,"Contract Ecograf":0,"Contract CNAS":1,"Contract CASAOPSNAJ":0},"geometry":{"type":"Point","coordinates":[26.036204518689896,44.50509198099211]}},{"type":"Feature","properties":{"fid":990,"Contract Ecograf":0,"Contract CNAS":0,"Contract CASAOPSNAJ":1},"geometry":{"type":"Point","coordinates":[26.032680792189662,44.4939493072658]}},{"type":"Feature","properties":{"fid":997,"Contract Ecograf":0,"Contract CNAS":0,"Contract CASAOPSNAJ":1},"geometry":{"type":"Point","coordinates":[26.064961417062708,44.46657691438788]}},{"type":"Feature","properties":{"fid":1001,"Contract Ecograf":0,"Contract CNAS":0,"Contract CASAOPSNAJ":1},"geometry":{"type":"Point","coordinates":[26.06922800618731,44.45393092893423]}},{"type":"Feature","properties":{"fid":1002,"Contract Ecograf":0,"Contract CNAS":0,"Contract CASAOPSNAJ":1},"geometry":{"type":"Point","coordinates":[26.09131459915064,44.46298974541836]}},{"type":"Feature","properties":{"fid":1005,"Contract Ecograf":0,"Contract CNAS":0,"Contract CASAOPSNAJ":1},"geometry":{"type":"Point","coordinates":[26.072226644426852,44.44331358058338]}},{"type":"Feature","properties":{"fid":1007,"Contract Ecograf":0,"Contract CNAS":0,"Contract CASAOPSNAJ":1},"geometry":{"type":"Point","coordinates":[26.091228881377575,44.46301817980861]}},{"type":"Feature","properties":{"fid":1008,"Contract Ecograf":0,"Contract CNAS":0,"Contract CASAOPSNAJ":1},"geometry":{"type":"Point","coordinates":[26.057838790538604,44.46876595050529]}},{"type":"Feature","properties":{"fid":1012,"Contract Ecograf":0,"Contract CNAS":0,"Contract CASAOPSNAJ":1},"geometry":{"type":"Point","coordinates":[26.07698474125108,44.44427489383933]}},{"type":"Feature","properties":{"fid":1013,"Contract Ecograf":0,"Contract CNAS":0,"Contract CASAOPSNAJ":1},"geometry":{"type":"Point","coordinates":[26.07056715645879,44.473777608556844]}},{"type":"Feature","properties":{"fid":1015,"Contract Ecograf":0,"Contract CNAS":0,"Contract CASAOPSNAJ":1},"geometry":{"type":"Point","coordinates":[26.070627521087705,44.47385858848194]}},{"type":"Feature","properties":{"fid":1019,"Contract Ecograf":0,"Contract CNAS":0,"Contract CASAOPSNAJ":1},"geometry":{"type":"Point","coordinates":[26.072203705867853,44.44329030823235]}},{"type":"Feature","properties":{"fid":1020,"Contract Ecograf":0,"Contract CNAS":0,"Contract CASAOPSNAJ":1},"geometry":{"type":"Point","coordinates":[26.077905968653752,44.44909328480447]}},{"type":"Feature","properties":{"fid":1021,"Contract Ecograf":0,"Contract CNAS":0,"Contract CASAOPSNAJ":1},"geometry":{"type":"Point","coordinates":[26.076270024044714,44.4439137463275]}},{"type":"Feature","properties":{"fid":1022,"Contract Ecograf":0,"Contract CNAS":0,"Contract CASAOPSNAJ":1},"geometry":{"type":"Point","coordinates":[26.072292598645404,44.446572739553176]}},{"type":"Feature","properties":{"fid":1033,"Contract Ecograf":0,"Contract CNAS":0,"Contract CASAOPSNAJ":1},"geometry":{"type":"Point","coordinates":[26.101725728863983,44.44307222058026]}},{"type":"Feature","properties":{"fid":1034,"Contract Ecograf":0,"Contract CNAS":0,"Contract CASAOPSNAJ":1},"geometry":{"type":"Point","coordinates":[26.075796706159114,44.44678448818244]}},{"type":"Feature","properties":{"fid":1035,"Contract Ecograf":0,"Contract CNAS":0,"Contract CASAOPSNAJ":1},"geometry":{"type":"Point","coordinates":[26.07689715334426,44.444311249520275]}},{"type":"Feature","properties":{"fid":1036,"Contract Ecograf":0,"Contract CNAS":0,"Contract CASAOPSNAJ":1},"geometry":{"type":"Point","coordinates":[26.072195352397934,44.443307530358666]}},{"type":"Feature","properties":{"fid":1038,"Contract Ecograf":0,"Contract CNAS":0,"Contract CASAOPSNAJ":1},"geometry":{"type":"Point","coordinates":[26.052000646339543,44.483358799354576]}},{"type":"Feature","properties":{"fid":1040,"Contract Ecograf":0,"Contract CNAS":0,"Contract CASAOPSNAJ":1},"geometry":{"type":"Point","coordinates":[26.07325569052407,44.44444498580645]}},{"type":"Feature","properties":{"fid":1047,"Contract Ecograf":0,"Contract CNAS":0,"Contract CASAOPSNAJ":1},"geometry":{"type":"Point","coordinates":[26.078812318611043,44.44386370133207]}},{"type":"Feature","properties":{"fid":1048,"Contract Ecograf":0,"Contract CNAS":0,"Contract CASAOPSNAJ":1},"geometry":{"type":"Point","coordinates":[26.075760739416367,44.44676336607334]}},{"type":"Feature","properties":{"fid":1053,"Contract Ecograf":0,"Contract CNAS":0,"Contract CASAOPSNAJ":1},"geometry":{"type":"Point","coordinates":[26.094478798225904,44.45238475210713]}},{"type":"Feature","properties":{"fid":1055,"Contract Ecograf":0,"Contract CNAS":0,"Contract CASAOPSNAJ":1},"geometry":{"type":"Point","coordinates":[26.06826259279614,44.45299909684861]}},{"type":"Feature","properties":{"fid":1056,"Contract Ecograf":0,"Contract CNAS":0,"Contract CASAOPSNAJ":1},"geometry":{"type":"Point","coordinates":[26.068230386155562,44.45301697788774]}},{"type":"Feature","properties":{"fid":1060,"Contract Ecograf":0,"Contract CNAS":0,"Contract CASAOPSNAJ":1},"geometry":{"type":"Point","coordinates":[26.07919943115872,44.442931202598395]}},{"type":"Feature","properties":{"fid":1061,"Contract Ecograf":0,"Contract CNAS":0,"Contract CASAOPSNAJ":1},"geometry":{"type":"Point","coordinates":[26.079149331940044,44.442936312347946]}},{"type":"Feature","properties":{"fid":1063,"Contract Ecograf":0,"Contract CNAS":0,"Contract CASAOPSNAJ":1},"geometry":{"type":"Point","coordinates":[26.088293393168076,44.46664881485307]}},{"type":"Feature","properties":{"fid":1064,"Contract Ecograf":0,"Contract CNAS":0,"Contract CASAOPSNAJ":1},"geometry":{"type":"Point","coordinates":[26.075726647484437,44.44674166213956]}},{"type":"Feature","properties":{"fid":1065,"Contract Ecograf":0,"Contract CNAS":0,"Contract CASAOPSNAJ":1},"geometry":{"type":"Point","coordinates":[26.0757564120756,44.44673393523322]}},{"type":"Feature","properties":{"fid":1066,"Contract Ecograf":0,"Contract CNAS":0,"Contract CASAOPSNAJ":1},"geometry":{"type":"Point","coordinates":[26.07308919489424,44.46211546151276]}},{"type":"Feature","properties":{"fid":1077,"Contract Ecograf":0,"Contract CNAS":0,"Contract CASAOPSNAJ":1},"geometry":{"type":"Point","coordinates":[26.05849845701143,44.482089045179904]}},{"type":"Feature","properties":{"fid":1081,"Contract Ecograf":0,"Contract CNAS":0,"Contract CASAOPSNAJ":1},"geometry":{"type":"Point","coordinates":[26.075792997210286,44.44674894441832]}},{"type":"Feature","properties":{"fid":1086,"Contract Ecograf":0,"Contract CNAS":0,"Contract CASAOPSNAJ":1},"geometry":{"type":"Point","coordinates":[26.09071063481475,44.45535199550146]}},{"type":"Feature","properties":{"fid":1087,"Contract Ecograf":0,"Contract CNAS":0,"Contract CASAOPSNAJ":1},"geometry":{"type":"Point","coordinates":[26.090797222716322,44.45535199550146]}},{"type":"Feature","properties":{"fid":1088,"Contract Ecograf":0,"Contract CNAS":0,"Contract CASAOPSNAJ":1},"geometry":{"type":"Point","coordinates":[26.09090004584944,44.45535199550146]}},{"type":"Feature","properties":{"fid":1089,"Contract Ecograf":0,"Contract CNAS":0,"Contract CASAOPSNAJ":1},"geometry":{"type":"Point","coordinates":[26.09099204549486,44.45535585838473]}},{"type":"Feature","properties":{"fid":1090,"Contract Ecograf":0,"Contract CNAS":0,"Contract CASAOPSNAJ":1},"geometry":{"type":"Point","coordinates":[26.090737693533992,44.45530177799591]}},{"type":"Feature","properties":{"fid":1091,"Contract Ecograf":0,"Contract CNAS":0,"Contract CASAOPSNAJ":1},"geometry":{"type":"Point","coordinates":[26.090818869691716,44.45530177799591]}},{"type":"Feature","properties":{"fid":1092,"Contract Ecograf":0,"Contract CNAS":0,"Contract CASAOPSNAJ":1},"geometry":{"type":"Point","coordinates":[26.090916281080982,44.45531336665488]}},{"type":"Feature","properties":{"fid":1093,"Contract Ecograf":0,"Contract CNAS":0,"Contract CASAOPSNAJ":1},"geometry":{"type":"Point","coordinates":[26.091008280726403,44.45530177799591]}},{"type":"Feature","properties":{"fid":1094,"Contract Ecograf":0,"Contract CNAS":0,"Contract CASAOPSNAJ":1},"geometry":{"type":"Point","coordinates":[26.09071063481475,44.45523610888504]}},{"type":"Feature","properties":{"fid":1095,"Contract Ecograf":0,"Contract CNAS":0,"Contract CASAOPSNAJ":1},"geometry":{"type":"Point","coordinates":[26.090829693179412,44.45523224599386]}},{"type":"Feature","properties":{"fid":1096,"Contract Ecograf":0,"Contract CNAS":0,"Contract CASAOPSNAJ":1},"geometry":{"type":"Point","coordinates":[26.09089463410559,44.455251560447174]}},{"type":"Feature","properties":{"fid":1097,"Contract Ecograf":0,"Contract CNAS":0,"Contract CASAOPSNAJ":1},"geometry":{"type":"Point","coordinates":[26.09099204549486,44.455251560447174]}},{"type":"Feature","properties":{"fid":1098,"Contract Ecograf":0,"Contract CNAS":0,"Contract CASAOPSNAJ":1},"geometry":{"type":"Point","coordinates":[26.090737693533992,44.455158851012975]}},{"type":"Feature","properties":{"fid":1099,"Contract Ecograf":0,"Contract CNAS":0,"Contract CASAOPSNAJ":1},"geometry":{"type":"Point","coordinates":[26.090829693179412,44.45517430259557]}},{"type":"Feature","properties":{"fid":1100,"Contract Ecograf":0,"Contract CNAS":0,"Contract CASAOPSNAJ":1},"geometry":{"type":"Point","coordinates":[26.09093251631253,44.45518202838533]}},{"type":"Feature","properties":{"fid":1101,"Contract Ecograf":0,"Contract CNAS":0,"Contract CASAOPSNAJ":1},"geometry":{"type":"Point","coordinates":[26.09111110385952,44.45536358415046]}},{"type":"Feature","properties":{"fid":1102,"Contract Ecograf":0,"Contract CNAS":0,"Contract CASAOPSNAJ":1},"geometry":{"type":"Point","coordinates":[26.091013692470252,44.45518202838533]}},{"type":"Feature","properties":{"fid":1103,"Contract Ecograf":0,"Contract CNAS":0,"Contract CASAOPSNAJ":1},"geometry":{"type":"Point","coordinates":[26.09111110385952,44.455294052221994]}},{"type":"Feature","properties":{"fid":1104,"Contract Ecograf":0,"Contract CNAS":0,"Contract CASAOPSNAJ":1},"geometry":{"type":"Point","coordinates":[26.091132750834916,44.45524769755703]}},{"type":"Feature","properties":{"fid":1105,"Contract Ecograf":0,"Contract CNAS":0,"Contract CASAOPSNAJ":1},"geometry":{"type":"Point","coordinates":[26.091116515603368,44.45518589127983]}},{"type":"Feature","properties":{"fid":1106,"Contract Ecograf":0,"Contract CNAS":0,"Contract CASAOPSNAJ":1},"geometry":{"type":"Point","coordinates":[26.091197691761096,44.45535585838473]}},{"type":"Feature","properties":{"fid":1107,"Contract Ecograf":0,"Contract CNAS":0,"Contract CASAOPSNAJ":1},"geometry":{"type":"Point","coordinates":[26.091208515248795,44.45530950376882]}},{"type":"Feature","properties":{"fid":1108,"Contract Ecograf":0,"Contract CNAS":0,"Contract CASAOPSNAJ":1},"geometry":{"type":"Point","coordinates":[26.091208515248795,44.45525542333707]}},{"type":"Feature","properties":{"fid":1109,"Contract Ecograf":0,"Contract CNAS":0,"Contract CASAOPSNAJ":1},"geometry":{"type":"Point","coordinates":[26.091224750480336,44.455189754174064]}},{"type":"Feature","properties":{"fid":1110,"Contract Ecograf":0,"Contract CNAS":0,"Contract CASAOPSNAJ":1},"geometry":{"type":"Point","coordinates":[26.090634870400876,44.45532881819658]}},{"type":"Feature","properties":{"fid":1111,"Contract Ecograf":0,"Contract CNAS":0,"Contract CASAOPSNAJ":1},"geometry":{"type":"Point","coordinates":[26.090645693888572,44.45528246355921]}},{"type":"Feature","properties":{"fid":1113,"Contract Ecograf":0,"Contract CNAS":0,"Contract CASAOPSNAJ":1},"geometry":{"type":"Point","coordinates":[26.090645693888572,44.455216794426605]}},{"type":"Feature","properties":{"fid":1114,"Contract Ecograf":0,"Contract CNAS":0,"Contract CASAOPSNAJ":1},"geometry":{"type":"Point","coordinates":[26.090661929120117,44.45514726232336]}},{"type":"Feature","properties":{"fid":1115,"Contract Ecograf":0,"Contract CNAS":0,"Contract CASAOPSNAJ":1},"geometry":{"type":"Point","coordinates":[26.090580752962392,44.45532495531154]}},{"type":"Feature","properties":{"fid":1116,"Contract Ecograf":0,"Contract CNAS":0,"Contract CASAOPSNAJ":1},"geometry":{"type":"Point","coordinates":[26.09059698819394,44.45527473778274]}},{"type":"Feature","properties":{"fid":1117,"Contract Ecograf":0,"Contract CNAS":0,"Contract CASAOPSNAJ":1},"geometry":{"type":"Point","coordinates":[26.090569929474697,44.45520134285526]}},{"type":"Feature","properties":{"fid":1118,"Contract Ecograf":0,"Contract CNAS":0,"Contract CASAOPSNAJ":1},"geometry":{"type":"Point","coordinates":[26.09059157645009,44.455139536528996]}},{"type":"Feature","properties":{"fid":1119,"Contract Ecograf":0,"Contract CNAS":0,"Contract CASAOPSNAJ":1},"geometry":{"type":"Point","coordinates":[26.09127345617497,44.45536358415046]}},{"type":"Feature","properties":{"fid":1120,"Contract Ecograf":0,"Contract CNAS":0,"Contract CASAOPSNAJ":1},"geometry":{"type":"Point","coordinates":[26.091251809199576,44.45530950376882]}},{"type":"Feature","properties":{"fid":1121,"Contract Ecograf":0,"Contract CNAS":0,"Contract CASAOPSNAJ":1},"geometry":{"type":"Point","coordinates":[26.09130592663806,44.45524383466662]}},{"type":"Feature","properties":{"fid":1122,"Contract Ecograf":0,"Contract CNAS":0,"Contract CASAOPSNAJ":1},"geometry":{"type":"Point","coordinates":[26.09468021496722,44.4550085061119]}},{"type":"Feature","properties":{"fid":1123,"Contract Ecograf":0,"Contract CNAS":0,"Contract CASAOPSNAJ":1},"geometry":{"type":"Point","coordinates":[26.0947155107484,44.4550017876714]}},{"type":"Feature","properties":{"fid":1124,"Contract Ecograf":0,"Contract CNAS":0,"Contract CASAOPSNAJ":1},"geometry":{"type":"Point","coordinates":[26.09468139149326,44.45498499156677]}},{"type":"Feature","properties":{"fid":1125,"Contract Ecograf":0,"Contract CNAS":0,"Contract CASAOPSNAJ":1},"geometry":{"type":"Point","coordinates":[26.094720216852565,44.45497659351265]}},{"type":"Feature","properties":{"fid":1126,"Contract Ecograf":0,"Contract CNAS":0,"Contract CASAOPSNAJ":1},"geometry":{"type":"Point","coordinates":[26.0946825680193,44.45502530220976]}},{"type":"Feature","properties":{"fid":1127,"Contract Ecograf":0,"Contract CNAS":0,"Contract CASAOPSNAJ":1},"geometry":{"type":"Point","coordinates":[26.09471904032652,44.45502194299058]}},{"type":"Feature","properties":{"fid":1128,"Contract Ecograf":0,"Contract CNAS":0,"Contract CASAOPSNAJ":1},"geometry":{"type":"Point","coordinates":[26.094679038441182,44.45504377791184]}},{"type":"Feature","properties":{"fid":1129,"Contract Ecograf":0,"Contract CNAS":0,"Contract CASAOPSNAJ":1},"geometry":{"type":"Point","coordinates":[26.094720216852565,44.45504041869371]}},{"type":"Feature","properties":{"fid":1130,"Contract Ecograf":0,"Contract CNAS":0,"Contract CASAOPSNAJ":1},"geometry":{"type":"Point","coordinates":[26.094656684446434,44.45503621967079]}},{"type":"Feature","properties":{"fid":1131,"Contract Ecograf":0,"Contract CNAS":0,"Contract CASAOPSNAJ":1},"geometry":{"type":"Point","coordinates":[26.085566844266033,44.438131865987444]}},{"type":"Feature","properties":{"fid":1132,"Contract Ecograf":0,"Contract CNAS":0,"Contract CASAOPSNAJ":1},"geometry":{"type":"Point","coordinates":[26.085609199203457,44.43816882807379]}},{"type":"Feature","properties":{"fid":1133,"Contract Ecograf":0,"Contract CNAS":0,"Contract CASAOPSNAJ":1},"geometry":{"type":"Point","coordinates":[26.085632729724242,44.43821251050935]}},{"type":"Feature","properties":{"fid":1134,"Contract Ecograf":0,"Contract CNAS":0,"Contract CASAOPSNAJ":1},"geometry":{"type":"Point","coordinates":[26.085651554140874,44.4382494725447]}},{"type":"Feature","properties":{"fid":1135,"Contract Ecograf":0,"Contract CNAS":0,"Contract CASAOPSNAJ":1},"geometry":{"type":"Point","coordinates":[26.085670378557502,44.43828643455665]}},{"type":"Feature","properties":{"fid":1136,"Contract Ecograf":0,"Contract CNAS":0,"Contract CASAOPSNAJ":1},"geometry":{"type":"Point","coordinates":[26.085628023620085,44.43829987528249]}},{"type":"Feature","properties":{"fid":1137,"Contract Ecograf":0,"Contract CNAS":0,"Contract CASAOPSNAJ":1},"geometry":{"type":"Point","coordinates":[26.085585668682665,44.43825955309573]}},{"type":"Feature","properties":{"fid":1138,"Contract Ecograf":0,"Contract CNAS":0,"Contract CASAOPSNAJ":1},"geometry":{"type":"Point","coordinates":[26.085566844266033,44.438225951252186]}},{"type":"Feature","properties":{"fid":1139,"Contract Ecograf":0,"Contract CNAS":0,"Contract CASAOPSNAJ":1},"geometry":{"type":"Point","coordinates":[26.085566844266033,44.43817890863875]}},{"type":"Feature","properties":{"fid":1140,"Contract Ecograf":0,"Contract CNAS":0,"Contract CASAOPSNAJ":1},"geometry":{"type":"Point","coordinates":[26.085491546599513,44.438141946558765]}},{"type":"Feature","properties":{"fid":1141,"Contract Ecograf":0,"Contract CNAS":0,"Contract CASAOPSNAJ":1},"geometry":{"type":"Point","coordinates":[26.085515077120306,44.43820915032316]}},{"type":"Feature","properties":{"fid":1153,"Contract Ecograf":0,"Contract CNAS":0,"Contract CASAOPSNAJ":1},"geometry":{"type":"Point","coordinates":[26.07320037906592,44.442056436953756]}},{"type":"Feature","properties":{"fid":1154,"Contract Ecograf":0,"Contract CNAS":0,"Contract CASAOPSNAJ":1},"geometry":{"type":"Point","coordinates":[26.07325920536789,44.44206987681234]}},{"type":"Feature","properties":{"fid":1155,"Contract Ecograf":0,"Contract CNAS":0,"Contract CASAOPSNAJ":1},"geometry":{"type":"Point","coordinates":[26.07321214432631,44.442022837293784]}},{"type":"Feature","properties":{"fid":1156,"Contract Ecograf":0,"Contract CNAS":0,"Contract CASAOPSNAJ":1},"geometry":{"type":"Point","coordinates":[26.073266264524126,44.44202115731027]}},{"type":"Feature","properties":{"fid":1157,"Contract Ecograf":0,"Contract CNAS":0,"Contract CASAOPSNAJ":1},"geometry":{"type":"Point","coordinates":[26.073310972513625,44.442074916758514]}},{"type":"Feature","properties":{"fid":1158,"Contract Ecograf":0,"Contract CNAS":0,"Contract CASAOPSNAJ":1},"geometry":{"type":"Point","coordinates":[26.073322737774017,44.44203459717697]}},{"type":"Feature","properties":{"fid":1159,"Contract Ecograf":0,"Contract CNAS":0,"Contract CASAOPSNAJ":1},"geometry":{"type":"Point","coordinates":[26.073266264524126,44.44204635705779]}},{"type":"Feature","properties":{"fid":1160,"Contract Ecograf":0,"Contract CNAS":0,"Contract CASAOPSNAJ":1},"geometry":{"type":"Point","coordinates":[26.07276741748342,44.44257050934201]}},{"type":"Feature","properties":{"fid":1161,"Contract Ecograf":0,"Contract CNAS":0,"Contract CASAOPSNAJ":1},"geometry":{"type":"Point","coordinates":[26.072856833462414,44.44248651089494]}},{"type":"Feature","properties":{"fid":1162,"Contract Ecograf":0,"Contract CNAS":0,"Contract CASAOPSNAJ":1},"geometry":{"type":"Point","coordinates":[26.072889776191516,44.442604108687014]}},{"type":"Feature","properties":{"fid":1163,"Contract Ecograf":0,"Contract CNAS":0,"Contract CASAOPSNAJ":1},"geometry":{"type":"Point","coordinates":[26.072814478524997,44.44253355004018]}},{"type":"Feature","properties":{"fid":1164,"Contract Ecograf":0,"Contract CNAS":0,"Contract CASAOPSNAJ":1},"geometry":{"type":"Point","coordinates":[26.072941543337247,44.44253019010249]}},{"type":"Feature","properties":{"fid":1173,"Contract Ecograf":0,"Contract CNAS":1,"Contract CASAOPSNAJ":0},"geometry":{"type":"Point","coordinates":[26.081430545986976,44.454687967936295]}},{"type":"Feature","properties":{"fid":1180,"Contract Ecograf":0,"Contract CNAS":1,"Contract CASAOPSNAJ":0},"geometry":{"type":"Point","coordinates":[26.07427976382555,44.49698269245242]}},{"type":"Feature","properties":{"fid":1189,"Contract Ecograf":0,"Contract CNAS":1,"Contract CASAOPSNAJ":0},"geometry":{"type":"Point","coordinates":[26.036250914678174,44.5050781937529]}},{"type":"Feature","properties":{"fid":1190,"Contract Ecograf":0,"Contract CNAS":1,"Contract CASAOPSNAJ":0},"geometry":{"type":"Point","coordinates":[26.068187886897448,44.50085818801168]}},{"type":"Feature","properties":{"fid":1202,"Contract Ecograf":0,"Contract CNAS":1,"Contract CASAOPSNAJ":0},"geometry":{"type":"Point","coordinates":[26.090114184907147,44.45098222365999]}},{"type":"Feature","properties":{"fid":1203,"Contract Ecograf":0,"Contract CNAS":1,"Contract CASAOPSNAJ":0},"geometry":{"type":"Point","coordinates":[26.100245516914484,44.44870728531984]}},{"type":"Feature","properties":{"fid":1212,"Contract Ecograf":0,"Contract CNAS":1,"Contract CASAOPSNAJ":0},"geometry":{"type":"Point","coordinates":[26.069927644955204,44.45988971496431]}}]}
