{"type":"FeatureCollection","features":[{"type":"Feature","properties":{"fid":3066,"natcode":"179141","name":"București Sectorul 1","county":"București","version":"2017-09-27"},"geometry":{"type":"MultiPolygon","coordinates":[[[[26.10447814189867,44.53954401393094],[26.104396986100223,44.53930529081947],[26.10433613367125,44.539126288136465],[26.104286169777794,44.53869761464286],[26.10415076724434,44.53753586931668],[26.103925729409184,44.53553087936143],[26.103735545057496,44.53383630316376],[26.10352772242735,44.53235797531372],[26.1033807950091,44.53131276718872],[26.103151395967867,44.52983032544733],[26.103205178706975,44.5296380475268],[26.103207297200417,44.52963375436875],[26.103223002546045,44.52960193593759],[26.103656932748876,44.52872280688112],[26.104911654127346,44.526545430949845],[26.10492060377038,44.52640244054278],[26.104827068708644,44.52502372288543],[26.10475760405539,44.52399975711709],[26.104734483144156,44.523674306241],[26.104642305119643,44.52237675598864],[26.10451204181555,44.52054299375072],[26.10432942733645,44.51994524614954],[26.104327714314927,44.51985573457297],[26.104450949220716,44.5197542553392],[26.10453392770545,44.5196424276773],[26.10472334247146,44.51933617365257],[26.104977392923043,44.51887393037275],[26.10490898275828,44.51857554361482],[26.10549774225091,44.51850080433066],[26.10550499560184,44.51849988357635],[26.10622769665435,44.51840813673921],[26.106157490970865,44.517572092350385],[26.105752074529068,44.51757964998494],[26.105644333340564,44.51656555763624],[26.105638346695788,44.51650921078132],[26.105581041563745,44.515969817120094],[26.105523596624113,44.51541571208647],[26.10521648034062,44.51543817308121],[26.105200187061623,44.51543936425157],[26.10499653304967,44.51545425806474],[26.104666454278817,44.51545901230965],[26.104544901813387,44.51542904174604],[26.104403987239625,44.515394296196185],[26.10427876569644,44.5152210734747],[26.104161771983005,44.515223488499245],[26.104050064315558,44.5152257940303],[26.10389474028297,44.51438111387272],[26.10373592829506,44.51351744745481],[26.10368368567775,44.51326372581184],[26.103645439162843,44.513107077168975],[26.103529438631213,44.51263196566927],[26.103392783201272,44.512095417948416],[26.10323113609229,44.511460733713974],[26.103042336970532,44.510726010659845],[26.10295804213373,44.510259971199645],[26.10292980337664,44.51003858635924],[26.10288955236701,44.50972302870627],[26.102887053128764,44.50954384715813],[26.10288372960165,44.50930552846113],[26.10290745708207,44.50893624511005],[26.102930270759728,44.5085811587117],[26.10323687279809,44.50748628724802],[26.103427746137793,44.506866353981565],[26.103433254966333,44.50684846243984],[26.103588035708444,44.50634574338707],[26.10395372038186,44.50517885735369],[26.104041654575106,44.5049099359706],[26.105149048185144,44.505153317130436],[26.105565265342698,44.505248482384694],[26.106240843787408,44.50540294541759],[26.107253121177425,44.50562720755318],[26.108732957991062,44.50592040108744],[26.109160178615188,44.50483917608542],[26.109161012878218,44.50483710411575],[26.109779610836917,44.50330074103517],[26.10480876638084,44.502275391591276],[26.104787370322637,44.502112521110845],[26.104744600602135,44.501968265644834],[26.104664454559497,44.5018515032532],[26.104542114787666,44.50173063345401],[26.10447804603632,44.50168378940072],[26.10439566996288,44.50163855212945],[26.104636040939248,44.50128424340313],[26.10464015906451,44.5012781728715],[26.104729176335095,44.50114696140397],[26.104729204410287,44.50114691702753],[26.10525789996629,44.50032340441095],[26.105290280220483,44.50033512743876],[26.10530774934672,44.50034145162071],[26.105560832917252,44.50042521902487],[26.105560344014236,44.500422147531765],[26.105561211334738,44.500416938675166],[26.10560423959226,44.50030343557423],[26.10565692097931,44.500164468737],[26.10570960211565,44.50002550187735],[26.105762283001305,44.4998865349954],[26.10581215772202,44.49975497043115],[26.10588452586079,44.49956405165551],[26.105909230131857,44.49949891560441],[26.10596190498672,44.499359945987436],[26.10601459090652,44.49922097623695],[26.106019220998498,44.49920875795393],[26.10602994991367,44.49918044496419],[26.106047857442352,44.49913575306221],[26.106067550502438,44.49909144774741],[26.106084480158916,44.499056499215044],[26.10609810949718,44.49903031871827],[26.106102617834665,44.49902165852881],[26.10612273299152,44.49899065954442],[26.10647925806406,44.4985349277994],[26.106530653366235,44.49846605188732],[26.106578535562317,44.49839589100409],[26.106622839785373,44.49832453759371],[26.106663515016614,44.498252084864035],[26.106700502643186,44.49817862339725],[26.10673375681533,44.498104253550025],[26.10675933013575,44.49803966409259],[26.106782065287963,44.49797455438284],[26.106799363127504,44.497947896764416],[26.106828829621975,44.49781312104611],[26.106843376131774,44.49774658869247],[26.10689965530301,44.49752275850067],[26.10692428659855,44.497424600092714],[26.106936115448875,44.49738115577919],[26.106958769830968,44.497311003982354],[26.1069858364187,44.49724168997244],[26.10701713019325,44.49717327136505],[26.107052654436416,44.497105920029085],[26.107092318634763,44.49703976915345],[26.10713602402537,44.49697491510662],[26.107183738914674,44.49691154180031],[26.107235360082733,44.496849775347044],[26.10729074934741,44.49678968910087],[26.10734978921333,44.49673138591354],[26.107456943029746,44.49658596806879],[26.10763894629261,44.496647361444005],[26.107716892085396,44.49653381408601],[26.107768398189886,44.496454430509935],[26.107785441076267,44.49642816405474],[26.10781421266994,44.496383821402375],[26.108810540160317,44.49683111597476],[26.108861858763348,44.49682041111696],[26.108907809283526,44.49681082648033],[26.110426779467524,44.49433354561455],[26.111238539278794,44.49302015910663],[26.111387720092466,44.4927627576801],[26.111544231153047,44.492500573025076],[26.1116757344189,44.4922802808154],[26.111752052234195,44.4921262527143],[26.111774156647755,44.492043943304466],[26.110656462618824,44.49140806946485],[26.110644869491356,44.49073206631527],[26.11094768933898,44.490566663140186],[26.111429095487253,44.4902683644115],[26.111759319344678,44.48996377880085],[26.11208627606935,44.489723459293685],[26.113912886456013,44.488370115278265],[26.114569418262203,44.48788316359524],[26.114743686699292,44.487753951357554],[26.114716448101454,44.48771717570348],[26.11486455027541,44.48761199176419],[26.114870715520286,44.48755165603748],[26.114834808373253,44.48738561263203],[26.114751658583014,44.48712117496256],[26.110818815950918,44.487569300566186],[26.11081880667789,44.48756921065503],[26.110742559694156,44.487108709798704],[26.109398345262317,44.487255089671905],[26.10933507781077,44.487033453835295],[26.106812914205776,44.487443659451934],[26.105481803580197,44.48758124248945],[26.105481810777626,44.487581158716516],[26.105778239070023,44.484988034895764],[26.105699926447873,44.48494961795521],[26.1056999247941,44.484949531569036],[26.105697586110903,44.48487189404646],[26.105754479012823,44.48477265440165],[26.107684304149835,44.48298263463933],[26.107684248188452,44.48298260098841],[26.10762327033089,44.4829459167681],[26.105617617514135,44.48473099843771],[26.10296500327026,44.484930670665356],[26.1029650168591,44.48493059223023],[26.103806136532032,44.48070045583066],[26.10360844919492,44.4807379275967],[26.10361694225486,44.48079516520135],[26.103616952634855,44.48079524790204],[26.10318065373199,44.48292109406452],[26.103180641503883,44.48292117788652],[26.103240132846633,44.482925535756465],[26.102852542171263,44.484947273266094],[26.102852526119758,44.48494735442539],[26.102710785686362,44.48566817178143],[26.102710783876756,44.485668208700154],[26.102793847959813,44.48600490888814],[26.10279386209349,44.48600499065214],[26.102693868105973,44.48612378592753],[26.10243211143356,44.486132636986504],[26.10243210100271,44.486132551586216],[26.102176928506612,44.48467315857464],[26.101817231267223,44.48270278826429],[26.10181721203928,44.482702702949915],[26.101712940674762,44.48227784415524],[26.10171292520084,44.482277757904164],[26.101662408423316,44.48192821144588],[26.101662405656015,44.48192813227075],[26.101666578952614,44.48172957303809],[26.101783279300324,44.48172304192655],[26.101783280252214,44.481722960014935],[26.10178339287479,44.48159902641979],[26.101783403916325,44.48159894620962],[26.101839974959642,44.48132652088224],[26.10193620757722,44.481094191734236],[26.102726823589844,44.4804876170445],[26.102726757561353,44.48048758258964],[26.102260629738215,44.48024094311885],[26.102260625576015,44.48024085675714],[26.102255183997197,44.48016564812257],[26.102361575494584,44.48005504927673],[26.102361514769186,44.4800550291701],[26.101742719856098,44.47985020284737],[26.10174276121709,44.479850130441065],[26.102285899806475,44.478899027510316],[26.102775472338184,44.47904402261598],[26.102775521647846,44.479044037433916],[26.102728923083415,44.4791252076227],[26.102728879279173,44.47912528365346],[26.102814763912505,44.47914831187955],[26.10286190545846,44.47906674753017],[26.103166171268985,44.47915550538362],[26.103166210455196,44.479155516700295],[26.103125260327413,44.47923299116344],[26.103125216626797,44.479233072593495],[26.10325486974572,44.479267272460575],[26.10330604250375,44.479189471061446],[26.103596982428254,44.479269638782746],[26.10398138808566,44.47899983000717],[26.104635718723436,44.47850735435619],[26.105023769396595,44.47816686331754],[26.105414459511298,44.47777462511472],[26.105933757537898,44.477143807664326],[26.105933700653708,44.477143791122124],[26.104583956711505,44.476749709454275],[26.104583991885843,44.47674964250766],[26.104762669965503,44.47641073187514],[26.104905235921127,44.47613732061136],[26.104905226745352,44.47613723519901],[26.10486338399263,44.47579224120948],[26.104047661142932,44.47584495452688],[26.103818594021767,44.47587322990308],[26.103818637512585,44.47587313767465],[26.103892150886388,44.475717943673665],[26.10389212409829,44.4757179232355],[26.103823941820366,44.47566516025777],[26.10380633624286,44.47560721452424],[26.103806345471863,44.47560717123265],[26.10381595630931,44.47556603417709],[26.104201431967237,44.47504351692132],[26.104739845791677,44.474321678234176],[26.104969001461846,44.474000920022846],[26.10507621484443,44.47380186240447],[26.105172996273897,44.47355696254216],[26.105173043531057,44.47355687027625],[26.105224222707072,44.47345667082134],[26.10535096024607,44.47314291403251],[26.105494749471042,44.47280037624217],[26.105549551666556,44.47258432504598],[26.105541220211045,44.472332522337474],[26.10550058044923,44.47214326518263],[26.105462945009656,44.472056224919655],[26.105506527269306,44.47205433032871],[26.1056272921638,44.472049081901304],[26.106080326429147,44.47202373028721],[26.106080278397815,44.47202365065641],[26.10597881803777,44.47185208390348],[26.10597886049014,44.471852069086445],[26.10634145106134,44.471723259709],[26.10634140831508,44.471723193526785],[26.10621691724353,44.47152820765715],[26.1058084049193,44.47165147311918],[26.105458284383293,44.47175331701839],[26.105421114080777,44.471691687971386],[26.105421154054294,44.471691674978956],[26.10574878596432,44.47158763800236],[26.10574874311551,44.47158756642086],[26.105538780267363,44.47122965634375],[26.105447492734005,44.47125793514887],[26.105383315923245,44.47114444251003],[26.105129889185385,44.47122209372059],[26.105095582843912,44.4711499494004],[26.105360369252953,44.471067100799644],[26.105360323822783,44.47106702564325],[26.10529118946706,44.47095054310223],[26.10529122570439,44.4709505319465],[26.10536167817316,44.47092849770752],[26.105361634068643,44.47092842613814],[26.105213140508962,44.47068518672536],[26.10514872657645,44.470579938710635],[26.104808713785285,44.470688780872706],[26.104767213561686,44.470602961818166],[26.104767249816113,44.47060295156248],[26.105476441389495,44.47039618743412],[26.105476398524708,44.47039611495261],[26.10520868516552,44.46994571283789],[26.10486049958934,44.470054004412134],[26.104804939666305,44.469962379468576],[26.104441816707194,44.470075299215914],[26.10439020081019,44.469995799242604],[26.104390247031603,44.4699957843892],[26.10469631665153,44.46989832223929],[26.10469627624988,44.46989824703333],[26.104695818610615,44.469897385696356],[26.10457117378087,44.4696631522268],[26.104513174891714,44.46954889924335],[26.104181335454648,44.46965056902532],[26.104114473103373,44.46955607992111],[26.104113738102846,44.46955504219472],[26.10411378685448,44.469555028216675],[26.104463782770804,44.46945598335065],[26.104463744969085,44.46945591261924],[26.104326518951503,44.46919870488603],[26.104138110336194,44.46925878993025],[26.104066872052698,44.46914305450835],[26.1038717932782,44.469197294901136],[26.103817036768103,44.46911358452927],[26.10381708801561,44.469113569626906],[26.105193043749754,44.46872043460289],[26.105193005981974,44.46872036567142],[26.105040573801972,44.46844092524943],[26.10362593899302,44.468849427163555],[26.103581029343424,44.468756757704185],[26.10372664048864,44.4687151004753],[26.103726597627304,44.46871502799314],[26.103670588962633,44.46862001381732],[26.103519332897033,44.468335418019805],[26.10332768657563,44.468391580517014],[26.103268157607378,44.468306990494135],[26.103268206375347,44.468306977416354],[26.103454337385717,44.46826009607522],[26.10345429573013,44.46826002088112],[26.103256783101678,44.46790169862495],[26.1030362486125,44.467974557203185],[26.102972729107098,44.46788116335723],[26.10297278407206,44.467881145718785],[26.10336382982176,44.46775704626533],[26.103363784603015,44.46775698190636],[26.10325263493064,44.46759563746446],[26.103126030783407,44.46763971538962],[26.103034061928106,44.467508747777366],[26.102785286836326,44.467600943916],[26.102724939599725,44.46751198480961],[26.10272498330637,44.46751196998147],[26.103142589939356,44.46737223984797],[26.10314254339584,44.467372171901765],[26.103031333278096,44.46721074954162],[26.103031384472512,44.467210731940064],[26.10343258400341,44.467070279301666],[26.103432541178137,44.46707020861914],[26.103284887380916,44.4668324766339],[26.102485117835343,44.4669724549558],[26.102456738289355,44.46689767422253],[26.10262081597467,44.46686859827354],[26.10262080437654,44.46686851738494],[26.10255505381927,44.46651239126661],[26.102352624272676,44.46655064725606],[26.102352612589154,44.46655056186806],[26.10233798853359,44.46647362958594],[26.10251182250213,44.46644169257343],[26.10251181219508,44.46644161347219],[26.102452658235425,44.466087379417345],[26.102181092990637,44.466117151950606],[26.102181081376116,44.46611707016206],[26.102117291835008,44.4658185666673],[26.102501550679015,44.46578158595187],[26.10250154026918,44.46578150145144],[26.10245930526922,44.46554909290931],[26.102459287285754,44.465549006683005],[26.10220587963859,44.46432139708302],[26.102205865511255,44.464321315319076],[26.102189935355074,44.46422857699003],[26.102189929903577,44.46422848884102],[26.102189297768348,44.46417689576199],[26.102189287290724,44.46417680766218],[26.102137708475222,44.46389354188719],[26.102129379866927,44.46385894543596],[26.10181346493443,44.46388879000192],[26.101761721292224,44.463584638831925],[26.1017617083537,44.46358455345621],[26.101710701683576,44.463350013696534],[26.102028703655197,44.463322407153],[26.102028690699086,44.46332232087741],[26.10196283323618,44.462986998719906],[26.10196281781878,44.462986915168415],[26.101848092777725,44.46236400748859],[26.101543785033403,44.46239619939569],[26.101543774608466,44.46239611399539],[26.101535385063308,44.462335872829044],[26.101826274572325,44.462306592328154],[26.101826262941973,44.46230650963974],[26.101758005638764,44.46194656641508],[26.10147225549728,44.4619794785048],[26.10147224755121,44.46197939128017],[26.101460146856766,44.46189751292065],[26.101593308166233,44.4618842012283],[26.10159329908357,44.46188412031502],[26.101529873937395,44.461547220733536],[26.101408956576805,44.46156377695942],[26.10139583754283,44.46148780280437],[26.10151529854975,44.46147594545166],[26.101486994008333,44.46133644669137],[26.101521269544595,44.46132741289321],[26.10152125794918,44.46132733200449],[26.10145529433319,44.461032251606184],[26.10127025368464,44.46105284648853],[26.10127024962845,44.461052765526055],[26.10126514567263,44.46095170496861],[26.101596699372298,44.46092171797378],[26.1015966876225,44.46092162898633],[26.10143184884076,44.46003230987111],[26.10104886046885,44.46007008831812],[26.101036554290317,44.45998238338363],[26.101343596406117,44.459951758204134],[26.101358937708873,44.45995022761377],[26.101089379274566,44.458556443401456],[26.101078381215014,44.458557506702576],[26.100811759684348,44.45858328388019],[26.100811749278375,44.458583199379646],[26.100795092496227,44.458475527615796],[26.101034879471186,44.45845122323386],[26.10103487405629,44.45845113688456],[26.101000389790723,44.45816216944902],[26.100981031608246,44.45804173117963],[26.10096896579918,44.457827419421164],[26.100972394731016,44.457827529019504],[26.10108234317957,44.45783104653789],[26.101097340210266,44.45783152639694],[26.10109865335857,44.457594919032275],[26.101131757497075,44.45711925270597],[26.101499071555192,44.457137204461915],[26.10147367428593,44.457018197855355],[26.10137539798127,44.456482518761],[26.101349081628467,44.456309379317986],[26.101306109090377,44.45610754433263],[26.101262466543474,44.455936942189865],[26.101179823339685,44.45593202037504],[26.101180730384364,44.45557636283247],[26.10120279303935,44.455573962846586],[26.101203488756216,44.455115077415925],[26.10083205158041,44.45510837213552],[26.100854263019876,44.454706113876895],[26.100854443350205,44.454702848631],[26.10123588920375,44.45471846883247],[26.10126913502519,44.45471983052716],[26.101308444437308,44.45457943149434],[26.101331549015722,44.45457627247775],[26.101343682763464,44.45453626034459],[26.10136201801631,44.45448716755766],[26.101403144298462,44.454409298741695],[26.101434037287,44.45435485224963],[26.101462955108822,44.45431096702969],[26.10151591947206,44.45425487460558],[26.101554406850074,44.45421921741891],[26.10161585052811,44.45416834678251],[26.10171885861261,44.45408208398928],[26.101808601103645,44.45401131962317],[26.101873617884713,44.45395991709002],[26.101927627864146,44.453915867354574],[26.101968103804587,44.453899056862326],[26.102202306824978,44.4538465869923],[26.102257912436134,44.45355550652175],[26.102261837009493,44.45349852816019],[26.102171708144972,44.45349880865604],[26.10102537699662,44.453502371880234],[26.10102533260314,44.453501162682976],[26.10102297629264,44.453437553177025],[26.101019088690393,44.453252318716196],[26.101177433260563,44.453246696829666],[26.101173130253834,44.45319389582994],[26.10143772443192,44.45319472328311],[26.10143170812728,44.45284495212125],[26.101278062202695,44.452807275135065],[26.101173046292672,44.452755800520094],[26.101124169592122,44.4527248431048],[26.101095914687665,44.452661348107476],[26.10113293852059,44.45251638226797],[26.101520003408673,44.45257646705927],[26.10161883805264,44.45233154768617],[26.101683583617746,44.451924354394144],[26.101684555289122,44.45185699436802],[26.101691238050183,44.45171020366539],[26.10170377040389,44.45161935339737],[26.101703732647284,44.45161935016648],[26.101490853192995,44.45159940082044],[26.101437863196825,44.45156697532248],[26.10143788830966,44.45156690847528],[26.101511465634765,44.45136911291725],[26.102344653740662,44.451516580690324],[26.102385308067632,44.45141460271231],[26.102385454398775,44.45141423767122],[26.10252742941485,44.451434714493715],[26.10254109748732,44.451436685894926],[26.102595164402366,44.45127317521011],[26.10266673380479,44.45110788036295],[26.10284424327414,44.451147934613154],[26.10305701745324,44.4511959451467],[26.10307438657559,44.451199863898985],[26.103103380552415,44.45108755414925],[26.103156573053145,44.45091888111753],[26.103174403100784,44.450856490638344],[26.103348625918912,44.45086893386208],[26.103381345293435,44.45068760168457],[26.10338681669928,44.450515231476246],[26.10338910497755,44.450308474659884],[26.103371394754735,44.450306289142404],[26.103308767937587,44.45029856103476],[26.103308979191862,44.45029587059709],[26.103322190014488,44.45012735230693],[26.103649860972112,44.450154555666316],[26.103700388264457,44.44982469454607],[26.103788139570415,44.449831408570745],[26.103808131453963,44.44983293895178],[26.103823930666774,44.44983414769725],[26.103824921736738,44.44982505225414],[26.103825013603956,44.44982420443234],[26.103863524288812,44.44982815983329],[26.103985479459432,44.44984068663722],[26.10401798528348,44.44966284575566],[26.104078270433785,44.44945365394361],[26.10406411842014,44.44945276840133],[26.10374829614484,44.449433018483155],[26.103629193160547,44.4494228809502],[26.103376314874748,44.44941493731247],[26.10320116194276,44.44941370314848],[26.102892856155208,44.449390455346375],[26.102893278193267,44.4493889337762],[26.102953826866838,44.44917017456414],[26.10339907174193,44.449180322342265],[26.103654890252052,44.449151076069704],[26.10365428012367,44.44914860158302],[26.10362738828191,44.44903947350906],[26.103992833131862,44.44899567830106],[26.104065431115977,44.44898499013877],[26.104108072868737,44.44897732347345],[26.10410806242544,44.44897723717363],[26.104086403076938,44.44886397452341],[26.104070359540813,44.448865551081866],[26.103971001922478,44.448875312531705],[26.10396230124427,44.44881209196538],[26.103959435611703,44.4487250599148],[26.103941516087293,44.44872590421788],[26.103512673857274,44.4487461132236],[26.103503631265955,44.44869628471617],[26.1034843206133,44.448589887730094],[26.103482035610927,44.44855160153126],[26.103472118709508,44.44847788417489],[26.10347671594834,44.44837295676792],[26.103458331557334,44.44837247981384],[26.103397434897637,44.44837089907863],[26.10339749525373,44.44837024327082],[26.10340920541482,44.448242283919434],[26.10341742024362,44.44813618435774],[26.1034031888135,44.44813500430435],[26.10338957652858,44.448133875787036],[26.1032829295752,44.448125034347754],[26.10328864801119,44.448000429571145],[26.103288669143893,44.44799995685211],[26.103338715951974,44.4480033017419],[26.103353259991895,44.44800427353652],[26.103367439025334,44.447910677191075],[26.103376487270133,44.447857657326715],[26.10341488660253,44.44772715323478],[26.10323937103516,44.44770566049094],[26.103220794253076,44.447703386237336],[26.103220815198632,44.447703298730055],[26.10324556366117,44.44760260932583],[26.103306389244242,44.44760649939388],[26.103334418907608,44.44739249105072],[26.10349399576104,44.447415813799374],[26.103528629916052,44.44727021356236],[26.103290628196117,44.44724351068977],[26.103311040939538,44.44714310763778],[26.103363170153525,44.44711544703077],[26.103363187295823,44.447115357760666],[26.10338935229669,44.447013144214715],[26.10363843339816,44.447042089201126],[26.10363844696047,44.447042009866216],[26.103659213185217,44.44695515673158],[26.103669501162763,44.44691214465539],[26.103735316627613,44.446915977505824],[26.103751638875636,44.44684360695851],[26.103908150169104,44.44684153799811],[26.103908142238843,44.44684145167363],[26.103897053568762,44.44676619060307],[26.103708902574088,44.44678042911727],[26.103708892063093,44.44678033921794],[26.103676886194926,44.4465771476811],[26.103490759134587,44.446592272329475],[26.103490772490908,44.44659218219636],[26.103525925041843,44.446415314592635],[26.104206984896695,44.4463555122895],[26.104206971941462,44.44635542601428],[26.10416440101944,44.4460813893554],[26.10416440184754,44.44608130114505],[26.104182931086903,44.44585593201082],[26.10427337693354,44.44541458871666],[26.104273364012805,44.44541450424117],[26.10423026901884,44.445181089894255],[26.103814189337573,44.445135712822086],[26.103797467558007,44.4451338894051],[26.103797489723636,44.44513380008564],[26.10385554528153,44.44489620395589],[26.103584264583656,44.44487988737523],[26.103565430327482,44.44487875513428],[26.103565431259543,44.44487867232308],[26.103566778560435,44.44460060158272],[26.10337605666828,44.444647304277844],[26.10324085053467,44.44467111905187],[26.10318032421028,44.44478579773332],[26.102956906822595,44.444761017851704],[26.10295691400186,44.44476093317931],[26.102972802846455,44.44462960200924],[26.102972816340486,44.44462951907511],[26.102985987124743,44.44456158061548],[26.102985981585306,44.44456155366904],[26.102959711498695,44.44449794164642],[26.102964649233638,44.44449644246855],[26.103305751753894,44.44439286245753],[26.103305680038122,44.444392791158016],[26.103213263286527,44.444301460047434],[26.103213284608746,44.44430139233692],[26.10326567732822,44.444134265262946],[26.103414835058494,44.44407674386095],[26.10327204349073,44.44385610849583],[26.103419381265198,44.44380121677397],[26.10330893940376,44.4434885352006],[26.10336694628065,44.44347681132342],[26.103169948174305,44.44302364225229],[26.10281142654842,44.443112174815234],[26.102998926242417,44.44289667295568],[26.102770160591984,44.44288381550445],[26.10245461361296,44.442871917550455],[26.102463751168177,44.44275445978424],[26.102102947337208,44.4427038509369],[26.10210055119791,44.44268768387167],[26.10205363523123,44.4426767836408],[26.102018571060327,44.44266626786997],[26.102025301812162,44.442653716016956],[26.102020485612506,44.4426491928144],[26.10195469209444,44.442638537502155],[26.101975309227242,44.442571098751266],[26.101979870378408,44.4425342252132],[26.101770921465068,44.44250254593342],[26.101328662246566,44.44243800503504],[26.101328668154753,44.44243791947515],[26.10134684507229,44.44227887430906],[26.101146155986363,44.44224368044289],[26.101146161963264,44.4422435984825],[26.101169872284014,44.44207823330773],[26.101246084308606,44.44208629507001],[26.10124609284888,44.442086215784585],[26.101273569554156,44.44192344273644],[26.101352028447135,44.44193088754715],[26.10135203805476,44.441930798351],[26.101360662502795,44.44187533115484],[26.101295395793752,44.44186807509774],[26.101295402975126,44.4418679904255],[26.10132315791803,44.44165704634488],[26.101445187951963,44.441665008358484],[26.101452737282635,44.441634226682595],[26.10145614894436,44.44163479904174],[26.101551344600338,44.441339280119124],[26.101594644605253,44.441347386239826],[26.101633224730417,44.44124194216425],[26.101302434191325,44.44113939762817],[26.101209662517007,44.441319957074384],[26.10080047004208,44.44131688736354],[26.10077531853021,44.4413187558628],[26.10077532079091,44.44131867663868],[26.100781127215313,44.44098627944055],[26.100798381376077,44.44096420250249],[26.100945682832997,44.44101158659923],[26.10101465033427,44.44087109951153],[26.10113040925654,44.44064529823092],[26.101130370165436,44.440645290512734],[26.100963130730836,44.44060994670748],[26.100924160974067,44.44064462469466],[26.1008995210138,44.44069538463868],[26.100685082721938,44.44064341832251],[26.10068565553737,44.440642228296525],[26.100791407880262,44.44042262638998],[26.10098071638247,44.44042285820272],[26.100984037487173,44.440127449212824],[26.100704540099297,44.44011435529628],[26.10070339965901,44.440114301637315],[26.10070728962615,44.44003579968524],[26.10074869267018,44.44002871788234],[26.100748688462303,44.440028628821295],[26.100744564268723,44.4399543902771],[26.100740445499078,44.43988023808235],[26.100752325439082,44.43985421756285],[26.100828847518148,44.439761462363464],[26.10090103528605,44.439625617698894],[26.10090103491443,44.43962553220045],[26.100899706227505,44.43958437996483],[26.10131526488299,44.43965633772956],[26.10146260651041,44.43920212299233],[26.10146257853572,44.43920210526544],[26.10144732724585,44.43919250803923],[26.101409099183524,44.43919535865656],[26.101404432445737,44.43918560573945],[26.101240484963423,44.43920549155384],[26.10119246071006,44.439062617146035],[26.101166574636224,44.43906392320352],[26.101155860740597,44.439075294406926],[26.101137480926393,44.4390648078966],[26.101137518594193,44.43906474092675],[26.101165347492206,44.43901590820912],[26.10116529726964,44.43901590960005],[26.101086099392603,44.439018134542394],[26.101080058587225,44.439008984557006],[26.10105778708231,44.43896386451276],[26.101038025183982,44.43896048817027],[26.100989216099507,44.43895779801984],[26.100989253390477,44.43895771125321],[26.101014000013453,44.43890131340915],[26.10106396542217,44.43891030500317],[26.10115600313759,44.438911318855276],[26.101261609106615,44.43888065871482],[26.10126155997375,44.43888058539327],[26.101162132585,44.43873262702119],[26.101162171229205,44.438732611343035],[26.101268492476745,44.43868866977475],[26.101268452187423,44.438688599066815],[26.101249046085048,44.438654692328285],[26.10124908350755,44.438654678462086],[26.101275570768433,44.43864497650013],[26.101275579308208,44.438644897214715],[26.10127728719603,44.438629959949644],[26.101223684852876,44.438604390492394],[26.101183205343084,44.43856373256648],[26.101161716251752,44.43851886050284],[26.101161712094783,44.438518774141315],[26.101159267857362,44.438473868021966],[26.101167588706907,44.43841870172599],[26.10134405491935,44.438447902338716],[26.10142052834496,44.43848279916625],[26.10159092149042,44.43855349939642],[26.10171798095691,44.43859876912599],[26.101945989776635,44.438274253663955],[26.10207987772082,44.43802067128299],[26.102091814618234,44.43800770938673],[26.10193520904378,44.43796211258269],[26.101852736647135,44.43795228280201],[26.101853767255854,44.437945058143235],[26.101647165239708,44.437915750730085],[26.10161403081921,44.43791128933031],[26.101526291179145,44.43789947496794],[26.101442561839928,44.43787515421975],[26.10156981118869,44.43762614107625],[26.101652714471193,44.43764865896129],[26.101652781007516,44.43764859080897],[26.101824376916202,44.43747345223081],[26.102806687105154,44.43773930653205],[26.10273041209557,44.43784761215964],[26.103153675962307,44.43804447556735],[26.10326034414494,44.437882500674036],[26.10393915827568,44.43804577317833],[26.103995191027025,44.43792284352527],[26.104081342120278,44.43790899749565],[26.10416287471934,44.43765932598509],[26.104176427199835,44.437589753719635],[26.104186637159092,44.437537365042324],[26.104207951633263,44.43751371413925],[26.10422082168338,44.43749695647396],[26.104230941151773,44.437479171842156],[26.104262998834795,44.43743849790094],[26.10431046495022,44.4374024961269],[26.104357746700018,44.43736993332562],[26.104374633674215,44.4373427014037],[26.104394690517363,44.43733634772468],[26.104404894360762,44.43731627619292],[26.104482415601627,44.43729124437431],[26.104482380315922,44.437291172718446],[26.10446943234548,44.43726503880847],[26.104469471022256,44.43726502492893],[26.104526088815394,44.43724516884284],[26.104634472504333,44.437201753767376],[26.104873878809144,44.43708877881926],[26.104873819831912,44.437088716396104],[26.104838321348236,44.43705124110788],[26.10483837344477,44.43705120639613],[26.10489070907507,44.437016188943026],[26.104911250051615,44.43700526820921],[26.10491118243763,44.43700521397095],[26.104674958868838,44.43681663497235],[26.104674987722223,44.436816567187705],[26.104700931952483,44.43675615437541],[26.104734986792668,44.436686840000206],[26.104816822693397,44.43652968284381],[26.104816778512095,44.436529671576814],[26.104623617977605,44.43648014571751],[26.104535958460424,44.436455806411004],[26.104440117423685,44.436420935084406],[26.1042484698797,44.43634982471599],[26.104158037561106,44.436308403771996],[26.103851928069574,44.4360320574535],[26.10379624542792,44.436064726659005],[26.10375645784421,44.43601096125978],[26.10375645122326,44.4360108776226],[26.103747904344434,44.43593795605439],[26.103747908818544,44.435937927209814],[26.103759944632113,44.43589570264017],[26.10368911122357,44.4358944588947],[26.103644042796976,44.435893671006816],[26.10361585371337,44.4358883589321],[26.10358616051446,44.435890393166986],[26.103543008959832,44.43590737720077],[26.103508182709152,44.43589859572949],[26.103412628060592,44.435887672125055],[26.10326798112896,44.43587264542823],[26.10314978376948,44.43585313213524],[26.102943740285056,44.43582370736581],[26.10291884349244,44.43585948489928],[26.102860943491244,44.435908034641166],[26.10280859752731,44.4359321141784],[26.10276296302167,44.43594636995108],[26.10269971856843,44.435956550877734],[26.10264322120424,44.43595969685591],[26.102544717219953,44.43595543094729],[26.10252543170321,44.435970601466515],[26.102314199715295,44.435922369959634],[26.102243288881553,44.436014406162805],[26.10215304102513,44.4360093859123],[26.102149602380173,44.435984839048984],[26.102192637648525,44.43589377766274],[26.1019507070431,44.43583750622523],[26.10184008708608,44.43605644671191],[26.10183358790296,44.43606944539836],[26.10182439310249,44.43608759247585],[26.101812945994777,44.43609657505546],[26.101801506540298,44.436101937669875],[26.1017885554033,44.436105097413495],[26.1017759551366,44.436105904666086],[26.10176341868217,44.4361046547426],[26.101755057882478,44.43610209494793],[26.10174615300602,44.43609906526192],[26.101727278870662,44.436096214976395],[26.101456142092584,44.43602853231674],[26.10145443326989,44.43603286193081],[26.101277161158894,44.43598853013812],[26.10127875320336,44.43598519169278],[26.1009729674637,44.4359087266731],[26.100970882496558,44.43591269904706],[26.1009115223287,44.43589651266007],[26.100908582047808,44.43590247164],[26.100647268311494,44.43583679619705],[26.100650090313945,44.435831287490686],[26.100589615576663,44.4358164591578],[26.10059133450454,44.43581311948267],[26.100284793066685,44.43573638638105],[26.100283199310727,44.435739637526744],[26.100107059817137,44.43569538554202],[26.100108529735834,44.435692227410506],[26.099629631022697,44.43557238687827],[26.099606443426147,44.435565962955586],[26.099590824438422,44.4355624613244],[26.09957490614516,44.43555491161366],[26.09956467856756,44.43554638923269],[26.099558522142374,44.435534099222664],[26.099558506202886,44.43551740487087],[26.09956286823645,44.43549477984319],[26.099572060128583,44.43543502406728],[26.099419854801898,44.435412672535534],[26.09946343571164,44.435072668922366],[26.09945636171217,44.43505519023621],[26.099440666100502,44.435040250054236],[26.099419560351503,44.435029276865926],[26.098829055569897,44.434918679035206],[26.098445713100975,44.43484687878336],[26.098325079355845,44.43482428362896],[26.098286402737973,44.43482413959984],[26.09825429226665,44.434832810258335],[26.098228121842443,44.43484451277333],[26.098209504625064,44.43485886511376],[26.0981963560357,44.4348816540453],[26.098034714573725,44.43489842658766],[26.0979183800122,44.4348974346168],[26.09790705967627,44.43498781623309],[26.097894649643514,44.43508690087947],[26.09788312531755,44.435101895055325],[26.097857237246952,44.435114188746006],[26.097637555059684,44.43512063878055],[26.09763852888349,44.43509960928306],[26.097650008002525,44.4350912307332],[26.097662690477076,44.43507954187688],[26.097666974988663,44.43505074353264],[26.09765802784528,44.43502667142813],[26.09763070642185,44.435002758556294],[26.097630479237306,44.4349841042184],[26.097622963375734,44.43490115584103],[26.097120524701644,44.434903982022924],[26.097108932211896,44.43486698882689],[26.097088518904133,44.4348473970528],[26.097055291436803,44.43483871322751],[26.09701114317809,44.434841752321745],[26.096993543304023,44.43483326730169],[26.096678820054436,44.43482863645138],[26.096660649800537,44.435367497937285],[26.09640659387,44.43538967866031],[26.096425842393582,44.4352239377247],[26.096242427105253,44.435217469543886],[26.096132574025763,44.43514200606001],[26.095680999562923,44.435150540122294],[26.09569805002806,44.4354607350491],[26.09533298899826,44.43550335784227],[26.095352357378374,44.43508406904837],[26.094786157012138,44.435044379338244],[26.094770350510686,44.43480839069429],[26.094666352138518,44.43479044597598],[26.094609990257545,44.434850286168476],[26.094243328725955,44.434987538457456],[26.09418223173506,44.43491087226377],[26.094213033641537,44.43477830141822],[26.09385016512589,44.43477369559622],[26.0938418627832,44.434868702378175],[26.09379939762953,44.43515845811589],[26.09360743441696,44.43519487906539],[26.09359179252015,44.43475995603498],[26.093297864481443,44.434764051976174],[26.091920012974757,44.43474180741634],[26.091845709676107,44.434782829665636],[26.09170822903621,44.434785259210834],[26.091611132908685,44.43473617155051],[26.090711984544967,44.43471638533207],[26.09071447435054,44.43495010304203],[26.09067417869347,44.43527926375174],[26.09048699951095,44.435443877982415],[26.090105150158085,44.43522686689935],[26.089799831431115,44.43513757602306],[26.089672405428182,44.43511154614147],[26.089598530480902,44.435102741183584],[26.0896215533742,44.435065225219134],[26.089729141260992,44.43490387724945],[26.089899389798422,44.43474961273108],[26.089552342929032,44.43473120556965],[26.089455522946658,44.4349205181909],[26.08920446370125,44.43486040705248],[26.089115871327383,44.434866559327276],[26.08907709457391,44.4351115662587],[26.0885941269125,44.43512968521838],[26.088583362002517,44.4349822829864],[26.08835606085484,44.43499787065279],[26.088347121532593,44.43497734473532],[26.088368374475593,44.43497062235144],[26.088347960236206,44.434854574658885],[26.088275399753144,44.43477534658938],[26.088005215373496,44.43488650254465],[26.088074302479747,44.43504585180958],[26.087911639146494,44.435103362730686],[26.087955801082337,44.435243440321734],[26.08783638907228,44.43527079041878],[26.087780347983102,44.435086964964576],[26.087629398737644,44.435110397369066],[26.087571873060085,44.435162858767406],[26.087632842576376,44.43531882699027],[26.087544922747167,44.435336073291474],[26.087484531824956,44.435237916786676],[26.087347770724183,44.43512769192836],[26.087667634568177,44.43491678468864],[26.087544667121602,44.434856237654664],[26.087103905881033,44.43513629797429],[26.08661322269828,44.43533200482485],[26.086534764176456,44.43524490244693],[26.08694831203633,44.4350730338639],[26.087308329373677,44.43485477764805],[26.087258806362186,44.43480253330457],[26.087019338341026,44.43477967610576],[26.086839676249816,44.434789304585365],[26.086770216959493,44.43474009823633],[26.086691244372574,44.43473851642124],[26.08655802333695,44.4348923847112],[26.086387921775103,44.43481671617335],[26.086159539412478,44.43505643753949],[26.085963315543026,44.43497108399211],[26.086059855558226,44.43489327261524],[26.08616455133582,44.43482549065306],[26.086209666174632,44.43477490558902],[26.086259920583338,44.43471312868886],[26.086319782419412,44.434635270248314],[26.086148141278237,44.43463226948702],[26.085986605264434,44.43462931145157],[26.085697219357996,44.43494592911587],[26.085513358172115,44.43502687669777],[26.085292644713395,44.43499026459076],[26.08480497832481,44.43499575377745],[26.084758001097693,44.435193299903155],[26.084592832067823,44.43514968400473],[26.084625974846613,44.4346056722516],[26.084471022149692,44.434603104068145],[26.083710455244542,44.43458320222392],[26.083996420752335,44.43493130322939],[26.083234171176404,44.436545089658985],[26.083201589477742,44.43658523966909],[26.083103067813003,44.43664271185496],[26.08281713484752,44.43667059907839],[26.08249429975386,44.43669946659164],[26.082493104620834,44.436699573478016],[26.082466888999775,44.43656660161654],[26.0824474859301,44.436559474488156],[26.08238371229091,44.43614488790432],[26.082458767524525,44.43611909395943],[26.08241837696853,44.436049836658],[26.08215479323147,44.436130394481594],[26.082023373678794,44.436148928235774],[26.081702453910907,44.43609080880055],[26.081371950817648,44.43607369538344],[26.08137125959005,44.43603585615238],[26.08118813840933,44.43605079822007],[26.081168953339553,44.43581074075497],[26.080407146213428,44.43586199395737],[26.080351324314154,44.43689167670278],[26.079433580862304,44.436969406751246],[26.079407135589776,44.436613584135344],[26.079087832814764,44.43662723728782],[26.078828015795263,44.436642498830814],[26.078755686155393,44.436157890563464],[26.07877148089172,44.43608622819103],[26.078730988044196,44.43547816616497],[26.078912921323244,44.43536507514104],[26.07884240557666,44.434682650331126],[26.077524956851285,44.435188636332704],[26.077346299640485,44.43521357998959],[26.076608871200282,44.435498353722025],[26.075312267104874,44.436010153607704],[26.074853734078125,44.435703581609374],[26.07296970933723,44.43664277903582],[26.07161216824969,44.43738513095951],[26.071366778246496,44.43751931516667],[26.070746841299226,44.43781854009309],[26.070364171610613,44.43800323990685],[26.070055904179405,44.43819627152187],[26.07016431985595,44.43825811796755],[26.070330253939396,44.438418045625326],[26.070496188942506,44.43857797303597],[26.07093745461076,44.4388870400293],[26.071197671655543,44.43900183862973],[26.07115303601879,44.439056660252966],[26.07141370842586,44.43911223721389],[26.07167438132892,44.43916781356945],[26.072052505282837,44.439183386331884],[26.07210539682287,44.439209370584585],[26.072082981892752,44.439251173825625],[26.072173279825858,44.439270834931335],[26.072364604429787,44.439311530833706],[26.072768750845118,44.43960634574494],[26.072754391710973,44.43975259175184],[26.072706377699237,44.439932692974054],[26.072525156327504,44.44005348207308],[26.072640315166705,44.44013197444987],[26.07274043283753,44.44012762807592],[26.07300504970761,44.44035446917561],[26.072896044374495,44.44061444316585],[26.073278337027723,44.44074578676779],[26.072996867122264,44.44118828986052],[26.07257782096102,44.44099705686012],[26.072504600606837,44.44112817587572],[26.07263509340553,44.441292285221195],[26.07258826649947,44.44130891342314],[26.07242192168079,44.4412492146539],[26.072209709484707,44.44156477460835],[26.07257292648703,44.441724022807634],[26.072968733921048,44.44197265548063],[26.07284297215413,44.442105643149844],[26.07211137682763,44.441717021835395],[26.071878687317056,44.442074113958185],[26.072421111258684,44.44243152497988],[26.072321611556973,44.44251005384147],[26.073003875094717,44.4430613903995],[26.072869364761555,44.44315362749585],[26.07289884948333,44.44318810549233],[26.072868302896556,44.44320811584096],[26.072896287782132,44.44323217688529],[26.07274345709388,44.443325623322416],[26.072709244565555,44.44329498838785],[26.07251965471885,44.44340407586785],[26.071551093657916,44.44254506085101],[26.07145709230397,44.442651230267984],[26.071405819350645,44.44271003920449],[26.0713162983387,44.44283022420969],[26.071554810406727,44.44300795991284],[26.071428754619784,44.443084697515786],[26.071363685419797,44.44303697623897],[26.071251694921298,44.44314259653687],[26.071099722124266,44.443033591023486],[26.071009457826506,44.4430899714146],[26.071148023433484,44.443196818472735],[26.071039363527095,44.443266604085416],[26.07135378578725,44.443498033757386],[26.071282228201582,44.44354427324666],[26.071469352202154,44.443699925279574],[26.071013593468493,44.443925681899145],[26.070748769201167,44.443571422135676],[26.07058659329511,44.44368012878727],[26.070474368854143,44.443509291317795],[26.070378744673835,44.443584316544474],[26.0705354040349,44.44380937211025],[26.07044117662904,44.44384450422073],[26.070426109535667,44.44382598096028],[26.070402112334225,44.44383676620105],[26.07028326625425,44.443671301572934],[26.07025977771542,44.44368716706532],[26.07037836128556,44.443837774878475],[26.070297230035038,44.443876589526816],[26.07057407266724,44.44425848377082],[26.07047431558115,44.44429762854204],[26.070516232379404,44.444354237534085],[26.070406858115735,44.44439305961872],[26.07024420533624,44.444138162124794],[26.07015367083182,44.4441719358807],[26.06995390291071,44.44390523125515],[26.069906883001945,44.44394077858851],[26.07009215100396,44.44425015597964],[26.069980865618877,44.44427057238868],[26.070041022662114,44.44437734645014],[26.07020823426488,44.44473261619384],[26.070316072068454,44.44497723428478],[26.069999584613285,44.44500915821458],[26.0699628315624,44.44490028081253],[26.070029338743446,44.44489055895876],[26.070021711916368,44.44484231830931],[26.070072534003774,44.44483907254317],[26.06995910246266,44.44451343353019],[26.06985543278661,44.444534002490165],[26.06976565135067,44.44431518710918],[26.06959896767863,44.44434410333735],[26.069536635448035,44.44425009397988],[26.069438603609587,44.444277269184155],[26.069470607497436,44.44435972223593],[26.06939693443166,44.44437663094172],[26.06945668164203,44.44455367377739],[26.06935669280892,44.44457288430644],[26.06939729961715,44.44471222700134],[26.069485505808725,44.44503609899058],[26.06918569107727,44.44508237968192],[26.069135346545927,44.444930061025175],[26.069093453114217,44.444948044972655],[26.068907859042987,44.445073450775205],[26.06877375448021,44.44498230897996],[26.06868114693889,44.44504406483599],[26.068518671895053,44.44494870975155],[26.06841333440413,44.44500487099273],[26.068640027728797,44.44518143794419],[26.068456327180318,44.44529926486617],[26.068439173726862,44.445281364139504],[26.06823778669389,44.44541503678339],[26.068058164667395,44.44526337635153],[26.067982091294606,44.44532930397616],[26.068571239929952,44.44581690163304],[26.068387264744906,44.44593086095476],[26.068300185380227,44.44602604481852],[26.068195871165535,44.44614042745232],[26.067783370009852,44.44578833480731],[26.067567782053786,44.44561510797122],[26.067472148561897,44.445689338776134],[26.06737794720982,44.44574996562721],[26.067486426386257,44.445899898200956],[26.06730736613565,44.446020928337624],[26.0674588758487,44.44617218132336],[26.067580727709394,44.44631687499611],[26.067254904380242,44.44646424422017],[26.067259503816977,44.44646838574324],[26.067408691558022,44.44659929334583],[26.06724638475047,44.44669966219169],[26.066956128090506,44.446477424361],[26.066725298517785,44.44664389982749],[26.066413952325536,44.446447699867555],[26.066331363412928,44.44650659588045],[26.06654272159308,44.44665146949872],[26.066381438189588,44.44682648406847],[26.06649121006307,44.44687829418128],[26.06615786256812,44.447249539428604],[26.06601224310202,44.44719012100251],[26.065961186248888,44.44726116565998],[26.065880085781558,44.44738043860156],[26.06533407670638,44.44727061635317],[26.06528640142584,44.447347946865584],[26.065368117715117,44.447363617538244],[26.06535150924691,44.44742709099936],[26.06530834291907,44.44742252206179],[26.0653618742674,44.4474713909759],[26.065739517514526,44.44774021038655],[26.06556622034694,44.447888120809935],[26.065659373586985,44.44794347299428],[26.06560268124645,44.447991035266014],[26.065480585276312,44.44793459772279],[26.065385901282475,44.447997297499505],[26.065357996560987,44.44798504209148],[26.0651718045067,44.4478730130389],[26.065090572334057,44.447941624521135],[26.065043123016295,44.44790987036348],[26.064716101697147,44.44769762251002],[26.06459406330258,44.447782054600694],[26.06449581173366,44.44785028645837],[26.06362759487364,44.448079918265485],[26.06323499495858,44.448170421904024],[26.063068505996934,44.448227785199336],[26.062893323809732,44.44833717040938],[26.062635464715513,44.44892554274756],[26.062422871132277,44.44931569027306],[26.062494174619083,44.449425765321976],[26.062623308033075,44.449943660972636],[26.062783753633067,44.44993385841737],[26.06282044684274,44.45007147634929],[26.062891405927772,44.45010600672907],[26.062928303871193,44.45023765556482],[26.063004908697756,44.45022661859858],[26.06312124430439,44.450269630899356],[26.063272803672387,44.45077060088356],[26.06312116215314,44.45079261532474],[26.06313673994457,44.45085396670375],[26.06304290073178,44.450865976386154],[26.063128687369677,44.451197022339116],[26.063108729232848,44.45187860688236],[26.062301735934803,44.45199046789368],[26.062154779349594,44.451496959365784],[26.061758514740294,44.45156239974604],[26.061571851612566,44.4508406416088],[26.0616682911183,44.45060486369052],[26.061827059043406,44.450406479135005],[26.062206504512986,44.44996017359967],[26.062483975321715,44.44995096914825],[26.06237505816321,44.44952940985566],[26.062238572589685,44.449790766513],[26.0616200568847,44.45034975753371],[26.06154724147406,44.45034343246904],[26.06127783061632,44.45056729443212],[26.061004346106238,44.45079933928651],[26.06096376023299,44.45122439587927],[26.06076265211528,44.45165401495342],[26.060629161109425,44.45193885896373],[26.06056008796119,44.45209415060414],[26.06048686252202,44.452271747778695],[26.060397034395727,44.4524409239747],[26.060357829298766,44.45273811053312],[26.060392390795595,44.45307550875737],[26.060379827054128,44.453343418949494],[26.060157681673225,44.45330147145002],[26.059995092091683,44.45326272531339],[26.05998056641477,44.45330931200034],[26.05992566190301,44.45331580465304],[26.059895962537894,44.453375701364294],[26.059832119109103,44.45337233283938],[26.059832280909635,44.45338732564992],[26.05937342843342,44.45327947144078],[26.059336050153792,44.45334960142704],[26.059285128329275,44.45334990018495],[26.059149027739075,44.45369111719952],[26.05927454576638,44.45374197635808],[26.05936644289202,44.45377796816219],[26.059146569016058,44.45421389889579],[26.058090219929994,44.4539439358386],[26.057699570646147,44.45382573207015],[26.057704010894977,44.45379645774298],[26.057646256122393,44.45393633197628],[26.057729953365033,44.453932828212764],[26.058781846031426,44.45423125914603],[26.05865366983581,44.45452379101294],[26.059725765357342,44.45476364809141],[26.059562318631414,44.454940896175216],[26.05931091947255,44.45485120600716],[26.058999629142733,44.4550870754334],[26.058824817007757,44.4550151597236],[26.0587409687075,44.455103798602316],[26.05866831587964,44.45505863425851],[26.05834445927024,44.45530977626819],[26.058255009846423,44.455279916765136],[26.058049604389932,44.455499965654695],[26.056850890934186,44.45501275784051],[26.055318389376517,44.456860579440175],[26.05601501371086,44.457169275543905],[26.055580089786186,44.45751418847807],[26.055317455946117,44.457347660915175],[26.054964802944752,44.457668751356096],[26.05495885122061,44.45771857817871],[26.054891642390363,44.45773142069811],[26.05475182330167,44.45785362930495],[26.054590283562472,44.4578391750211],[26.05452386126186,44.45786896633184],[26.054416105255985,44.45775600526511],[26.054217065970434,44.45783031030964],[26.054190611340886,44.45779778810401],[26.054037071723247,44.45786092988498],[26.054072331983967,44.45790429599008],[26.05400016103075,44.45794412198857],[26.053810767844418,44.458020982134904],[26.053725825555635,44.45831908907356],[26.053391583917804,44.45848455094174],[26.05333056995796,44.45839883644672],[26.053030669370845,44.45858421764268],[26.052958250318003,44.45852084002331],[26.05271409033615,44.458640538027446],[26.052322500416675,44.45821643458144],[26.05221874624055,44.4582637275546],[26.052350687852027,44.458401458373345],[26.05214758923063,44.45850224023223],[26.05220267388558,44.45856883131152],[26.052088910586413,44.458625487833714],[26.051176533271956,44.459088360240415],[26.051106062914698,44.45900629684827],[26.05067118791891,44.45921385621729],[26.050408799765044,44.459337760253085],[26.049863582378883,44.459609544457656],[26.04992524984712,44.45968233044776],[26.049549436451873,44.45988059590668],[26.049512158258583,44.45985124249107],[26.04901942946904,44.46008597487245],[26.048964438022765,44.460027166542396],[26.047840804345903,44.46057678707277],[26.047891660509528,44.46065430081221],[26.047265837368254,44.46094745939588],[26.04719471916821,44.46087662282725],[26.046344003548857,44.4613336086124],[26.046075766019364,44.46147559318979],[26.04603562571227,44.461517195723324],[26.045987461385753,44.46154457142131],[26.046922318814072,44.46255066125947],[26.04603280530702,44.46305690314189],[26.045802451460887,44.46286215308277],[26.045365059696923,44.46242117916816],[26.045320154072854,44.46242033573797],[26.044628022937705,44.462769346852525],[26.044071706415416,44.46218589035719],[26.043972242346502,44.462230030863395],[26.044130733548375,44.46241119424232],[26.043655839251162,44.46263379447788],[26.043757437620975,44.462746741849976],[26.043646283711546,44.46280613767182],[26.043703446395405,44.46286493748348],[26.0432338162843,44.46306825374928],[26.04313437123022,44.46311287034201],[26.04284197602893,44.46326045291149],[26.04273115888196,44.463163097356215],[26.042620971714378,44.463219756154835],[26.04216268668365,44.46343091912265],[26.04213673278927,44.463441959394004],[26.042119111769935,44.46342027889686],[26.041812428684526,44.463586990322625],[26.041665639431987,44.46367342621495],[26.041880944686543,44.463883822167205],[26.04157647617682,44.46405364453066],[26.041550131114,44.46403045155117],[26.04143143754666,44.46410271313462],[26.04148855589564,44.46415840941353],[26.041443290039393,44.46419134548185],[26.04154639686418,44.46427790134611],[26.041585336099864,44.46426211508238],[26.041697247470097,44.46435950665706],[26.041435886303177,44.46449950848312],[26.041268260620487,44.46447246399894],[26.04119166325059,44.464423103729104],[26.040662090238534,44.46389860456787],[26.04041750764486,44.46403518199673],[26.040342551723555,44.46408251305381],[26.040243214858908,44.46413754830113],[26.040423306136493,44.46430769024711],[26.04024614841635,44.464398958770495],[26.040087889862132,44.4642380292191],[26.039979871889813,44.464294665394156],[26.040151161843283,44.4644555288072],[26.039658670905045,44.46471822634971],[26.03951800261189,44.464575863096634],[26.039390488982654,44.46463728665108],[26.039539883951427,44.464782710622416],[26.039038706860246,44.46504701559972],[26.038887197252357,44.46490627255919],[26.038761858948508,44.464969232374045],[26.038931001488567,44.46513166547081],[26.038689001658355,44.46525442700872],[26.038739580954992,44.46530860092038],[26.038609949635784,44.465374705202905],[26.038495552639198,44.46524931588625],[26.03835301252634,44.465327932102944],[26.038260627766803,44.46522731523613],[26.038141869001514,44.465294911830675],[26.03832629314452,44.46546502620962],[26.037816374846187,44.465724708154],[26.037640724381326,44.465562324313254],[26.037530601569546,44.46562519663544],[26.03769542508108,44.465790758419004],[26.03718567995381,44.46606600622089],[26.037007692660257,44.46588962060725],[26.036878014581635,44.46595260024855],[26.037077775889642,44.46613353777182],[26.03683585730986,44.466264079714925],[26.036752486576813,44.466192971292955],[26.03656876443209,44.466281162320556],[26.03659286044397,44.46629814002154],[26.036512830293177,44.466331276887686],[26.03628894364549,44.46613025581016],[26.036159113697252,44.466179231721036],[26.03636569685098,44.46638813436291],[26.036119516698218,44.46652648111499],[26.03603169101606,44.46644450489466],[26.03590634641251,44.466507470566526],[26.035761377987107,44.466368238227425],[26.035633914958225,44.466434328132635],[26.035576815290092,44.46638018575506],[26.035427282612314,44.46641683162507],[26.03566010330404,44.46663958875627],[26.03549806315838,44.46672454568365],[26.03550701435638,44.46674783691756],[26.035424747532176,44.4667747564288],[26.035353841542484,44.46665222236137],[26.034987756513754,44.46675546050755],[26.034875032068715,44.466584925221376],[26.034729935567867,44.46662932358336],[26.034818385864217,44.46676732124916],[26.034359296049004,44.46690998621392],[26.034465690570745,44.46709767148346],[26.034342277784567,44.46713883721281],[26.034271671074478,44.46704275127635],[26.033948949413304,44.46713795584999],[26.03380727520522,44.46690378379838],[26.033664396871455,44.46695283152852],[26.033870197502,44.46728623650549],[26.03341759575537,44.46742730804767],[26.033346929288722,44.467325002953906],[26.032892108720766,44.467462969660325],[26.032757198764564,44.467250541750616],[26.032609848550887,44.46728716386205],[26.032742660204008,44.46750738733921],[26.03248067945016,44.46759290479494],[26.032540397908566,44.46768748958356],[26.03235420907093,44.46775079277894],[26.03228576395621,44.467653146771035],[26.032086570456965,44.467718071687415],[26.031945140603657,44.46750568452903],[26.031702596677444,44.467581751976994],[26.03165800865458,44.467596092490645],[26.031544346604885,44.46762321558202],[26.031605146327976,44.46771860997824],[26.031471907577224,44.46776010550884],[26.031411084134255,44.46766266821596],[26.031152998205783,44.467731352575555],[26.03116480224731,44.46778078158442],[26.03109812268383,44.46780098514752],[26.031080020639237,44.46775500682992],[26.030321486760045,44.468005039984895],[26.03043086858977,44.46824809785617],[26.030516354764867,44.46841695161897],[26.030566227221296,44.46849307810545],[26.03064751688363,44.46854217767224],[26.03082761955656,44.46866093476263],[26.030969846953347,44.468744802368434],[26.03003582854604,44.46903505873325],[26.029803449006252,44.46862128402811],[26.02956554596463,44.468230266803666],[26.029418991381014,44.46827652565251],[26.02986147414508,44.46901383685961],[26.029404959012698,44.46914678278589],[26.02942253359164,44.46919354020679],[26.028960417723653,44.46933466265395],[26.028896484748017,44.469212798896315],[26.02935579580261,44.46907372737168],[26.029231124941738,44.46886053571702],[26.028726538825406,44.468997266013304],[26.02847288116282,44.468582278830105],[26.02832734215876,44.4686320280545],[26.029213118412255,44.47010197881503],[26.029360249753662,44.47033616978956],[26.03046822533853,44.47000102859499],[26.03080408415182,44.470574067822284],[26.029358870741927,44.47093253474921],[26.029312117994237,44.470877043647626],[26.02918306050081,44.47091809323685],[26.02878318249524,44.47100752540814],[26.028245036527135,44.47051464584309],[26.028043131738837,44.47034110137843],[26.027904057396853,44.47020836630494],[26.02776269965339,44.47007088179147],[26.027488865631696,44.46999485235081],[26.027235624956326,44.46997847675247],[26.02695957247021,44.46991051241912],[26.02673009526315,44.46988325390035],[26.026586040502355,44.469850563646865],[26.02618681773801,44.469813924068745],[26.025898194935642,44.46982504822794],[26.025713171936722,44.46984648792428],[26.02563376190605,44.46976365300973],[26.025131935000225,44.46992079944244],[26.024509086405175,44.470205244541816],[26.024169257677457,44.47041646284676],[26.02401298628912,44.47056676404575],[26.02280574385326,44.47157510119373],[26.022434912031766,44.47196641925159],[26.022121035141087,44.472228867894586],[26.02167624663473,44.47254332664133],[26.02110636608945,44.47290642012959],[26.020802275578568,44.47306959438284],[26.020386836785306,44.47328515813563],[26.019847910329485,44.4735576840991],[26.019259452167404,44.473839367653255],[26.018642084405634,44.474127132553626],[26.01801159706947,44.47434980625903],[26.01766520506335,44.474449461832535],[26.012381010179197,44.47614412539732],[26.011197730335727,44.476535231647375],[26.00977332066084,44.47704710857859],[26.00804464528782,44.47765864832791],[26.006460213308404,44.478249594924115],[26.004138928585085,44.47905999507688],[26.002740430112784,44.47938795722603],[26.0017251370918,44.47954810829123],[26.000555582202313,44.47965397181316],[25.999597813078132,44.479676637349066],[25.998745989595175,44.479660645167755],[25.99781767721161,44.47957653551614],[25.996606468802014,44.47947773898143],[25.99321040469731,44.47918404706216],[25.992066479613058,44.47902815977378],[25.991102500391964,44.47877414276637],[25.990472613894692,44.47856289357812],[25.989961267915838,44.47833076329425],[25.989176953389844,44.47795027428574],[25.988271958246862,44.477380124823185],[25.987924106847633,44.4770985446637],[25.986356943645706,44.47575810814004],[25.98461347825004,44.47420405101993],[25.983804897755235,44.47348266271886],[25.98299633748001,44.47276126855859],[25.98229996940067,44.47217499024145],[25.979948928580832,44.47019550493758],[25.97977622832732,44.470325024779186],[25.979621506125184,44.47044106154447],[25.979698026032995,44.47054439756744],[25.97984834479677,44.47074739766076],[25.9800537810893,44.471353496737514],[25.980068722449218,44.47139931346932],[25.980151585482133,44.47165342308594],[25.98017510227548,44.47171142252507],[25.980216453970744,44.47183323181071],[25.98021805091681,44.47183793759992],[25.980263782135786,44.47197264919465],[25.980334294415947,44.47417655944756],[25.980369989285787,44.47529208623794],[25.980388171172898,44.47577589517698],[25.980435479089323,44.477034642203975],[25.98063505141019,44.47805418224606],[25.980791067538885,44.47804164185388],[25.981069850109737,44.47887392488911],[25.981343286379772,44.479416845704996],[25.98163560730521,44.47995171906865],[25.981780932797093,44.48014805070714],[25.981878305495083,44.48027959741664],[25.981904393556647,44.480318674712706],[25.981917320168787,44.48033803482841],[25.98214961200119,44.480680366634175],[25.982599905250908,44.48124108986883],[25.983321388053646,44.48212627642274],[25.98360654548283,44.48256540969163],[25.98381259062716,44.48295492020277],[25.98382217980645,44.48297304741961],[25.983822903335543,44.48297441452805],[25.9838889145201,44.483099200603455],[25.983989305096625,44.48331153255372],[25.983990849236076,44.48331479873054],[25.98425274639631,44.48394024786415],[25.984451982177855,44.48450946267744],[25.984723095457074,44.48524598051057],[25.984729456161844,44.485263261047955],[25.98515713209137,44.48630364228903],[25.985894200657714,44.488135662456614],[25.986577784120392,44.48986622580687],[25.987095225331096,44.49093335498609],[25.987537950817792,44.491636914216095],[25.987842270754573,44.49210646012266],[25.987835418732914,44.49210671818059],[25.987582422995725,44.49212801561604],[25.98752154718207,44.49204601746475],[25.98746816197784,44.492004994420775],[25.987422330968442,44.491993965732064],[25.987392250546936,44.491992249218875],[25.987248297862717,44.492000530355945],[25.987196524314925,44.49198757359054],[25.9869811489949,44.49186318745795],[25.98667429373999,44.49167579060035],[25.986343438376117,44.49146709255252],[25.98625591273165,44.49141188283945],[25.986186802145824,44.49136828864973],[25.986123997584045,44.491406296856475],[25.98611263288003,44.49141317521452],[25.987424384630785,44.4923015122771],[25.987952989902677,44.49270009749465],[25.987884939381882,44.49268453146345],[25.98776743706414,44.49268394575924],[25.98745183219438,44.492746774731835],[25.986758943048013,44.492924158480136],[25.986476526496634,44.49305754076885],[25.9861707759148,44.49327313333687],[25.984569598187477,44.494357957010266],[25.983600218486426,44.49503638493287],[25.9836301856705,44.49507720827748],[25.983633583811116,44.49510691517305],[25.98362484756406,44.495165402495154],[25.983605361104352,44.495209178356276],[25.98365069369249,44.49530525553317],[25.98371654493977,44.49541592288959],[25.983740854475318,44.49556298945475],[25.98381311513659,44.49571548759573],[25.983920214589023,44.495920053550506],[25.984005859335074,44.4960705627045],[25.984089879549433,44.49621352583948],[25.984267787353666,44.496481455430676],[25.984329274884338,44.49659564361804],[25.984251956021616,44.49661867523207],[25.984108196361472,44.49666628135475],[25.98399623938442,44.49670069441923],[25.9838404596801,44.4967513571882],[25.98373093936143,44.49678562271673],[25.983573575169903,44.496835569930255],[25.983481148002213,44.49686049688358],[25.98295954721949,44.49702337870593],[25.98296309020381,44.49703235607555],[25.982966975218055,44.497053742592925],[25.98296301918509,44.497065117303535],[25.982976968764298,44.497079395918504],[25.982978842121188,44.497100799979066],[25.98300450370826,44.49716780743215],[25.983028208433407,44.49726759255561],[25.983040040493538,44.49729043978992],[25.98309131914414,44.49745874569214],[25.983091358794145,44.49747584566449],[25.983182200053523,44.49776683875205],[25.98318211400078,44.497783939821325],[25.983191962200557,44.49780104423834],[25.98319978154445,44.49784669688364],[25.983243175573215,44.49799500112781],[25.98327308856009,44.498023630724894],[25.983273079226908,44.4980378510716],[25.98329693889507,44.49805069317294],[25.983398733420152,44.49807653560094],[25.98368382109249,44.49816584967959],[25.983977401115197,44.498251668841796],[25.984009309384845,44.4982645305329],[25.984033328725328,44.498264590846446],[25.984079755935145,44.49827345569081],[25.98414911080173,44.49828473038029],[25.98424494763703,44.498307744011726],[25.984268865807977,44.498309245185524],[25.984288880221648,44.49831780057544],[25.984836707944915,44.498446577857756],[25.98515756404808,44.49852414548686],[25.985404042153945,44.49858346211391],[25.985570298207723,44.49862106925813],[25.985644982391896,44.49864246662353],[25.986024808250775,44.49873418639581],[25.986313948731812,44.49880266801003],[25.986640106463703,44.49888117506474],[25.98669603256323,44.49890129590359],[25.98679176875785,44.49892565828574],[25.986807735691965,44.49893280863807],[25.986914941482095,44.49901755164987],[25.987031792547505,44.49910743019971],[25.987729470185545,44.499644298997296],[25.98794248471044,44.49951867980526],[25.988044709009117,44.49946648280229],[25.9881244935111,44.4994257326402],[25.988156541271465,44.49941726153456],[25.988184518769284,44.499398745911144],[25.989117024780683,44.49897583885335],[25.990312657930463,44.49843235024935],[25.990351171737437,44.49840501134435],[25.990395674461144,44.49838959003367],[25.990714588957776,44.49819967378659],[25.99132256947752,44.49784683159713],[25.99135852454471,44.497816994800246],[25.99152068700306,44.497718636554964],[25.99162485328071,44.49764076870366],[25.991787072508245,44.497538449496034],[25.991931230931282,44.497438899046315],[25.992185528989577,44.497272587676086],[25.992275667733107,44.497220043182395],[25.992443850452325,44.49710633030287],[25.992580361112054,44.49702286666272],[25.992756179193304,44.49691448617888],[25.9929700945268,44.49676202895633],[25.993034480366447,44.496718350888415],[25.993062587641788,44.49668561262559],[25.993090663204303,44.49666565488228],[25.993260979371065,44.49650071098453],[25.99331324633655,44.496432389070684],[25.99335029056597,44.49637095142263],[25.99339554291142,44.4963042213197],[25.99339358611517,44.496292808344734],[25.993403624477935,44.49628425970823],[25.99375941458638,44.496491997468596],[25.99481285075588,44.49586763279423],[25.995134306226742,44.49606027895474],[25.99529046241592,44.49612478144299],[25.99536258879762,44.49630414803218],[25.995383084959265,44.49634788788699],[25.99539488255919,44.49640493481534],[25.99540671939337,44.49642049058686],[25.995432599984625,44.4964847932839],[25.995482238365007,44.49656319642969],[25.99553299136411,44.49664059969059],[25.995585371205067,44.49671753855105],[25.99564118463676,44.496796697102134],[25.995732782433052,44.496931070593966],[25.995780839148313,44.49702993058633],[25.995838027672296,44.497090939740474],[25.99587619784114,44.497131660402054],[25.99589240441849,44.49714894965073],[25.996423442952484,44.497535273564594],[25.996589183665876,44.49765584615731],[25.99681627680166,44.49779199796266],[25.997356262476316,44.49811573848875],[25.998426447344798,44.49887136011336],[25.998553974453472,44.49901182123541],[25.99856812255872,44.49903725460468],[25.998986699518124,44.49907357119447],[25.99938812510698,44.49928421698186],[25.999609466956134,44.49932878519054],[25.99985427332713,44.49928323302715],[26.00056376905684,44.49896461292753],[26.001324106770994,44.49885023679482],[26.002445667396795,44.4988353536109],[26.003320089581262,44.49896893035527],[26.004701388858404,44.49935416461857],[26.006037946429025,44.499563764778976],[26.00644312970131,44.49969684244362],[26.006504267949957,44.49980558577183],[26.006803047462,44.49988784317216],[26.006817255166343,44.49988697825084],[26.006924366482696,44.49988043233764],[26.00716160325504,44.5012121556383],[26.007468665257967,44.50290101735614],[26.00754646976213,44.50330888453077],[26.007915075140712,44.50536675825455],[26.008310903930276,44.50753810050895],[26.008974607881715,44.5103542581016],[26.009051783642924,44.51103252559086],[26.009123183407347,44.51147938141527],[26.009163788147017,44.511654446073514],[26.009268956549636,44.51191463252917],[26.00938875188647,44.51215238904609],[26.009491425921944,44.51235564442241],[26.009625720992606,44.51256371962044],[26.00949201477035,44.51267769126161],[26.009367106949888,44.51282743533255],[26.009093804024694,44.51304301389575],[26.008910903294833,44.51318865316099],[26.008863477565612,44.51324763285809],[26.008823962725256,44.513319160911294],[26.008805918422016,44.5134237570292],[26.008797814612127,44.51349387445178],[26.0084711864084,44.513755663152196],[26.008463566639122,44.51378296050128],[26.008478142679664,44.51380557269398],[26.00888074690345,44.51410144634612],[26.0088948159288,44.514395027351476],[26.008778457263254,44.5145565547031],[26.008574663326883,44.5148053650848],[26.008586346949482,44.51482180831026],[26.008786136896937,44.51493410080902],[26.010697485666594,44.51599875386394],[26.01083789214608,44.51589457773295],[26.011230024276294,44.51559959407853],[26.011937694568797,44.515996528319675],[26.011974367161134,44.51597206599727],[26.012884088906915,44.51518591893482],[26.012975934553182,44.51522221948555],[26.01410178467519,44.51568544469963],[26.014318728828254,44.51577686098888],[26.014641789839235,44.51592340205178],[26.014913070585745,44.51604715726508],[26.01494945656259,44.516044304226476],[26.01498297812912,44.51604330040601],[26.015018088573107,44.51604430821441],[26.0150557214181,44.516047551449894],[26.015095803331867,44.516053580682325],[26.015154660116522,44.51606766431647],[26.01566678132482,44.51626720933335],[26.01611947442392,44.516425057875885],[26.01797848084905,44.51718898992629],[26.01971626266898,44.51790399292391],[26.02059211655897,44.518293309146166],[26.022827499630445,44.51927302680069],[26.02286976017302,44.519225077283416],[26.02320196798077,44.51936368985676],[26.023698313087593,44.519644598429835],[26.02396834113122,44.519903593127914],[26.024143863920475,44.52016852187449],[26.024233233594,44.52042381086795],[26.024300234043455,44.52068035606531],[26.02418929361957,44.52083428651368],[26.02393497988103,44.52113578150038],[26.023803909115724,44.52128472827675],[26.023510583126317,44.52159772782567],[26.023459185928697,44.52164767757249],[26.023192571621898,44.52192917606559],[26.022963621598663,44.52217101926385],[26.02256404044683,44.52298640715033],[26.022755635108258,44.523581571961614],[26.023214275621925,44.524387565872075],[26.02351731241077,44.52468353208413],[26.023616510496474,44.52484327620066],[26.023783293328556,44.52534113660289],[26.023856938480392,44.525498100189296],[26.024073806096304,44.52571741146493],[26.02423328259121,44.52585541562332],[26.024413712919642,44.52597410192253],[26.024578663785032,44.52606471115334],[26.024880732791413,44.52618425596673],[26.029310478052963,44.52769210468417],[26.029749711341342,44.52719067622757],[26.03171845663605,44.525298359975324],[26.033522380786525,44.52355420192443],[26.033620462426622,44.52359329519191],[26.039635449493687,44.526077702666065],[26.048258969128618,44.52953358093914],[26.049223473293,44.52982323686692],[26.048750794253486,44.53090575240979],[26.048751331938718,44.53102392042849],[26.049491243692778,44.53131478558802],[26.050169771984457,44.530078113473365],[26.058267006626327,44.532107686867235],[26.068596866715716,44.534850539791876],[26.068597906654908,44.53497446423095],[26.06885046813294,44.535050283320885],[26.068780797725182,44.53532410035276],[26.068753872483818,44.53832593722483],[26.06891067626536,44.53874408740273],[26.069224667632515,44.53926789487754],[26.069277620063172,44.539371882919454],[26.07004887216279,44.5397705252708],[26.07053154557114,44.539998060093374],[26.07101693735532,44.54022268696955],[26.071700135174005,44.54053830276753],[26.071721157827156,44.54054801492969],[26.07176335519905,44.540570474481854],[26.071848964773526,44.54061304192577],[26.07238230706837,44.54096314048182],[26.07283044772368,44.54125730605149],[26.073021421579828,44.54138266241972],[26.0730409576512,44.541373320550015],[26.073041000062684,44.54137330034584],[26.073077303044684,44.54135593988626],[26.073591172561212,44.541110243858135],[26.073632747787435,44.5410903651498],[26.07625194457143,44.54100311725956],[26.076252084166722,44.54100311232702],[26.07646911731751,44.54086842988254],[26.076698694208034,44.540725961719936],[26.07669877536688,44.540725792640174],[26.076839760056465,44.540437280550165],[26.077187161577626,44.53972568715674],[26.077202462992027,44.53969464309952],[26.077398493335625,44.539296875923924],[26.07742637061308,44.53914549526166],[26.077433454708544,44.5390935860998],[26.07748026108528,44.53871602814113],[26.077498700889794,44.538559511199665],[26.077527263687156,44.53833775637151],[26.07760093120888,44.537765798074474],[26.077673879203594,44.53727858851099],[26.077698120335842,44.53711668254344],[26.078208335909242,44.53718264028733],[26.078828460726935,44.53726051352175],[26.07938341718369,44.53732477062855],[26.079387643153837,44.53730690426637],[26.080226309654464,44.537408606333045],[26.080447500908736,44.53744343843951],[26.08076765878636,44.537505441931714],[26.080758411802208,44.537531674512934],[26.081437269484958,44.5376957851336],[26.081680290734276,44.53775237868087],[26.08210655359792,44.53784098222145],[26.082284335468522,44.53787423288023],[26.082317944958923,44.537886411624775],[26.082346461230834,44.53791183722958],[26.082387100979453,44.537958197151056],[26.082458330997756,44.5379662165948],[26.08252570093827,44.53793993976795],[26.08256508781368,44.537926511237416],[26.08259845922286,44.53792781087218],[26.08269789043981,44.53794345621318],[26.082870473292374,44.537969196556695],[26.082905740693196,44.53798066168441],[26.082922467314788,44.53799354331147],[26.082937974164498,44.53801518310283],[26.08297144387832,44.53807231568897],[26.08308358755525,44.538011159984094],[26.083104581293874,44.537999978904004],[26.08346930255829,44.53806261770032],[26.083615920523716,44.538087880985415],[26.08362834423222,44.53809945292299],[26.083636740230244,44.53811030754675],[26.08364311830779,44.53812226159486],[26.083647445916988,44.53813760144628],[26.083647452241728,44.538159840126404],[26.08363724716826,44.538216325730176],[26.083715573749462,44.538233321439556],[26.08379069048895,44.5382328514435],[26.083820266691248,44.53819670921665],[26.083930311800792,44.53813266395421],[26.08395854437847,44.538116232575376],[26.084406820119458,44.538182479686505],[26.084510582800235,44.53819781266749],[26.08489845821966,44.53825514259768],[26.085042860881522,44.53827550040552],[26.08517049972822,44.53829186125],[26.085298493645208,44.53830675779032],[26.08542679938836,44.538320166140785],[26.08555539195406,44.538332095541406],[26.085684246000074,44.53834253723464],[26.085735201849847,44.53834607869276],[26.08589113905079,44.538355989346385],[26.086031708585086,44.53836307772006],[26.086037893879695,44.53836336195338],[26.08639261460516,44.53837311930575],[26.086460770737382,44.53837388463175],[26.086590384923166,44.53837389566299],[26.086720096100823,44.53837237556602],[26.086849665053958,44.53836938514777],[26.086978932071077,44.538364930448665],[26.086983591035377,44.53836488553449],[26.087072350561275,44.538360699725594],[26.08709592408739,44.538359572420234],[26.08710755358024,44.53835901028203],[26.08717340728049,44.53835579225938],[26.08723792868143,44.538352659047206],[26.087358875817827,44.53834817163425],[26.087598550869853,44.53834570341426],[26.08771838425924,44.53834768674687],[26.087957653686882,44.538358072251626],[26.088076934896314,44.538366470518625],[26.088195888857662,44.53837699767988],[26.088346973786766,44.538393485960036],[26.08880914219011,44.53844934550334],[26.089393068946787,44.53851989068771],[26.090027777953036,44.538593210830996],[26.090598919137427,44.53865087070422],[26.091136899778153,44.538705180087995],[26.092378122042607,44.53881911231182],[26.095607998663333,44.53917950471275],[26.096228512392816,44.53924801380857],[26.096355652286558,44.53926206909869],[26.09683038035466,44.53931664687628],[26.096919463628748,44.53932527195365],[26.09694669543366,44.53932790871412],[26.096787973213676,44.539903953503874],[26.096755093503518,44.54046866047967],[26.09765147120142,44.54056305674733],[26.09771325362613,44.541230233123215],[26.10043808939072,44.54140926895617],[26.10061365647078,44.54139943802753],[26.100699644667756,44.54133437900553],[26.10083725990839,44.54079319012007],[26.100892699081655,44.54069580140324],[26.10158294435611,44.54070190431423],[26.101657653510667,44.540677491981235],[26.101740446238168,44.54047577351084],[26.10179606415814,44.53957797831587],[26.10188642896998,44.539577805384184],[26.10206807637796,44.539575438771564],[26.10362556174838,44.53955513692977],[26.10367604433171,44.53955447809375],[26.103716111095377,44.5395539553943],[26.103720968635745,44.53955389254457],[26.103730667343083,44.539553766104795],[26.10376196514187,44.53955335802767],[26.10376664402059,44.5395532969249],[26.103807036633768,44.539552770103285],[26.104363960406577,44.539545504047865],[26.10447814189867,44.53954401393094]]]]}}]}
