{"type":"FeatureCollection","features":[{"type":"Feature","properties":{"fid":1983,"natcode":"150114","name":"Rîșca","county":"Suceava","version":"2017-09-27"},"geometry":{"type":"MultiPolygon","coordinates":[[[[26.262667045047273,47.38591444544279],[26.26306985538095,47.38566626561855],[26.26320085212322,47.385601075440896],[26.26380669922796,47.38529817261157],[26.264378785824242,47.384969375939555],[26.265351419191067,47.38453118844735],[26.26623534581751,47.38407342071745],[26.266546491558984,47.38392553183187],[26.26672291417063,47.384024181032046],[26.266892560935144,47.38401336605739],[26.267093806097808,47.38391091166711],[26.267240952988875,47.383776564141726],[26.26749110040227,47.38368236097621],[26.2672877858243,47.383537138798104],[26.26682142291738,47.38317614795986],[26.267519907930925,47.38305599146786],[26.26787787739269,47.38301457180603],[26.267887229389828,47.38294320741963],[26.26776120154979,47.382727613941825],[26.267496700306207,47.38230986433334],[26.26719709159798,47.38178429754127],[26.26696897939869,47.381479235884036],[26.266718428844992,47.38115941517211],[26.266715941918193,47.38105442573547],[26.266833662735472,47.38089560938703],[26.26746294702428,47.38041989660426],[26.267701231872458,47.38022225689594],[26.26772327470329,47.38016200694976],[26.26772198580068,47.38010763566515],[26.26767889132748,47.3800368438811],[26.26679209900894,47.379782115313],[26.265563947422407,47.37945234423675],[26.264935784542857,47.37927542091597],[26.264754682258637,47.37920613397654],[26.264578902418986,47.37915741688382],[26.263833030630742,47.37902302627236],[26.26310735266517,47.37892498021605],[26.263135277559382,47.37882153226236],[26.263322594664018,47.378102174867614],[26.263521342973416,47.377399573639146],[26.263593000490197,47.3771606235504],[26.263608821747397,47.37701229862885],[26.261106421137452,47.37673199559778],[26.259448388482852,47.37654936509497],[26.256251926609327,47.37622023560222],[26.25436996350977,47.37602307803735],[26.25388155659756,47.37596170175646],[26.253943803560123,47.375890760281216],[26.25396666933118,47.37580164615002],[26.253989043550302,47.37571749691195],[26.25407095066354,47.37556907823835],[26.25413005832215,47.37544719746304],[26.254134782327853,47.375310291341705],[26.254085822610115,47.375184747948246],[26.25407259362429,47.37509437438892],[26.25412092346773,47.37500520599768],[26.254376477764126,47.37473258098419],[26.254458258006593,47.37465271861112],[26.254548176197755,47.37449596153857],[26.250695255477783,47.37401117259527],[26.250740900753296,47.37383814984635],[26.250773664964775,47.373586500149436],[26.25085085438561,47.373345624308286],[26.25091358498188,47.37319492186968],[26.25092716085797,47.373067250202475],[26.250984367270352,47.37268031489371],[26.25097919316851,47.372459082094345],[26.25098707381983,47.372323971743796],[26.251043495379395,47.37213958183226],[26.251122517430364,47.37174115752863],[26.251174898010458,47.371384278038846],[26.251329854711802,47.37021989555564],[26.248681782360656,47.37006842099295],[26.248858677692603,47.36960518314515],[26.249226835519263,47.36858478160823],[26.249507713854513,47.3678466237432],[26.24986988657736,47.36680753130811],[26.249964940246997,47.36662272131175],[26.250147508883657,47.36640321358664],[26.25018333863544,47.366282805357706],[26.250165555033067,47.365994195217155],[26.25014426812945,47.36579189000196],[26.25020637994623,47.36561493606441],[26.250414349929397,47.36530138648994],[26.250609916050106,47.36544218091648],[26.250695594359264,47.36536754697329],[26.25127671555868,47.3651157989766],[26.25104376796891,47.364596968039955],[26.250935131861183,47.36420056725407],[26.250710426365497,47.363797918810505],[26.250610819049925,47.36355144979725],[26.25058392521615,47.3633454517594],[26.250597762619766,47.36322903106655],[26.250532300137493,47.36314848375327],[26.250393198764232,47.363130513208354],[26.25015748295614,47.363049995963316],[26.249993930720308,47.36290173403327],[26.249899675669745,47.362647702896595],[26.2496791013853,47.3619487052214],[26.250106669103065,47.36182032246653],[26.250431131749515,47.36176806275246],[26.250483603447186,47.361651225157104],[26.250767155353994,47.36150188973398],[26.250979752771848,47.361387073279616],[26.250764872406755,47.36116810204221],[26.250597648581998,47.360862350618206],[26.250314006919286,47.360535350044245],[26.250025113220527,47.360219656064416],[26.24948219891589,47.359899203776386],[26.249247093535512,47.35975921134561],[26.249829864483498,47.359186573270364],[26.25043934563105,47.35868170023819],[26.25094078774201,47.358512196825714],[26.25119349195755,47.358428057566684],[26.251392780896406,47.35827704540405],[26.251594057535353,47.35791480269927],[26.251616116166275,47.35744197955894],[26.251551369575054,47.35679755707352],[26.252672300157876,47.35587402857406],[26.25194460188205,47.355485982715166],[26.25228021258834,47.355080203576954],[26.252446969562342,47.35489603799679],[26.25251562234599,47.35477858161689],[26.25260607216175,47.35454417158726],[26.25269652657317,47.35430976501037],[26.25279277487865,47.35392686774882],[26.252816816942644,47.35373940790445],[26.252840860147508,47.35355194712894],[26.252917993151517,47.35333637487307],[26.25303957152492,47.352937012850354],[26.253200539511308,47.3527402364758],[26.25340810648788,47.35264797433649],[26.253639761627213,47.35264171796562],[26.253760715341162,47.35262165585237],[26.253825254850288,47.35254969386324],[26.2539625837166,47.352521953296616],[26.254061376587746,47.35249838013233],[26.254064344703366,47.352389579873936],[26.254084308414523,47.3522993456502],[26.254132912481637,47.3522538114564],[26.2542209334426,47.35224160452677],[26.254320692411607,47.35225927923837],[26.254358261309893,47.352213863492786],[26.254383126727408,47.352097322419255],[26.25454041175736,47.35197935053968],[26.25464507235892,47.351970713675364],[26.254834611116024,47.352051179440174],[26.255037728693285,47.352240265095936],[26.255081851119762,47.352003492840154],[26.2552648499425,47.35062875210552],[26.25474518134221,47.35047309906647],[26.254394149688682,47.35033062319259],[26.25386269483203,47.35002506697248],[26.25336094212081,47.3498092044193],[26.25289176724193,47.34957048245773],[26.252194722101184,47.34926295561192],[26.251502846186025,47.348940371109954],[26.251240025758158,47.348793178850244],[26.250923783329135,47.34872157882994],[26.250578115134736,47.34857153245796],[26.250348052473015,47.34840898430166],[26.24995912474337,47.34806061361622],[26.24972801156615,47.34785306641028],[26.249565124107537,47.34773104989911],[26.249472295137206,47.34753701484943],[26.249382185584807,47.34722292509078],[26.24935232260041,47.347125728586676],[26.249387791647443,47.346990323195236],[26.24942203507183,47.346802418065046],[26.249435876394777,47.3466859967304],[26.249520121485176,47.346512556346866],[26.24955585220565,47.34638839516508],[26.249537027082706,47.346291080550245],[26.249489914943112,47.34616406573831],[26.249515045629803,47.346058776047805],[26.249483875387202,47.34590533104078],[26.249375727821807,47.34552767552144],[26.249327650080694,47.345359412381384],[26.249339478420467,47.34515674846341],[26.249387730298114,47.34485992018101],[26.249514012156464,47.34459600891025],[26.249595983220573,47.344325075147296],[26.24970824627556,47.34417008320518],[26.250264486245168,47.34365023767299],[26.25050205820662,47.343426382962505],[26.250738402892193,47.34315002796659],[26.251055303235315,47.34277903910134],[26.251323864524043,47.34246482951012],[26.251497067866996,47.342320431879116],[26.251824914760466,47.34218186355525],[26.252431736199604,47.34193901085759],[26.25277175184466,47.341849068081736],[26.252931999697495,47.341858588831855],[26.25354214891988,47.34175822134926],[26.254231621767904,47.341510715262736],[26.254723808120396,47.341321599779874],[26.254961087371928,47.34108648527981],[26.255184895446277,47.340982792609026],[26.255377114936078,47.34085540908332],[26.25544172138643,47.34069765021951],[26.255459335494166,47.34054553736688],[26.25539778876288,47.34036283121193],[26.255027931141427,47.33972954664706],[26.254248980797996,47.33855301132442],[26.252756026405443,47.33636042639596],[26.252042009721343,47.335344371555514],[26.25198326437582,47.33526757884299],[26.252348362681836,47.33507234662402],[26.252525562681985,47.33486413973621],[26.25261004268904,47.334701945294846],[26.252784182733844,47.33459879384694],[26.25300350542513,47.33454016198623],[26.25350588824223,47.33455347875547],[26.253792537639022,47.33454287690988],[26.253924480396698,47.334522694424926],[26.253233938490393,47.33387716938744],[26.25207338225798,47.333091212495795],[26.25118677968636,47.332474169166694],[26.250300192239255,47.33185711796881],[26.249061993499282,47.33005985068405],[26.248434436060336,47.32914612662499],[26.247959742061425,47.32851263039364],[26.247864585471646,47.32854589815972],[26.247674245262,47.328625487396764],[26.247312053105254,47.32876555561744],[26.24630539178843,47.32930193571141],[26.24568337313415,47.32970520069388],[26.243728073495113,47.33086768580155],[26.242607757661798,47.331388510802746],[26.241198089645803,47.33195748740547],[26.240125932462544,47.332693071259584],[26.238882326012085,47.333313796364614],[26.238050932205294,47.333729522549426],[26.237010699392165,47.3343736301138],[26.237368049081017,47.33368106764433],[26.237597220769523,47.33333003175894],[26.237784083058013,47.33308717793937],[26.238183516475896,47.33234575385222],[26.238430799565663,47.331924054550896],[26.23853214494599,47.331687565178136],[26.238992016469005,47.33117372773665],[26.23915128077993,47.33083047100613],[26.239315923538474,47.330298306145906],[26.239380763110347,47.330163981493385],[26.23963001317104,47.32973548391459],[26.239795583152095,47.329530638689555],[26.240057359998616,47.328969661357256],[26.24010071383433,47.328908760128684],[26.23916049381923,47.328587810351166],[26.23899549458495,47.328564511339835],[26.238619667128802,47.32862058262382],[26.238414589260405,47.328703750710545],[26.238228279099253,47.328801170405704],[26.238041968259047,47.32889858980093],[26.237968590282858,47.32891091166783],[26.2377005839108,47.32893133234019],[26.23732687028967,47.328854046214104],[26.236618868904678,47.3286809858591],[26.23634592585025,47.32855746487574],[26.235674437695312,47.32823951049181],[26.23550885281671,47.328163008635286],[26.23517054441992,47.32789267406143],[26.234877111428148,47.32745629128039],[26.234726099449542,47.3270515053128],[26.23441006257663,47.326725877302486],[26.233872565742423,47.32613341165263],[26.233807473366202,47.325998638485096],[26.233713056955082,47.325743765552545],[26.233522367608895,47.32553808298143],[26.233389980269756,47.325256045751566],[26.233198048097446,47.325105034747516],[26.232998577603034,47.32490245492954],[26.23232797599384,47.3239353291842],[26.23162210849654,47.32299649345235],[26.230870796977367,47.3218184255547],[26.23038605722046,47.32132082277234],[26.229520502206917,47.321028976769625],[26.228896447943818,47.32084293778314],[26.228631029713718,47.32085177521163],[26.228091748862884,47.32088759517781],[26.22629094673099,47.32073809340464],[26.222385065765142,47.32043963069289],[26.21951594370259,47.31999563832401],[26.21812612078807,47.31942265590622],[26.217169615081556,47.31899541071479],[26.217169583071534,47.32014659559764],[26.21651329790491,47.31993089355852],[26.215626144686752,47.31990670957669],[26.214448230097695,47.320086385697],[26.21333967562124,47.32006454102233],[26.212231121962507,47.32004268663382],[26.211404674250858,47.32051979205869],[26.210578206427545,47.32099688802808],[26.210096584012685,47.32092043055096],[26.20930625654185,47.32080969656984],[26.208034314090245,47.32062249110457],[26.207175335839768,47.32074856281055],[26.206316348193916,47.320874628214874],[26.205192932418324,47.32128786002101],[26.20406949915025,47.32170107735072],[26.20328239002983,47.321742732639606],[26.202632469301093,47.32131444500226],[26.200810742893385,47.318961953065894],[26.198989175877117,47.31660942788444],[26.19834453021047,47.315654080085906],[26.197188718646466,47.31464251465544],[26.196059783733283,47.3140400651557],[26.19368962541321,47.312956706023826],[26.19297419856774,47.312632938196685],[26.192434180853144,47.31223511278529],[26.189713753077452,47.313310685241625],[26.189086016540752,47.31334723604265],[26.1889439373094,47.312529880968526],[26.188650434953377,47.31206929883427],[26.187705555152192,47.31097720175842],[26.187062240366632,47.31030948015165],[26.186238818640188,47.30990248833393],[26.1860834359077,47.309681311808816],[26.185754439797282,47.309215066980585],[26.185616495127114,47.30898167060827],[26.185733871143213,47.30868545640535],[26.186368067580982,47.307244299082164],[26.185928057800542,47.30737161384219],[26.18583728404535,47.30727422686706],[26.185746510621165,47.30717683981578],[26.18553604073291,47.30702641653987],[26.18510347821761,47.30678835616191],[26.184875316399157,47.30671996127176],[26.184283657455783,47.30668054475612],[26.18352760887121,47.3065998656053],[26.18275118111246,47.30626931878188],[26.18254269265066,47.30608227279683],[26.182383566777915,47.30592642559507],[26.182008138492517,47.30544552633875],[26.18155460111013,47.30487751951412],[26.18131836808953,47.304545899904575],[26.18108213800821,47.304214279758874],[26.180672762639826,47.30366761711314],[26.180609024894544,47.303575330204225],[26.180545287370094,47.30348304325602],[26.180255459092695,47.303003793524226],[26.18013208134525,47.30274690087782],[26.180001477756868,47.30251256354109],[26.180077615974614,47.302262670288044],[26.180024222319943,47.301993450133835],[26.17983024140937,47.301710260386706],[26.179539029479372,47.30134527623728],[26.179319143919876,47.301075834919686],[26.178994734411322,47.300821023693906],[26.178700202726596,47.30059084534809],[26.178358672266203,47.30036969094675],[26.177917288793605,47.300084381608414],[26.177748398887783,47.29998769714957],[26.1773286088181,47.29978445552274],[26.17721930878469,47.29967860901449],[26.177182076603025,47.299559183154656],[26.17708940352566,47.29940528898602],[26.176859286018434,47.29924290443418],[26.176607169082114,47.29908074291765],[26.17634749114806,47.29900423086804],[26.176204391517103,47.29893508990297],[26.175918086209077,47.29879252626018],[26.175805691023232,47.2986888419648],[26.175683760008802,47.29846632268365],[26.17538224532269,47.298204116772865],[26.17499233772952,47.29792782794883],[26.1746682941073,47.297785644068085],[26.174306424999898,47.29763956954836],[26.174171633955275,47.297518999679376],[26.17393676043306,47.297385031996505],[26.1736340469244,47.29721053905069],[26.17333824593604,47.297119758263634],[26.17303838884187,47.29707200235113],[26.172906128383033,47.29701551334591],[26.172849051098492,47.296927783226614],[26.17285098175422,47.29670114568053],[26.172792378270277,47.296641553565294],[26.172551292907244,47.29650015201471],[26.17241154664492,47.2965015667582],[26.171936762067954,47.296433600597474],[26.17107807220717,47.29638063449539],[26.17013383669155,47.29633363629283],[26.1696611677882,47.29631272632311],[26.16900964996803,47.29623196785317],[26.168438355620808,47.296191500699926],[26.16715023570946,47.29613278821856],[26.166295125977015,47.296069476792205],[26.166048999167316,47.29603035600203],[26.16585262071291,47.2960459534681],[26.16558995604606,47.29606542943068],[26.165400299034456,47.29602525312556],[26.165121786782194,47.296028055334446],[26.164691317349703,47.29601554396629],[26.163934135595877,47.29592425025118],[26.163645317010197,47.29582750900433],[26.16256063920662,47.29547642532483],[26.160721141200746,47.29496144667725],[26.15989995522696,47.294771862332766],[26.15894351535894,47.29452798336468],[26.158594995305172,47.29444097625777],[26.158274059401986,47.29434107036654],[26.1580348015762,47.29415406298821],[26.157711554457073,47.29380373845707],[26.157396643995085,47.29365437998207],[26.156820705161678,47.29349808316519],[26.156138478995846,47.29343545295004],[26.155530662038313,47.2933783827583],[26.155167580834803,47.293333604542276],[26.15450348196953,47.2932498314201],[26.153980751629216,47.2932550411996],[26.15322629690118,47.293287809022],[26.152637000802706,47.293228443090285],[26.15225134529468,47.2932848913259],[26.151898252452213,47.29327156265837],[26.15083240912922,47.29301996956547],[26.150334267100032,47.292881813786025],[26.149621944830656,47.2927142140005],[26.14916898037284,47.29266188864602],[26.148469055384783,47.29263936868211],[26.148001428364417,47.292595064964146],[26.147599042436834,47.29244752764777],[26.147181177998718,47.29230014226214],[26.146755835884125,47.29223701715339],[26.146537901468193,47.29217603861582],[26.146041913774646,47.29199364409213],[26.145781843951777,47.291945217152076],[26.145182969961457,47.29201638203064],[26.144610543059326,47.29202204098026],[26.144199923243868,47.2919229825648],[26.143802693987112,47.29172698086187],[26.14329683883262,47.29130136611806],[26.14286068909221,47.29102157565926],[26.142405099914107,47.2908450823599],[26.141972601855205,47.29073570617384],[26.141537325658614,47.2906410827686],[26.14112630579835,47.290523080141654],[26.140768982367632,47.290365233139255],[26.140332687350764,47.290077005036025],[26.139608712268323,47.28956321644939],[26.139268917735354,47.28930139254267],[26.138677286725944,47.28883790808792],[26.13834519075372,47.288750795694064],[26.137828815196382,47.28862539638345],[26.137138195505642,47.28860061163734],[26.136851479139473,47.28865182693502],[26.13608426944222,47.288956091183586],[26.13537511151563,47.28929666613107],[26.134754134639937,47.2896596281606],[26.134129899219385,47.29011333771002],[26.133765951113823,47.29065837258971],[26.13355096748851,47.290900400214326],[26.13326835554779,47.29106958019604],[26.13266455556038,47.291293396221434],[26.132414689188124,47.2914186575973],[26.13217990696188,47.29164150705807],[26.13198232107437,47.291788711190755],[26.131617648975418,47.29205107235741],[26.131189271050392,47.29230617381306],[26.13074726379445,47.29252840819824],[26.130387506257538,47.29281365799546],[26.130086875212523,47.293140153584176],[26.129740584952593,47.29354401226525],[26.129399222667665,47.29393473212457],[26.129073116136937,47.294435363087366],[26.128826705077632,47.294723910847885],[26.128369071580543,47.2951707460929],[26.128051432233807,47.29545998602619],[26.12734321537168,47.29595552544943],[26.126903695276106,47.29639510716551],[26.126442225710143,47.29677158459274],[26.125964414830538,47.29714161567583],[26.125673949627917,47.29733812956202],[26.125460483491654,47.29734681639037],[26.125213529147565,47.29730299289759],[26.124703551081893,47.29706581991243],[26.124274742926456,47.29674400223557],[26.1228054966381,47.29560831180165],[26.12221676163908,47.29518933831943],[26.121994884397957,47.29509398605731],[26.121687776941123,47.295036289745894],[26.121288133896275,47.294972993225564],[26.120831534198157,47.29492974155024],[26.12067443950928,47.29488359033973],[26.12030816754984,47.29470858426511],[26.119886333773085,47.29449815607116],[26.119444778777606,47.29441142725892],[26.11844759407559,47.29442106156435],[26.118139689688505,47.29447820140178],[26.11797092505624,47.2944841668415],[26.117775193379135,47.29441888967723],[26.117422492358187,47.29425233500457],[26.116937789093285,47.29392983295466],[26.11638499470518,47.293703319107365],[26.116180823756753,47.29369228736279],[26.115651570084516,47.29367788294891],[26.115260070682712,47.29364035161335],[26.114599163092006,47.29357737958069],[26.114258272203067,47.29358065982886],[26.113266807202947,47.293711536710354],[26.11301785066339,47.29369225745],[26.11278294968909,47.293581844999906],[26.112255839963517,47.29320989138011],[26.11191258690262,47.29306666461943],[26.111209595003327,47.29281773688035],[26.11057938283747,47.292698103590006],[26.109605374167746,47.292440933169146],[26.109206664356353,47.29226707552895],[26.109075478327558,47.29214552335074],[26.109042098102503,47.29191833545385],[26.108978475341157,47.29161559826578],[26.108846971756588,47.29141849786743],[26.108621555801165,47.2913048374583],[26.10836636946843,47.291213205605175],[26.107838076605837,47.29109042288394],[26.107482680068163,47.291007151608255],[26.10726727594326,47.290913868423075],[26.10712337925367,47.29073540794613],[26.107058161780945,47.29050852376076],[26.10695652273107,47.29022810876461],[26.106816364742834,47.29007561147478],[26.106626227419195,47.28981741715131],[26.10647387568007,47.289537189379644],[26.106298050128213,47.28935469665148],[26.10576700355019,47.288909440031034],[26.10493587312558,47.288159010689114],[26.104508720420938,47.287840234691686],[26.104262770128752,47.28781007649208],[26.10382111068006,47.28786846283679],[26.103268982410174,47.28813373559895],[26.10301809574771,47.28832896141381],[26.102742950123346,47.28858292966816],[26.10264214994764,47.2886094659707],[26.10208074570932,47.28842413309703],[26.101789836214476,47.28837707059336],[26.10111232303139,47.28827733997995],[26.10032096719627,47.28821986322935],[26.099664922904328,47.28819580405298],[26.099154296146825,47.28815514830794],[26.098592088590898,47.288084644086375],[26.09793620713765,47.28795219505326],[26.097287733374316,47.28786950267984],[26.0967875211522,47.28783292112221],[26.095875672899368,47.28780254546866],[26.09524095195518,47.28776955105203],[26.09445634801821,47.28772929731169],[26.094185390430994,47.287723194282165],[26.09387437322149,47.28762646238248],[26.093644501078543,47.28748838103225],[26.093501334702136,47.287342391452015],[26.093440279429924,47.287160963659254],[26.093377779774638,47.28690803780886],[26.093361016732164,47.28671102398198],[26.093310056908155,47.28645015332008],[26.093169519009695,47.286275971031],[26.092824963804404,47.28609721866727],[26.092332328054443,47.285999992280395],[26.092169129758826,47.2860015315328],[26.092000202999166,47.28596199344316],[26.091152467388287,47.28575917364971],[26.090608911464773,47.285664623822015],[26.090230660746183,47.28555117943096],[26.0896229810125,47.28543555654631],[26.08903177797088,47.28534795197611],[26.088311673692004,47.28527348496572],[26.087854742693317,47.28520844367693],[26.087487156491918,47.285149065941745],[26.087337945687718,47.28506244715855],[26.087144386953533,47.28491036454799],[26.086889219124195,47.28482151916181],[26.08632105319158,47.28466187602876],[26.086083915613386,47.284529020718225],[26.08588216264443,47.28450540818028],[26.08567979353362,47.284480739503444],[26.08536479349419,47.28436189122671],[26.085110994564374,47.284369811400325],[26.084733037215354,47.28427701987335],[26.08450335369596,47.2841097705922],[26.08441298911436,47.28406855907938],[26.0838916685031,47.283972456128204],[26.08310715043313,47.283846839945106],[26.08250487342119,47.28366965749637],[26.081001891238905,47.28317566682575],[26.080436896039007,47.2830285961233],[26.080255605647523,47.28292503060535],[26.079761622305448,47.2826637247426],[26.07964124708881,47.282551277665874],[26.079556020240098,47.282363716463095],[26.079447536771657,47.28185881115389],[26.079387029872265,47.28168486468116],[26.079048846632585,47.28147473183536],[26.078560054379864,47.28126877173586],[26.07804711812514,47.28107687967761],[26.077898038810087,47.28101059717575],[26.07770293313352,47.280826828148626],[26.077413737907712,47.280621767330544],[26.076936407243405,47.28037691962356],[26.076483370780842,47.280244280061886],[26.076201242351594,47.28018873225809],[26.07602879168115,47.28011831933694],[26.075880426957227,47.2800310571884],[26.07573206271566,47.27994379484495],[26.075281755841445,47.27962389390423],[26.074807335796535,47.27932084021212],[26.074418947846343,47.27904190615623],[26.073991494769906,47.27874486367598],[26.073691929241406,47.278631310307084],[26.07327786991062,47.27849387963032],[26.072712765546278,47.278338459758565],[26.07219974324726,47.278200428786505],[26.072065861110886,47.27816440742194],[26.07180081106376,47.27813514898842],[26.07159294223141,47.27812015974383],[26.071056346791423,47.27825799984148],[26.070877274293295,47.27827351126091],[26.070714923498,47.27826601444182],[26.07058607233162,47.27825470181694],[26.06937580393052,47.27805402349333],[26.069017322441105,47.278008660742834],[26.068137752275685,47.27786474246773],[26.067778907666945,47.27778123755943],[26.066506124316913,47.27739379976129],[26.065861245055473,47.27718481638564],[26.06535085425131,47.276998520570196],[26.063319445259236,47.276089490434565],[26.063095451156595,47.27605925034647],[26.061415380368285,47.27592748304542],[26.060930077304363,47.27587858327291],[26.060503745797813,47.275816814636364],[26.059876656568683,47.27566341224973],[26.059339142944285,47.275513953272586],[26.05857750385144,47.27522683087801],[26.057591975350988,47.27500813961494],[26.05716639605576,47.274870241215595],[26.056651264893315,47.27462160865583],[26.056337687643207,47.274552498318236],[26.05601294093336,47.274540617410636],[26.055789066098612,47.27458989047375],[26.055598853526213,47.27470407682239],[26.055464498335553,47.274822073745746],[26.055403077000417,47.27489829440443],[26.055280041577465,47.27522229258631],[26.05521850821216,47.27530615832089],[26.055151406936005,47.27535561977577],[26.055017136509793,47.275397418394],[26.054636338204993,47.275358783661865],[26.054457211307543,47.275297439010096],[26.05427793861684,47.27520182485405],[26.05402035071766,47.27502226261481],[26.05384113187245,47.27492277617741],[26.05366195292211,47.2748653891491],[26.05354998392851,47.274891868431645],[26.053488399938118,47.27492616671812],[26.053421290891766,47.27500234449306],[26.053298314650057,47.2752424070637],[26.053242577151668,47.27566196134984],[26.053220244383713,47.275722888681045],[26.05316988945087,47.2757838927508],[26.0530971921265,47.27584482830527],[26.052895752549464,47.27596658274878],[26.051735902943577,47.27652427689569],[26.05160289294001,47.27659025742527],[26.051317380287934,47.27668524474986],[26.049587733401616,47.27707949728992],[26.049229443338326,47.277178105140784],[26.048132430505483,47.2775045308023],[26.0469120660363,47.27789179666801],[26.044650457004487,47.278315704661516],[26.04440421366422,47.27842597135299],[26.043850219936946,47.27890957032261],[26.04365994600362,47.27901609307523],[26.04335198014355,47.2790728460381],[26.042120354895353,47.27913584244979],[26.041989243662346,47.27915753564558],[26.041918783574253,47.27915079358867],[26.04159411536792,47.27921893570395],[26.041067867617944,47.27936311232776],[26.040787999431743,47.27945801907843],[26.039903456013743,47.27981142240272],[26.039690722166707,47.279830156562774],[26.03885087016541,47.27977543795449],[26.038705425109974,47.27979428812774],[26.038582161687373,47.279832274891284],[26.038487131492598,47.27990842966168],[26.03839749857104,47.28003797028057],[26.038364012777816,47.280117975824574],[26.038352812031885,47.28033155896111],[26.038442710470132,47.28085046804215],[26.038453987358796,47.28106402678798],[26.03841485328216,47.281193656967034],[26.038302859367334,47.281315568492005],[26.037832724948387,47.281600916600816],[26.037272906419307,47.28186322777556],[26.035632640327957,47.282566303464286],[26.035078380766777,47.28277529438828],[26.034720130021963,47.28292729341126],[26.034249873796764,47.283201112501224],[26.03397136419323,47.28338856105928],[26.032676823494953,47.28424756334989],[26.03206122096114,47.285371825631486],[26.03182607939857,47.28575284344535],[26.031467961581455,47.28626342445883],[26.03127760463319,47.286491912706644],[26.031132015004538,47.28662140575695],[26.030286654295153,47.28719983192077],[26.029273302723244,47.28785801224767],[26.02850064319359,47.28834122908471],[26.02825994948468,47.2884552788431],[26.027996668502393,47.288550187559395],[26.0270504580335,47.288857618000236],[26.02684699721441,47.28890719224682],[26.02494504669381,47.28935766025249],[26.02469857175256,47.289391508096145],[26.024407455491573,47.28941396342054],[26.024071458723352,47.28940578234649],[26.022167524363336,47.28915082687897],[26.021361188254676,47.28909226747377],[26.020733997635578,47.28909509642483],[26.01981560380811,47.28919270167908],[26.019255612934007,47.28917649125777],[26.019054065389128,47.28915325356394],[26.01842687912783,47.289045327193264],[26.01815802624656,47.28893811876268],[26.017844449292507,47.28877354514415],[26.017362836055028,47.28841423808758],[26.01664606800465,47.28809261868256],[26.016175786822796,47.28786293476544],[26.016003898566346,47.28776494446589],[26.015929377390904,47.28773276194494],[26.015660556585612,47.287556904326934],[26.015638164110285,47.28756825694674],[26.015593367368258,47.28754148025668],[26.01547019280851,47.287453588457424],[26.015380569984195,47.2873428208954],[26.01534146856555,47.28728172029364],[26.015263044220433,47.287064157232095],[26.0151174601716,47.2866023959491],[26.01506143577705,47.28654126545194],[26.01435029211104,47.28603273051731],[26.014171171394597,47.28592940127826],[26.013992023754724,47.285845235797495],[26.013902401687993,47.28581831474666],[26.013140941313413,47.285626340021985],[26.01297856973246,47.28553446936376],[26.012855407689365,47.28540456128757],[26.012698617810756,47.28516015325545],[26.012357141989945,47.28428609745557],[26.01222829087777,47.28414859159543],[26.012189122145642,47.284125631870644],[26.01199876082809,47.28405667590413],[26.011640364410212,47.28398738750565],[26.010475792110896,47.28390516445972],[26.01005030685131,47.28383960341369],[26.008616926491452,47.283467058892846],[26.008303426038523,47.28344360806869],[26.007093831762926,47.28344819790197],[26.006231692317215,47.28348187046518],[26.004999881228223,47.28356354845417],[26.00372313164318,47.283610786462596],[26.0030960592895,47.28360965077697],[26.002110614620282,47.28354675139629],[26.001774709080816,47.283576649976034],[26.000777997760974,47.28378840020664],[26.00019553977111,47.28393224607775],[25.99954597289499,47.28417139684265],[25.999159558633007,47.284407105153086],[25.998498739478926,47.284951317619694],[25.99846511435393,47.284970321502804],[25.998402342536515,47.28500729564562],[25.996710007957883,47.28577215823562],[25.995063331119617,47.286449521669354],[25.994327725913873,47.2866789462961],[25.993970545512298,47.286753534266516],[25.99365747909097,47.28678977406528],[25.993411269980086,47.28680268178189],[25.993091940493212,47.28680083157952],[25.991325183458592,47.28665125033706],[25.990578955244473,47.28656416309321],[25.990376786863056,47.286534855208075],[25.990219290143006,47.286490054059286],[25.98947969586955,47.28613211669474],[25.989277171975523,47.28607618021068],[25.988267756608668,47.285998255843346],[25.987931141085426,47.285983674343996],[25.98732607184961,47.28595816003921],[25.987079793719914,47.28596718652043],[25.986945561276247,47.28597948407637],[25.98661120812557,47.28608057087665],[25.98643329538414,47.28616179476214],[25.986012206892653,47.28644264516324],[25.98572379494031,47.28661215838275],[25.983367010071387,47.28772451408072],[25.982877823678095,47.287948626022875],[25.98276655352573,47.28799509204631],[25.98265493597807,47.28802239717754],[25.9825432441601,47.288038368502846],[25.982363977174952,47.28803943766104],[25.981938136697988,47.28802667775686],[25.98018900492057,47.28793021017194],[25.979875637356777,47.28795112610587],[25.979697629913495,47.2880208224626],[25.979098137577903,47.288360011488045],[25.978638081057426,47.288660146017556],[25.978584920059138,47.28871033615625],[25.978583726738826,47.288721742634266],[25.978416784702944,47.29031904912933],[25.979184970613893,47.29208190582884],[25.979411700273303,47.29374918559897],[25.97935626502072,47.296086528129656],[25.978217105705742,47.298199336472294],[25.97665267009335,47.30121708363354],[25.975874417614573,47.30429495310306],[25.973998243667193,47.30638053690241],[25.97346090372533,47.30922266919743],[25.972753245197424,47.31079764900095],[25.97259508123364,47.313378234210106],[25.970397496404182,47.31686255106881],[25.967919793700077,47.32038584891697],[25.969791153264083,47.32145184584864],[25.97530108419222,47.32402951651172],[25.9766420715132,47.324701178561135],[25.979136435197542,47.326436836920784],[25.981630955308276,47.3281724407724],[25.984428596254684,47.32888249064938],[25.98863147728247,47.3306486076978],[25.991696408671192,47.33309292900629],[25.99476162012746,47.33553716500632],[25.996605407297867,47.33660974745116],[25.997747801019607,47.33902787368649],[25.999670734046582,47.34206587989632],[26.000591887734117,47.34357533876768],[26.000570512031906,47.34459985364555],[26.001190050049857,47.345379742263056],[26.002150214862084,47.34602508102453],[26.00311740913769,47.34652168071248],[26.004012710351166,47.34729356922765],[26.00475502505856,47.34807073911345],[26.006142991638956,47.349184419110664],[26.007021901391074,47.34980953025891],[26.007606290555675,47.350830628744],[26.007729059573318,47.35139348756922],[26.009315386212847,47.352708457444116],[26.011009211178965,47.35344923528174],[26.013075339467623,47.35436363208926],[26.01571213849084,47.355896143936754],[26.01641372615887,47.35643334481854],[26.017832320490626,47.35701373278407],[26.018256817362058,47.35737722008719],[26.018379087008558,47.357993735107975],[26.018595534896317,47.359686031294494],[26.018805364466093,47.36038523617709],[26.019195595430087,47.36088255211807],[26.018969414759407,47.361260101187035],[26.019091384056427,47.361859927905485],[26.01919678519416,47.36223456038164],[26.020146399340817,47.362434850000064],[26.02168614839336,47.36266331541545],[26.02343229708347,47.362764751630635],[26.025373867294796,47.3634486362825],[26.026938552274128,47.36369350443303],[26.027900488518455,47.363732827104435],[26.02892254972007,47.3639992291984],[26.029740701527786,47.36441141856392],[26.030240152855775,47.36483261475836],[26.030648433879254,47.365621834025276],[26.031235969313663,47.36615074045788],[26.031757760497538,47.36645489222492],[26.032821577392266,47.366837669717334],[26.03429703346701,47.36690796958323],[26.03539158748914,47.366973309194606],[26.037079405233314,47.36722528551432],[26.038030885400083,47.36718947894192],[26.039897241929722,47.36686573690091],[26.041561744788808,47.36642031408189],[26.042295447781477,47.36618520492946],[26.043028518124093,47.36594955431303],[26.04328835343011,47.36589585492689],[26.043490033545925,47.36596337695777],[26.043898501711936,47.3663577555895],[26.04467734852859,47.36726677197717],[26.045281517979554,47.36801688511996],[26.04543818153714,47.36845040956246],[26.045524634030308,47.36919542081556],[26.045716341848014,47.36978289450921],[26.04585467445688,47.370606781700964],[26.04583737143642,47.37119283277387],[26.045669018191838,47.37205335452747],[26.045499218008253,47.37289411651993],[26.045489210985977,47.37330188733123],[26.045542901529306,47.37393368243191],[26.045662098138564,47.374485971101194],[26.04586650900233,47.37559226493742],[26.046321952442767,47.37626416037316],[26.04735885553714,47.37713944784386],[26.049524822994236,47.37794609019812],[26.050242804550543,47.3782607415849],[26.050103407146118,47.37881944638827],[26.049826861399758,47.379562433783406],[26.049459945331634,47.380275146609655],[26.04902209519987,47.38113037510496],[26.048306239681512,47.38222179914141],[26.048743485406394,47.3824176425448],[26.049338465925416,47.38267861584149],[26.049827586247375,47.3829545622823],[26.050831177695102,47.3831503557544],[26.051411068222247,47.383270283631845],[26.05180178507789,47.38337435514725],[26.05205043894918,47.383482833561914],[26.052094040282586,47.383770864078805],[26.05200971415659,47.38401044558536],[26.052003555251822,47.38446889607125],[26.05216702869763,47.38477772753403],[26.052499466691394,47.38500004111345],[26.053215295462316,47.385142905956755],[26.053748645215183,47.385166386591386],[26.054145607249065,47.38519754701892],[26.054449689823485,47.38532740787734],[26.0549178274654,47.385825025314425],[26.05557546858601,47.387179763079146],[26.055696322079037,47.387699395958585],[26.056097525385738,47.38842452764381],[26.056921592291552,47.38914565597821],[26.057479218790796,47.38973502837437],[26.05794696428561,47.390037640911984],[26.05814109850568,47.39053243993354],[26.058450268291303,47.390629769406985],[26.059349838211265,47.39044211773727],[26.06007828838796,47.39030192825834],[26.060543635821983,47.39021838941388],[26.06127206517686,47.39038698329769],[26.062117062429408,47.39054615744617],[26.063057128974886,47.39054171737968],[26.06418416146676,47.39036028951403],[26.06488561641187,47.39009930153566],[26.0651856553143,47.39004647117142],[26.06578880984478,47.39009517795334],[26.06634340397188,47.39017353446076],[26.066675576192775,47.390191343027574],[26.067240121081234,47.39015276268614],[26.06758475104898,47.390178802197426],[26.067875751864065,47.390288788175],[26.068216402126318,47.390423356158564],[26.069060588612622,47.3906790901261],[26.070736939788098,47.39064707123585],[26.07241329000953,47.39061502540228],[26.074029108095257,47.391237974283136],[26.073600302431384,47.391887044535835],[26.07476306034717,47.39258138087876],[26.075745823053914,47.39311234987041],[26.076525574119973,47.39343515958099],[26.077426147823815,47.39317118086021],[26.077753786652504,47.392988682922095],[26.078487247598922,47.393206899353856],[26.079306959453362,47.393319288808996],[26.080280076130276,47.39337023311981],[26.080793883374103,47.39365048883879],[26.081329174633254,47.39390053686382],[26.08201453953612,47.39392414682418],[26.08296437409531,47.3939152785441],[26.08355956214165,47.39384970921033],[26.08472206063798,47.39343377773589],[26.085535387398075,47.39323113252316],[26.086413144823418,47.392937867113886],[26.08911970049539,47.39565789692785],[26.090648844579132,47.39548946891005],[26.09151400579893,47.39497527860947],[26.092593629654395,47.39483008767115],[26.093721108066248,47.3948644647269],[26.09452553501654,47.395306943120296],[26.094911197366454,47.39579837803587],[26.095780387028366,47.39616522523049],[26.099613350238837,47.3976070952115],[26.100414558755208,47.3982014146934],[26.101590826659468,47.39936566114697],[26.102539726363148,47.400791662236614],[26.104054224146417,47.40202764027566],[26.10714897705083,47.40315330901967],[26.108059754929062,47.403384644523875],[26.110266855442646,47.40325851334892],[26.112399861476373,47.40275799798614],[26.113875996013498,47.402548797705975],[26.115740072500444,47.401870773300054],[26.116620315636013,47.40169727363058],[26.11805410447918,47.401578441905684],[26.119154619216566,47.40137279631292],[26.119986569930404,47.40100470768526],[26.120534776644412,47.40080437802],[26.122660025998268,47.399943691608435],[26.123535795217208,47.39956014932023],[26.12480414294967,47.398932759681415],[26.12544429974586,47.398641502606786],[26.12573116279462,47.398623714281925],[26.127030429570155,47.39894114395671],[26.128190395148494,47.39946244425605],[26.12890744586884,47.39993553955004],[26.129595606198208,47.40008636274134],[26.130351693288247,47.4001840084655],[26.13049039404563,47.40021266401296],[26.130862410061294,47.40030280107715],[26.131074817613342,47.400420746967285],[26.131224885902633,47.40046428700675],[26.131440674382098,47.40048093535118],[26.132310466991466,47.400599966592885],[26.132745915408567,47.40061791170379],[26.132954091780544,47.40066869029969],[26.133311333393618,47.40084335137554],[26.13362779416477,47.40104841429365],[26.13409732848404,47.40130824082686],[26.134334162281707,47.40140531141404],[26.134634950803274,47.40152238701806],[26.134822628608966,47.40160893647178],[26.134957934811176,47.40177426669026],[26.135094095065455,47.40207298130818],[26.135243920768996,47.402234664208876],[26.13562639218812,47.402425948427414],[26.135962887748452,47.40253329347692],[26.13629642863955,47.4026312936236],[26.136646616312483,47.40273287644184],[26.13694252862327,47.40287999717387],[26.137358581844808,47.403220971912084],[26.1377549407483,47.40367465346411],[26.138030125582997,47.40388573630188],[26.138202862808246,47.40395530132454],[26.13863463593785,47.403996069765796],[26.139116751923417,47.40406634533612],[26.139699811592816,47.404206888192206],[26.14003256448823,47.40426737764449],[26.14071648948676,47.40421564361263],[26.141185402283167,47.40418477664527],[26.14191751495295,47.40432009089599],[26.142489696234758,47.4044682268217],[26.143337232442263,47.40447002022072],[26.143345457112773,47.40436485017995],[26.143407583172902,47.40421828089321],[26.14343265867525,47.404142543158336],[26.14346214085699,47.40406474416557],[26.143555260383184,47.40392139104534],[26.143834226095876,47.403847680218234],[26.14402579190266,47.40378942162253],[26.144092455734953,47.40378574482017],[26.144217163151293,47.40387360391758],[26.14429753807454,47.40401533278427],[26.144348529497545,47.40407484067445],[26.144475726490956,47.40408108519211],[26.14459018584012,47.40400869480652],[26.1447268209966,47.4039398348896],[26.144915175927824,47.40396422809612],[26.145027784156678,47.40399874731709],[26.145179990511753,47.40401224761621],[26.14538754609243,47.40398088059094],[26.145617684354974,47.403942285819234],[26.145808792655068,47.40396665487016],[26.145903734845582,47.404014473818386],[26.146030522873552,47.4040852495801],[26.14614678774603,47.40411228472232],[26.14626821199044,47.40410303122486],[26.146668778784235,47.40401066101336],[26.14717161799455,47.40388754235992],[26.147477152130794,47.40383763846317],[26.14769527554735,47.40383360218908],[26.147820835071137,47.403892370464895],[26.147953815874224,47.4040392030516],[26.14794074655816,47.40420248136891],[26.1480160531655,47.404364885607954],[26.148195918633604,47.40463689844352],[26.148235765277942,47.40482028048427],[26.148318392102073,47.40493760613356],[26.14845969845618,47.405086229508775],[26.148543351824976,47.4051229086656],[26.148749391718784,47.405070232941526],[26.148907710780755,47.40498240300887],[26.149050107695828,47.40492473126008],[26.149171461685036,47.40491602867978],[26.149404098026938,47.40493893401],[26.149429483373428,47.405097250521194],[26.149421745108494,47.405251099629304],[26.149496452843692,47.405385381152485],[26.149583919431727,47.40547077534538],[26.149748310681773,47.40553665646294],[26.149884396911087,47.405570937278306],[26.15006206300986,47.405490055810525],[26.15019493789887,47.40549659669496],[26.150350073387425,47.40551756110291],[26.150531522100323,47.405605775274935],[26.150850243587488,47.40565511994266],[26.151054771523054,47.40566058971296],[26.15134273851363,47.40565304562516],[26.151623152634016,47.40563056967848],[26.15196511873323,47.405604668524845],[26.152315162423044,47.40556931049868],[26.15252781511421,47.40556719699565],[26.152805317612206,47.405626322482114],[26.153186014738502,47.40573130528696],[26.153508555083956,47.40582936188053],[26.153811926870357,47.405935111851356],[26.153931004485163,47.40594892674537],[26.154228298978737,47.405900960983104],[26.154771628046117,47.40573427886783],[26.155055930528583,47.405596424969666],[26.15520457367607,47.40557243987173],[26.155459465370473,47.40547988567187],[26.155610745943104,47.405450247692556],[26.15580703140942,47.405457667781974],[26.156058380105737,47.40558455729738],[26.156377162509234,47.405619148106155],[26.156824419171514,47.40562567447792],[26.156956413730022,47.40559810371018],[26.157160697115394,47.405592315698925],[26.157309014541834,47.40555333217822],[26.15741302496108,47.405509159265755],[26.157522640438607,47.40534116562791],[26.157535797186537,47.40518350864695],[26.1576574323799,47.40506039897922],[26.157750233082535,47.405008841327685],[26.15791828593795,47.40498840934398],[26.158098201347176,47.405005366417186],[26.158295050419504,47.40503903138658],[26.158399829929078,47.40503048470917],[26.158548676416267,47.404961801307685],[26.158704949246157,47.404961797876105],[26.159073834323983,47.40503124912291],[26.15933550268385,47.40512427106295],[26.15956334603995,47.4053132722011],[26.159770321947654,47.405558743278235],[26.15985771981171,47.40564038007605],[26.15995215609342,47.40579133497561],[26.1600364287837,47.405856126468024],[26.16016948046501,47.40587729869392],[26.16037278747655,47.40582650708249],[26.16061226958241,47.40566096032261],[26.16078035842837,47.40551487897338],[26.16090613516339,47.405455486032075],[26.161041252008566,47.405444758471134],[26.16115789670127,47.405473594684274],[26.161289445983837,47.405552915309926],[26.16136937971216,47.405672133520675],[26.161551384160155,47.40591222097183],[26.161786832600285,47.40606926525575],[26.16201314082056,47.40618701632074],[26.162183478960603,47.40627157057896],[26.16238513779584,47.40639894446802],[26.16244744129823,47.40646958052144],[26.162425033172184,47.40658232309461],[26.16243312566479,47.40670038506977],[26.162521309761807,47.40681764588786],[26.16269750429575,47.406917144139534],[26.162828529019404,47.40697208740625],[26.162975388069377,47.4069931188578],[26.16316120190824,47.407000142174596],[26.16336626582355,47.407056708945035],[26.16360833373093,47.4071367946027],[26.16373230317149,47.40724806571],[26.16382969884114,47.40728084554533],[26.163988943884593,47.40723611234897],[26.16413551688198,47.40724401829617],[26.164262886963073,47.40725774294705],[26.16462952048122,47.40717793724901],[26.164781670894318,47.407106260230655],[26.164947499278416,47.40711022130637],[26.165388213499302,47.40717892726977],[26.165590024481922,47.40718627529982],[26.16573169441933,47.407222358900654],[26.165949711185224,47.407212663351096],[26.166208454887837,47.40717068058035],[26.166322728817473,47.40709076972652],[26.16650837862147,47.40686386539973],[26.166614451759322,47.40678778626293],[26.166869820498516,47.40671770645724],[26.167024189261813,47.40670302598229],[26.16728980825075,47.406722855743816],[26.167483741869674,47.40674903366715],[26.167635760596912,47.40675312993584],[26.167822532337816,47.40670436472421],[26.167975430906335,47.40662218663401],[26.168249061973846,47.40650316435601],[26.168390499052887,47.40640234818052],[26.168435111497935,47.40629500670945],[26.16846715799295,47.4061184041147],[26.168515600878663,47.406059784867594],[26.168692062438726,47.406044876812956],[26.169059040002054,47.40602617665689],[26.16940747456778,47.40591764504114],[26.169908759799043,47.40572506188659],[26.170220019806415,47.40555876817384],[26.17054503308661,47.40551610680268],[26.17071840416091,47.40548622605576],[26.170898156835097,47.405495664091454],[26.171050582991025,47.40551850206541],[26.171247154250732,47.40553902006924],[26.17141648139232,47.405576690332516],[26.17161560704276,47.40558780540048],[26.17195731463085,47.40555059836289],[26.172232577520763,47.40550655852263],[26.17258639986345,47.405517984449034],[26.172906998834918,47.405525992249395],[26.173328712067335,47.405484221414405],[26.17350174814576,47.40543933909012],[26.17383298546834,47.40530283769376],[26.174024820475427,47.405233387859774],[26.17422055151613,47.40519949534476],[26.17450439680408,47.405185397153],[26.174868687117755,47.405044810225924],[26.17517053200656,47.40482796817706],[26.175286844711344,47.40471614678362],[26.175453987756555,47.4046544411776],[26.17564177605502,47.40465253731232],[26.175802983312725,47.40469778706196],[26.175878752263518,47.40459600819005],[26.17598252679304,47.40442705108687],[26.176231874778622,47.40413985832391],[26.176198792965863,47.40400714237317],[26.176222004395335,47.403707092250954],[26.176215150012464,47.40352840160645],[26.176134784163246,47.40334563119273],[26.17529031180131,47.403090154618],[26.174610102427394,47.402932014224355],[26.17433980420534,47.402879412429805],[26.173956138455573,47.40277166638935],[26.17359881092305,47.40263775574404],[26.17310745612864,47.402457140832254],[26.17198057675779,47.40233535460071],[26.1714861378604,47.40225866048546],[26.17065100643659,47.4021795031623],[26.16995795999496,47.402093956633024],[26.169428216076202,47.40203675256046],[26.169021757321758,47.40200100810478],[26.16824785727433,47.40195902896136],[26.168014334808696,47.40194478582781],[26.167854478724532,47.40194243152294],[26.167143950855596,47.401874276092336],[26.166721728523175,47.40183129655964],[26.16629664920008,47.40176343704662],[26.165893433357496,47.40170620439352],[26.16556842238805,47.40167947763855],[26.165013472305255,47.40164388757319],[26.16466498434581,47.40161866891018],[26.164454067048826,47.401606108594244],[26.164382268489167,47.40158002700959],[26.16450893732326,47.40130871252338],[26.16481909729912,47.400585483592984],[26.16517003308482,47.39995935585941],[26.165445037666682,47.39939775463019],[26.16577402981391,47.39877934882863],[26.166092317679638,47.398106370090765],[26.16658795988955,47.39709448164849],[26.166844661652274,47.39655329158742],[26.166962900551983,47.39644245735685],[26.167504827913564,47.39656687050696],[26.167959188240687,47.39679645126956],[26.16815331541311,47.396924363629026],[26.1687656502132,47.39718036302502],[26.16904690199279,47.39727637646412],[26.169355488315063,47.39746806760392],[26.169630982139523,47.39773683216225],[26.16981961895382,47.397878570891926],[26.169979766482882,47.39791040747681],[26.170411112363844,47.39788244123102],[26.170483657296526,47.39788564283492],[26.17068589985842,47.39790228473514],[26.171175476184747,47.39808427011496],[26.171429556283563,47.398169265873584],[26.171771437150966,47.39822582619516],[26.171999024637262,47.39829239386125],[26.17222972545508,47.39836877303084],[26.172467918757782,47.3983899781592],[26.172664924152986,47.39838404733024],[26.1729454672336,47.39830610819639],[26.17314351393301,47.39828147592049],[26.173533843679643,47.39836607345037],[26.173914190266157,47.39839173807291],[26.174300242025936,47.398413408813575],[26.17464762083979,47.39839021118396],[26.17498475211718,47.39834523897767],[26.175389968246034,47.3981837124261],[26.175836847326245,47.39807095837686],[26.17608688231403,47.39797200675191],[26.176186856319614,47.39777225189289],[26.176094399693305,47.397103618621394],[26.176025317872565,47.39672550813037],[26.176048146488323,47.396507741302464],[26.176151663037437,47.396191640954534],[26.176290946291797,47.39574390504372],[26.176425944414564,47.39535247344623],[26.17651673219482,47.39498920879801],[26.17657731873055,47.3943848980989],[26.17654975867702,47.393798664184786],[26.17652220324459,47.393212429188914],[26.177106975354736,47.39266762429396],[26.178009331033447,47.392009604288226],[26.178923889132406,47.39165525249691],[26.179640490550014,47.39159170203862],[26.180578052725874,47.39152965040875],[26.181795817993866,47.39140097401158],[26.18343751367787,47.39121169959895],[26.183792529154438,47.39103179412078],[26.184439114833975,47.39030132273162],[26.185024526432848,47.38955271869952],[26.185917020444045,47.38847812658161],[26.18641377854101,47.388781607482684],[26.186831414757613,47.3890954105031],[26.187422536811003,47.38935190080999],[26.18818683243493,47.389696628726384],[26.188629067853686,47.38971459900568],[26.18873673155118,47.38983726541958],[26.188707185217158,47.389998845914704],[26.18886612714588,47.390192247691026],[26.189465462124016,47.390568662322146],[26.190285071058025,47.39106619415985],[26.190690436559418,47.391321790558514],[26.1908310588017,47.39141520050843],[26.191198320878208,47.39158264204459],[26.19139435719015,47.3916650294252],[26.191679487570287,47.39170711333651],[26.19191980158673,47.39169873160889],[26.19217206955971,47.391700959638904],[26.192339855459835,47.391737818175116],[26.192812255601414,47.39189372345722],[26.193280031151673,47.392054496299984],[26.193501693051715,47.392157578952364],[26.193640425854785,47.392218850395565],[26.193884482710626,47.39227742771011],[26.194065872660143,47.392392918421876],[26.19420740035158,47.39247344971941],[26.19451923454822,47.392544187374256],[26.1950878744372,47.39279121846339],[26.19543233543321,47.392881432926174],[26.195801230404534,47.39292550103351],[26.196106305146962,47.39301157853576],[26.196432094357746,47.39313378368771],[26.19662626186266,47.39323788449036],[26.19682746409164,47.39344480099189],[26.197017436965993,47.39357306013121],[26.197058434962962,47.39365864439201],[26.197293524278802,47.39377774435812],[26.197403873274517,47.39390470475439],[26.197573566434162,47.39395200833802],[26.197791960599506,47.39396528478216],[26.19804064549605,47.39398158353978],[26.198236038950792,47.39401792878159],[26.198473401390043,47.39410793125918],[26.198828299811424,47.39426948423337],[26.19927965639431,47.39435726759484],[26.199502861880177,47.39435307201913],[26.199733872436475,47.3944072848151],[26.199856228403142,47.394347233951876],[26.20004473677481,47.39437903693762],[26.200216765253792,47.39441476337294],[26.200482841177685,47.39445701306975],[26.20078723006507,47.394483868044155],[26.20118550214245,47.39450974686783],[26.201380290916095,47.39457524027127],[26.201549180622536,47.39463587761764],[26.20185727228025,47.39463289831727],[26.20199589143874,47.394657876329596],[26.20212619575317,47.39472507965948],[26.20223521659564,47.39491703307634],[26.202327591081595,47.39502802820199],[26.20242904061579,47.395171631545054],[26.202568238084385,47.395210876000384],[26.202730758587254,47.3952026149324],[26.20292438698019,47.39520250874836],[26.203139521823775,47.39522313624249],[26.203369440400927,47.39527694113126],[26.203446156362084,47.39531900108747],[26.203557327463063,47.395395945315606],[26.20373484935772,47.39542838623886],[26.20394319436322,47.39545860595329],[26.204153690312168,47.39544873547826],[26.204343410568583,47.39546200325408],[26.204484653853207,47.395503395809506],[26.20461951272044,47.39551056341112],[26.204965413374296,47.39557491604171],[26.205081327118386,47.395612760399835],[26.20514552596434,47.39565691677533],[26.205197589942827,47.395725901494465],[26.205153357923752,47.39581779076745],[26.20511439707678,47.39589438773223],[26.205157769923662,47.395951079750525],[26.205247065658913,47.395991104190664],[26.20536960623364,47.3960117374126],[26.205596502446703,47.39593127999718],[26.205683191237593,47.395805780629786],[26.205831445550615,47.395766735184274],[26.206042622025546,47.39580378206978],[26.206153256223654,47.395826773835644],[26.206271701717863,47.395884926225754],[26.206409477264593,47.39589682391016],[26.206467834387222,47.39587145414539],[26.20652805390274,47.395804160496546],[26.20665627272296,47.395765683233854],[26.206723713407328,47.39576974381613],[26.2068575561072,47.39585597033687],[26.206969382105793,47.395961474131425],[26.207122816504615,47.39604559192318],[26.207375158159117,47.39616010902345],[26.20752383040291,47.39621951426718],[26.20774231387299,47.39632581357217],[26.20806270629782,47.39640914347637],[26.20856092469267,47.396517689857895],[26.208784374915737,47.39659535949938],[26.208775707506362,47.39675249109536],[26.208700346608033,47.39683954163021],[26.208751317665737,47.396895268785514],[26.20889183704287,47.39687995968099],[26.209058112380987,47.396783304078866],[26.209210616581718,47.39668794785183],[26.20937467610882,47.39661497448807],[26.209475861024472,47.3966926811409],[26.20949012799517,47.39683505572908],[26.209463709307002,47.39692145944599],[26.209510056349366,47.39699289122087],[26.20950961858034,47.39707759263135],[26.20960369815123,47.39714266547944],[26.209765836611172,47.39718819940089],[26.20985605021763,47.39721157524423],[26.2099572145625,47.397277639006276],[26.209994383580597,47.39732465844725],[26.21000596638172,47.39748967610858],[26.210024357311173,47.3976434289313],[26.21005791088798,47.39773896214639],[26.210104047731313,47.397800807883726],[26.210245983061206,47.397862986865896],[26.21045554206605,47.39793271175369],[26.210605587514255,47.39800838514807],[26.210716641399124,47.39806049467504],[26.210844043485864,47.39807194938174],[26.210865335053168,47.39811114496986],[26.210811832739974,47.398174563554946],[26.210783164601395,47.39822546746596],[26.210793109337054,47.398318053408524],[26.210848706537295,47.39837541267896],[26.21094615265888,47.39840942912577],[26.211008273245547,47.3984492678696],[26.21098615889355,47.3985816065856],[26.210961214648588,47.3986585745429],[26.210996514380305,47.39872692388759],[26.211102524343385,47.398729542741336],[26.211203452655052,47.39871570685353],[26.211248396842056,47.398724825307795],[26.211232711361628,47.39879476964475],[26.211262736605214,47.39883813713505],[26.21134535850543,47.39884739448758],[26.211401040884766,47.39881112452981],[26.211502355413202,47.39871044918308],[26.21157397698382,47.398684666594974],[26.211622530020023,47.39871452174568],[26.21160998895359,47.39881906262855],[26.21156034905176,47.398914398706886],[26.211588663762818,47.39897791532134],[26.211632851939207,47.399014632376335],[26.21178328039655,47.39903756186632],[26.211903728809304,47.3990192581325],[26.211996871468973,47.39904278881795],[26.21203843280657,47.399110539823496],[26.21206737166935,47.39920984772884],[26.21209137038413,47.39933371517402],[26.212053698023674,47.399402827032404],[26.2119536577233,47.39949070074735],[26.211931008255373,47.39957370103647],[26.21199400028552,47.39965187844064],[26.212094870026913,47.399704628363914],[26.212208608833496,47.399771088551304],[26.212299027470422,47.399882008879274],[26.21247091147024,47.400020312202436],[26.21262178105553,47.40011341137371],[26.21272703278825,47.40016756957515],[26.212775668417354,47.40023577886837],[26.21272081929351,47.40030879764597],[26.212725312112603,47.4003684132537],[26.212827866359568,47.40039131226829],[26.212951154801782,47.40042890790914],[26.213189508293443,47.40062564120247],[26.21336445181651,47.40076631041715],[26.213429981388927,47.400852453445815],[26.213380495003673,47.400988808741324],[26.213379146230956,47.40106766138888],[26.213427926880446,47.40110763482879],[26.213798394284126,47.401204509960735],[26.21395023577929,47.40132293994163],[26.21412171348174,47.40157618374603],[26.214258266769708,47.40175103458507],[26.214286869854856,47.401901509409264],[26.21436468997947,47.40197771659796],[26.214617852586674,47.40200842029768],[26.21487450464746,47.40210775088662],[26.215261573715644,47.40219688354661],[26.21541947631712,47.40228645716955],[26.2156574700924,47.40230646570334],[26.216016678922355,47.40235050207798],[26.216398060388652,47.402321202981724],[26.216715052861584,47.40236748198665],[26.21709770244379,47.402478887705],[26.217960683599753,47.402773622625745],[26.218459545800037,47.402847146926426],[26.218997411931785,47.402935259012594],[26.21943501463236,47.40298691508473],[26.219809376745438,47.402930469212336],[26.220379789667096,47.402991978468464],[26.222219872490687,47.40268532153014],[26.22341796104801,47.402107106019656],[26.224616022314233,47.40152887903437],[26.22588209690203,47.40038126581895],[26.227148111951763,47.39923363947975],[26.227753469415063,47.39908394247815],[26.22835882480472,47.39893424320824],[26.2294544389246,47.39883043614513],[26.23014381079587,47.398781866228425],[26.23093215094377,47.39871349103264],[26.23124719383793,47.398721396316375],[26.231660356193306,47.39891203982909],[26.23208378827341,47.39906881863047],[26.23253724406126,47.3990902530876],[26.23292494855644,47.399134888630485],[26.233181149165464,47.3992259298349],[26.233381781020658,47.39930255799706],[26.23374670327585,47.39931742859934],[26.23421482269055,47.39925618861535],[26.23489176467789,47.3991477136744],[26.236467634920047,47.39873710140443],[26.238473070370336,47.39803308165517],[26.24034974210997,47.39749543546655],[26.242592068647674,47.397006344878676],[26.244096113699847,47.396600150781815],[26.246156557395913,47.396367986554914],[26.247636174174836,47.39633706984336],[26.248706619963507,47.39628804091399],[26.24976163537685,47.39596143945635],[26.250640088804005,47.395352042796894],[26.251313779383473,47.39487219361321],[26.251759920107073,47.39458233180491],[26.25246277406806,47.39439402561103],[26.252902023760562,47.39401763191765],[26.253168761066245,47.39341941244794],[26.253426251464756,47.39309407642271],[26.253819820302436,47.39280102153119],[26.25503560661752,47.39218213717846],[26.25544945456402,47.391930112266095],[26.254745409464125,47.391379717560376],[26.254079386576198,47.39085725578867],[26.255552644564602,47.38985676336453],[26.255853635686936,47.38962096350098],[26.2559627005373,47.38956164636806],[26.256047096116504,47.389510096474936],[26.256138465224986,47.38952036063189],[26.256290012662657,47.389623734608],[26.256403879446953,47.389768775641386],[26.256482017850306,47.38980356058951],[26.256578693821076,47.389804389334415],[26.256615097111613,47.389708355252885],[26.256618928977293,47.38951890320944],[26.256808729427465,47.38925242376208],[26.25721675546937,47.388989208239806],[26.257435325574388,47.38888932067239],[26.257664402723613,47.38876681220648],[26.257865080224516,47.388610858883915],[26.258158267682823,47.388397289540826],[26.25827597516747,47.38823508489103],[26.25844493277222,47.38813948432647],[26.258657794144973,47.38803215628983],[26.258911387076576,47.387778111263984],[26.259226769231915,47.38756839850491],[26.25963154614724,47.38740272206526],[26.25996472620483,47.38724532603996],[26.26022851425647,47.38718994742274],[26.26079216662964,47.38697003102874],[26.26149635925237,47.386621061535905],[26.261826962661612,47.38635491765923],[26.26196056843493,47.386165930832604],[26.262163077120302,47.38608871368923],[26.262667045047273,47.38591444544279]]]]}}]}
